{"type":"FeatureCollection","features":[{"type":"Feature","properties":{},"geometry":{"type":"Polygon","coordinates":[[[-58.153117251405995,-32.21410398128973],[-58.15274923889419,-32.2140458085695],[-58.152727634244464,-32.21401652227681],[-58.15269207973926,-32.213962295096174],[-58.152653324623536,-32.213902196875445],[-58.15261580235715,-32.21384301825082],[-58.15259127894629,-32.21379919430869],[-58.15257421859873,-32.21377229403784],[-58.15255893620881,-32.21375082025599],[-58.15254066138739,-32.21372681435104],[-58.152519501319354,-32.21369812309769],[-58.1524941162151,-32.21366597109788],[-58.152482540334184,-32.21365208941372],[-58.1524789198817,-32.21364774780101],[-58.1524698673437,-32.213636892080395],[-58.1524469769491,-32.21361038440661],[-58.15242798544745,-32.21358616064435],[-58.15241365645853,-32.213569179713566],[-58.152405801211906,-32.213559870651544],[-58.152380713081264,-32.21352509935582],[-58.15235608754776,-32.21349288470948],[-58.1523488192861,-32.2134833765052],[-58.15231141867226,-32.213447036750395],[-58.152293478011394,-32.21342801245233],[-58.15226344819571,-32.2133895625426],[-58.152243903779734,-32.213357027061924],[-58.15222154934706,-32.213317661550946],[-58.15219879375651,-32.21327925486818],[-58.15218039637117,-32.21324978350974],[-58.15215862406436,-32.21322253480121],[-58.15213568631499,-32.21318841699437],[-58.15210201483408,-32.213141267591766],[-58.15206612585633,-32.21309941413121],[-58.152034488431354,-32.21306862217767],[-58.15200937016671,-32.213047410226686],[-58.15197427167833,-32.21302100345433],[-58.151936890045626,-32.21298845954886],[-58.151912774861664,-32.21296484599633],[-58.15189288486559,-32.2129446841882],[-58.15187392289037,-32.212924256456006],[-58.15185771278927,-32.21290304851915],[-58.15182781647206,-32.21287007309076],[-58.15179688551585,-32.212836670477756],[-58.15179492796951,-32.21283455650513],[-58.15177801981331,-32.21281692666308],[-58.151762221533325,-32.21279476003987],[-58.151743011422624,-32.21276720612994],[-58.15171944302151,-32.21273072588881],[-58.151711023777615,-32.212719948359165],[-58.151689413486466,-32.21269228486918],[-58.15166905645653,-32.21266166681436],[-58.15165918487647,-32.21263695422364],[-58.15164487980127,-32.2126054599764],[-58.15163126240826,-32.21257037845639],[-58.151615591078986,-32.212532508042464],[-58.151595168153236,-32.212490474932515],[-58.15158184789114,-32.21245276512158],[-58.151572971544574,-32.21242184613589],[-58.15156676982987,-32.21240036031903],[-58.15156472629651,-32.212393280503576],[-58.151554531376554,-32.21236358642065],[-58.15154632445364,-32.21232526618587],[-58.15154220132537,-32.21228113635296],[-58.15153934804774,-32.21224552704929],[-58.15153957276591,-32.21221031438167],[-58.151542838577946,-32.21216788842331],[-58.15154371265099,-32.21213884308583],[-58.151543554454626,-32.21210840322389],[-58.15154584352179,-32.212075988617265],[-58.15155087676274,-32.21203897999253],[-58.15155403059507,-32.21202997120542],[-58.151550975324824,-32.21198939798937],[-58.150546833561656,-32.211300521493094],[-58.149717392239495,-32.21070187295093],[-58.14886682282666,-32.21009562928366],[-58.14804393355065,-32.20949394124238],[-58.14706932523443,-32.20878471390702],[-58.14497319886654,-32.207295541464234],[-58.144695067499256,-32.20709793963313],[-58.14467001414397,-32.20714383239829],[-58.14419193596641,-32.207820508724616],[-58.14376581624623,-32.20829132355343],[-58.14357282888179,-32.208570986596285],[-58.14342065445035,-32.208616467616366],[-58.14328351693018,-32.208688247677536],[-58.142973041855534,-32.208976173449116],[-58.142600778636094,-32.20927664765176],[-58.142357193233856,-32.20958936843105],[-58.14210684145088,-32.209829160093534],[-58.141867209039134,-32.21004779092911],[-58.14178992042023,-32.21011473353104],[-58.14140636972532,-32.2105624566933],[-58.141171102345524,-32.21082500019999],[-58.140882478450074,-32.21115165445186],[-58.140628899338196,-32.211410212465005],[-58.14048507917358,-32.21155307348436],[-58.14042649285042,-32.211689722984154],[-58.1402142363708,-32.21191177120198],[-58.139990097884926,-32.21215042475393],[-58.13977426697019,-32.21235271161181],[-58.13964547770531,-32.21249491996292],[-58.13945707872496,-32.212693347253186],[-58.139259318584514,-32.2128959055781],[-58.13906858272652,-32.21306046228213],[-58.13900456035537,-32.21320833037917],[-58.13874172683131,-32.21343170880367],[-58.13852053213359,-32.21358322286822],[-58.13826393204005,-32.213744355163165],[-58.13813605636759,-32.21378618511642],[-58.13812558939477,-32.213886259278304],[-58.13796018131725,-32.21423989373551],[-58.13783912343941,-32.21442364235252],[-58.13769811950488,-32.21454306170369],[-58.13764167092451,-32.21474278081373],[-58.13760531128626,-32.21489635867883],[-58.137521790592,-32.21520813930784],[-58.13709777926957,-32.21523542866216],[-58.13705603160105,-32.21465595217346],[-58.136941667906356,-32.2145352303474],[-58.1355686503705,-32.215444138933265],[-58.13678978691819,-32.21635540073694],[-58.13763492096765,-32.216986057004284],[-58.13847063344655,-32.217609668895555],[-58.13931630271708,-32.218217684575485],[-58.14016543853872,-32.218831088287985],[-58.14100527313296,-32.21943775950633],[-58.14184795805902,-32.22007770645765],[-58.142697982032416,-32.22068474510368],[-58.14353115293732,-32.22130127736151],[-58.14438949626083,-32.22192890841561],[-58.14498565961709,-32.22236205050889],[-58.14558018378377,-32.222802197468724],[-58.14643544855042,-32.223401842158516],[-58.147151399190655,-32.222688711944244],[-58.14785361879289,-32.22197385622905],[-58.14856474843097,-32.221257525370724],[-58.14931105645011,-32.22050861775728],[-58.150111703093586,-32.2197879939207],[-58.15080617080329,-32.219037016883114],[-58.15150734010935,-32.218323140383006],[-58.1506741100964,-32.217678811222726],[-58.15006197888917,-32.21723861794225],[-58.15080012638961,-32.21650004050982],[-58.153117251405995,-32.21410398128973]]]}},{"type":"Feature","properties":{},"geometry":{"type":"Polygon","coordinates":[[[-58.15150734010935,-32.218323140383006],[-58.1523729944508,-32.21894877754873],[-58.153185269087935,-32.21950961604953],[-58.154101800575475,-32.2201671886222],[-58.154930355882335,-32.2207292079606],[-58.15583452307228,-32.221385507625165],[-58.156677116846566,-32.22197815248945],[-58.15741063108568,-32.22118299833159],[-58.15885232426126,-32.21962044545817],[-58.158803398557325,-32.219615278446526],[-58.15876177505073,-32.21961402284665],[-58.15872769382134,-32.21960637668745],[-58.158725475446126,-32.219605758009536],[-58.15868488576178,-32.219594438031415],[-58.15862715402152,-32.219573626671846],[-58.158557483298594,-32.219542669764685],[-58.15847957243459,-32.21950432595228],[-58.15841063715545,-32.21947740076003],[-58.158390194597544,-32.219471183360426],[-58.15836823034564,-32.21946450314827],[-58.15833567973511,-32.21946878915156],[-58.158311244883265,-32.219447714583815],[-58.158289191088194,-32.219426900109546],[-58.15826282583837,-32.21940286621877],[-58.15825344928071,-32.21939431878315],[-58.158219379000826,-32.21936930808925],[-58.15819717279238,-32.21935657861081],[-58.15817012847227,-32.21934184020252],[-58.15814431690871,-32.21932803035865],[-58.15811583901357,-32.21931285631475],[-58.15808499155024,-32.21929369877733],[-58.15805203929612,-32.21926794700276],[-58.15801721509509,-32.21923509949494],[-58.15798543177506,-32.219195038530096],[-58.15795465143814,-32.2191525759254],[-58.15792020975986,-32.21911496457447],[-58.1578996793707,-32.21909599348266],[-58.15788168671145,-32.21907936736951],[-58.15784440489341,-32.2190484855136],[-58.15781072790753,-32.21901871105339],[-58.15776949871687,-32.21897794433846],[-58.15775126950309,-32.21896154920787],[-58.15773885222629,-32.21894094724991],[-58.15772469632836,-32.21891873315224],[-58.15770725109913,-32.218896597322],[-58.15769340007543,-32.21887556874409],[-58.15767914809247,-32.21885549000111],[-58.15766048847757,-32.218836248585475],[-58.15763280520701,-32.21881534291455],[-58.157598649627026,-32.218792476592235],[-58.15755952250791,-32.21876212673625],[-58.15752283465787,-32.21872599719908],[-58.15748817396587,-32.21868506470361],[-58.1574615046991,-32.21864439297055],[-58.15743844060491,-32.218604810621926],[-58.15741597834386,-32.21856378548995],[-58.15739168945566,-32.218527088383844],[-58.157359714060476,-32.21849131602069],[-58.15734129608627,-32.21847408725536],[-58.15732015924617,-32.218454315164294],[-58.15727626386059,-32.218412202118216],[-58.15722747462958,-32.21835665618175],[-58.15719111334723,-32.21830435685111],[-58.157176807632396,-32.21827544602549],[-58.15716613750984,-32.21825388245911],[-58.15714781578159,-32.218201088845206],[-58.157146805973746,-32.21814759200209],[-58.15714334096229,-32.21809225618193],[-58.1571357545298,-32.218035138229375],[-58.15713086402785,-32.21798317158643],[-58.157134242561945,-32.21794240602801],[-58.1571377924833,-32.217897351416084],[-58.15713053996106,-32.2178625796484],[-58.15712871666842,-32.21782837391015],[-58.15712030634849,-32.21779053789502],[-58.15711007192657,-32.21775322524651],[-58.15710517024994,-32.21771863201302],[-58.15710384459466,-32.217681314041144],[-58.15710404843533,-32.217642305358915],[-58.15710272278003,-32.21760498738666],[-58.157100364530145,-32.217566283944265],[-58.1570870896871,-32.21751882016868],[-58.15706825183434,-32.21746533380951],[-58.15704264519015,-32.21741249705332],[-58.15701542302105,-32.217363513554886],[-58.15699517053126,-32.21731338750498],[-58.15698167644319,-32.21726260268222],[-58.15697064814783,-32.21721365699212],[-58.156969170064905,-32.21716707749921],[-58.15697169839574,-32.21712061954591],[-58.15697554512639,-32.217072945645654],[-58.156982689549885,-32.21702898027952],[-58.15698925064173,-32.21699027167193],[-58.15698626154677,-32.21694919686821],[-58.15697842642616,-32.21690230828388],[-58.15696947339351,-32.21685616072842],[-58.15695591216095,-32.21681133441056],[-58.15694432043724,-32.21678292369902],[-58.156940743640945,-32.216774157153786],[-58.15690875052505,-32.21673457071478],[-58.15685003997627,-32.216681440455616],[-58.15677508806313,-32.21662065322833],[-58.156697258563305,-32.21655899452647],[-58.15663101482535,-32.21649868585156],[-58.15657960845178,-32.21644939458173],[-58.15653663177173,-32.216407015204574],[-58.1564960165234,-32.21636481451444],[-58.156452085196385,-32.21631509128415],[-58.156442709058076,-32.21630496116435],[-58.156410838968306,-32.21627052822204],[-58.15637150477756,-32.21623684814419],[-58.1563439257982,-32.21621411931697],[-58.156340198891144,-32.216211047837746],[-58.156313653258856,-32.216193205853685],[-58.15629050140929,-32.216176937057554],[-58.156267368206485,-32.216164473225106],[-58.15622604389338,-32.216143223997115],[-58.15620363789503,-32.21613098714363],[-58.15617621233288,-32.216121012161075],[-58.156133807229956,-32.21610812287504],[-58.15607805715903,-32.216092252961474],[-58.156007814805015,-32.216070347315316],[-58.15594373938357,-32.2160492348544],[-58.155889203625264,-32.21603047946884],[-58.155843405032975,-32.21601600787148],[-58.15580171697713,-32.216003327288384],[-58.15576310707799,-32.215991043230396],[-58.15570991919781,-32.2159748679444],[-58.155684042028945,-32.2159669981184],[-58.155637326072664,-32.215952792551676],[-58.155604260260354,-32.21594273513275],[-58.15555466667534,-32.21592765807918],[-58.15549984486049,-32.21591152197034],[-58.15544090177299,-32.21589360365534],[-58.15538628067008,-32.21587698357083],[-58.15533597039855,-32.215861688607106],[-58.15528226658525,-32.21584481139158],[-58.1552305124075,-32.215829071564364],[-58.15520084138435,-32.21582068518694],[-58.15517979043088,-32.21581473522722],[-58.15512532136076,-32.215807394575734],[-58.15507351867344,-32.21580140914243],[-58.15503184923956,-32.21579254229177],[-58.15499387074495,-32.21578261134494],[-58.154956493908465,-32.21577124663247],[-58.15491215813226,-32.215761024499514],[-58.15486258353536,-32.21574974313443],[-58.154823791790065,-32.21574174769023],[-58.154790658985156,-32.215737639553694],[-58.154754734290314,-32.21573051540901],[-58.15470689009131,-32.21571705036245],[-58.15464323516502,-32.21569877437362],[-58.15457711439485,-32.2156786681891],[-58.1545312198543,-32.21566634049797],[-58.154491291690164,-32.21565528099622],[-58.15445032076508,-32.2156428178112],[-58.15440245810043,-32.215625547687175],[-58.15434543870009,-32.21560114750874],[-58.15427947103176,-32.21557294716197],[-58.154197510595424,-32.21554422469428],[-58.15414611733695,-32.21552674832157],[-58.154106727624814,-32.21551335375861],[-58.154014893829896,-32.215477283288685],[-58.15396971483925,-32.21545427982166],[-58.15394344961466,-32.21544090653056],[-58.15389220524437,-32.21540468957154],[-58.15383766340525,-32.21536476398231],[-58.153796046689465,-32.21532497309271],[-58.15375871217671,-32.21528267522717],[-58.15372834703908,-32.215239243994],[-58.15369948248973,-32.21519030795282],[-58.1536696638421,-32.21513401003873],[-58.1536342905082,-32.21507549420623],[-58.15359688205168,-32.2150179764395],[-58.1535661829667,-32.214969563534424],[-58.153542193416115,-32.21493024648218],[-58.1535177921127,-32.214891888106905],[-58.15349666167606,-32.21484963758533],[-58.15348001372127,-32.21480441420792],[-58.15346641760783,-32.21475196863385],[-58.153457418868136,-32.21469821080384],[-58.15344672663629,-32.214654255519264],[-58.15343516482112,-32.214618167391826],[-58.15342144217123,-32.21458142559626],[-58.15340945781747,-32.21454630500585],[-58.15339771387451,-32.21451450576446],[-58.15338977268586,-32.214487125763604],[-58.153381957003404,-32.21446140651479],[-58.15337336633291,-32.214427859188845],[-58.15335531413806,-32.21438600524141],[-58.15333951649087,-32.21434646524803],[-58.15333001920822,-32.21431317514772],[-58.15331210838777,-32.21428059156691],[-58.15330059527909,-32.214258884440035],[-58.153117251405995,-32.21410398128973],[-58.15080012638961,-32.21650004050982],[-58.15006197888917,-32.21723861794225],[-58.1506741100964,-32.217678811222726],[-58.15150734010935,-32.218323140383006]]]}},{"type":"Feature","properties":{},"geometry":{"type":"Polygon","coordinates":[[[-58.154179511455524,-32.22896160448893],[-58.154887590451395,-32.228269569612245],[-58.15559330066767,-32.227531502988256],[-58.15603587786443,-32.22784672643625],[-58.15647026086737,-32.22815611006274],[-58.157316262164095,-32.22876859054769],[-58.15805515809648,-32.22805757672526],[-58.158920109270625,-32.22868066788549],[-58.158192426163495,-32.22940627253455],[-58.15903170205034,-32.230022547491],[-58.159390722164765,-32.23028614332214],[-58.15985945915412,-32.229357338193445],[-58.16029998901779,-32.22840951975237],[-58.16116254066252,-32.226451299641795],[-58.16140187164122,-32.22593815303315],[-58.16199964514725,-32.224673252204056],[-58.16201970294769,-32.224577342802945],[-58.1620430683615,-32.224465617257664],[-58.163120463057545,-32.222331480865336],[-58.163283262654126,-32.22227617531136],[-58.16390984146599,-32.22072072765289],[-58.163829904379654,-32.22069110047278],[-58.162811381811004,-32.22031359818243],[-58.16285903299521,-32.2202200302537],[-58.16284390971038,-32.220220986755535],[-58.162789444021264,-32.220224910221646],[-58.16273216253305,-32.22022856732855],[-58.16266716680341,-32.22022977713692],[-58.16260441289514,-32.220229207316855],[-58.162550254586115,-32.22022576016271],[-58.16249825296208,-32.22021738561401],[-58.16244849317236,-32.220207231452136],[-58.16240346709671,-32.220197957535184],[-58.16235627879876,-32.22018861609605],[-58.16230635413126,-32.22017717021105],[-58.16225047903704,-32.220162590405565],[-58.16219017298012,-32.220144736483974],[-58.162126487979776,-32.22012456139132],[-58.16206087413918,-32.22010379021356],[-58.162000169713075,-32.22008518209118],[-58.16194419882164,-32.22006746323469],[-58.16188822813442,-32.22004973534092],[-58.16183338889739,-32.22003112229348],[-58.161782720017804,-32.22001134372758],[-58.16174113086622,-32.21999256274636],[-58.16170276638332,-32.219974811391424],[-58.161660699213705,-32.219957123367195],[-58.16161871130518,-32.219937606260004],[-58.161578471088035,-32.21991240751663],[-58.16157071854811,-32.21990687081014],[-58.16153773655427,-32.21988331572791],[-58.161491710709704,-32.21985628370703],[-58.16144833577161,-32.21982822636493],[-58.161446228224456,-32.21982639163926],[-58.161411219088286,-32.21979591441081],[-58.161373778309446,-32.219766004968925],[-58.161327689417604,-32.219745796988924],[-58.161284586524964,-32.219732150915945],[-58.161245607080446,-32.21972914946215],[-58.16120825924001,-32.21973413275353],[-58.16116763383136,-32.219744928658585],[-58.161120091142315,-32.219754785416896],[-58.16106659807257,-32.21976150820222],[-58.16100837133217,-32.21976735064957],[-58.16094820530971,-32.21977258783179],[-58.16088932500324,-32.21977823137927],[-58.1608306095814,-32.21978516656854],[-58.16081705153544,-32.21978691288236],[-58.160774699323575,-32.21979236795441],[-58.160719043811774,-32.21979903207079],[-58.16066899881777,-32.219806219602354],[-58.16062137079163,-32.21981293740543],[-58.16056795728976,-32.21981781288228],[-58.160505453691655,-32.21982168147745],[-58.160438380951405,-32.219825979401506],[-58.160374835960454,-32.21982889512157],[-58.16032092815449,-32.21982987745717],[-58.160274718264546,-32.21982832117257],[-58.16023429901152,-32.21982361247737],[-58.16019297626489,-32.21981426547372],[-58.16015043684307,-32.21980266480694],[-58.16010179860446,-32.21979161545625],[-58.160049797320056,-32.2197832489296],[-58.159997403396275,-32.219779105107904],[-58.15994783066389,-32.21978022253243],[-58.15989866714582,-32.21978208519748],[-58.15984202865465,-32.219785948708655],[-58.15978169788726,-32.219789884648875],[-58.15972383731268,-32.219786499583094],[-58.15965880380708,-32.21977275898682],[-58.159592633300726,-32.21975491760971],[-58.15953000118618,-32.21973569420903],[-58.15951238943083,-32.219730593950906],[-58.15944641012695,-32.21971130596246],[-58.15940458498699,-32.21969900319704],[-58.15938961089318,-32.219694205034536],[-58.159361381265725,-32.219686166433746],[-58.15933286307347,-32.21968455193812],[-58.159286412141185,-32.21968127876767],[-58.1592596348884,-32.219677480726396],[-58.15921911070384,-32.21967167024419],[-58.159162199947595,-32.21967010193241],[-58.15913286056078,-32.219666609144596],[-58.15909734567285,-32.219658527469655],[-58.15906151530898,-32.21964926011028],[-58.159004462679896,-32.219638421348385],[-58.15897164370712,-32.219635499926596],[-58.158927629357436,-32.219630260599736],[-58.158866284093264,-32.219621919743325],[-58.15885232426126,-32.21962044545817],[-58.15741063108568,-32.22118299833159],[-58.156677116846566,-32.22197815248945],[-58.15583452307228,-32.221385507625165],[-58.154930355882335,-32.2207292079606],[-58.154101800575475,-32.2201671886222],[-58.153185269087935,-32.21950961604953],[-58.1523729944508,-32.21894877754873],[-58.15150734010935,-32.218323140383006],[-58.15080617080329,-32.219037016883114],[-58.150111703093586,-32.2197879939207],[-58.14931105645011,-32.22050861775728],[-58.14856474843097,-32.221257525370724],[-58.14785361879289,-32.22197385622905],[-58.147151399190655,-32.222688711944244],[-58.14643544855042,-32.223401842158516],[-58.14728105634851,-32.22400273795987],[-58.14815065707739,-32.22463317685536],[-58.14900731894306,-32.225257194717976],[-58.1498518707991,-32.22585844509507],[-58.15071449408112,-32.22647254711553],[-58.151600571361804,-32.227110626365594],[-58.15245098818564,-32.22772301199181],[-58.15288553916271,-32.228035991704374],[-58.15330576571961,-32.22833865105084],[-58.15375576128624,-32.22865948562202],[-58.154179511455524,-32.22896160448893]]]}},{"type":"Feature","properties":{},"geometry":{"type":"Polygon","coordinates":[[[-58.159390722164765,-32.23028614332214],[-58.15903170205034,-32.230022547491],[-58.158192426163495,-32.22940627253455],[-58.158920109270625,-32.22868066788549],[-58.15805515809648,-32.22805757672526],[-58.157316262164095,-32.22876859054769],[-58.15647026086737,-32.22815611006274],[-58.15603587786443,-32.22784672643625],[-58.15559330066767,-32.227531502988256],[-58.154887590451395,-32.228269569612245],[-58.154179511455524,-32.22896160448893],[-58.15343655866262,-32.22969026972456],[-58.152731041508964,-32.23042543919383],[-58.15203064897359,-32.23113251874954],[-58.151526727940116,-32.23164463231564],[-58.15099009998873,-32.232177547320326],[-58.150285479323955,-32.23287727929441],[-58.15116165754828,-32.23351116675031],[-58.152106954427964,-32.23418809061876],[-58.152857857962736,-32.234725798141476],[-58.153809410236114,-32.23540202807337],[-58.154676005964085,-32.23601352373298],[-58.156138264416846,-32.2370288258415],[-58.1568999997643,-32.23549098424098],[-58.15730080678965,-32.23472532298263],[-58.157643108130934,-32.23402539778381],[-58.15856488005067,-32.23214053080822],[-58.158997350434305,-32.231159311372856],[-58.159390722164765,-32.23028614332214]]]}},{"type":"Feature","properties":{},"geometry":{"type":"Polygon","coordinates":[[[-58.156138264416846,-32.2370288258415],[-58.154676005964085,-32.23601352373298],[-58.153809410236114,-32.23540202807337],[-58.152857857962736,-32.234725798141476],[-58.152106954427964,-32.23418809061876],[-58.15116165754828,-32.23351116675031],[-58.150285479323955,-32.23287727929441],[-58.14943082542624,-32.23227825065591],[-58.148552345941916,-32.231659289405115],[-58.14830190536702,-32.23148283076456],[-58.147696106905336,-32.2310397215921],[-58.14683128233407,-32.23041402487101],[-58.145933008262354,-32.229746842907396],[-58.14512652720505,-32.22917128331521],[-58.14439795053428,-32.22989507596329],[-58.14368160716312,-32.230606699775315],[-58.14297354582673,-32.231326336383695],[-58.14221691566868,-32.23205966576642],[-58.14304997595416,-32.232656214685875],[-58.142304628955195,-32.233412138959984],[-58.1415582751165,-32.23416987634101],[-58.14037384722541,-32.235372333155965],[-58.139562443473515,-32.2362363210502],[-58.13881737248457,-32.2370365782671],[-58.13810234716432,-32.23780454636013],[-58.13810845709967,-32.237810051342606],[-58.138127615884464,-32.23782871692169],[-58.138147418805296,-32.23785220642782],[-58.138176690769285,-32.23788211949517],[-58.13819552751741,-32.23789837309998],[-58.13821644388829,-32.23791098303479],[-58.13821927281108,-32.23791268851812],[-58.13824258338482,-32.23792803434226],[-58.138265126934826,-32.23794198042553],[-58.13828604497782,-32.2379565697192],[-58.13831674372875,-32.23797998535899],[-58.13834385860833,-32.23800228431394],[-58.13837009381108,-32.23802662590241],[-58.13839325578334,-32.238058098774594],[-58.13842045741463,-32.23808966723375],[-58.13844353289134,-32.238111861565216],[-58.13847336265055,-32.23813731996554],[-58.1385119052645,-32.23816779330758],[-58.138534459336334,-32.23818174851536],[-58.13855580141464,-32.23819531621303],[-58.138579991805436,-32.23820861933875],[-58.138617691137625,-32.238228432565066],[-58.13866270238077,-32.238247055238844],[-58.138708705788495,-32.23826020189309],[-58.138737605751565,-32.23826572161666],[-58.13876901091905,-32.23826855547166],[-58.13879771168462,-32.23826823902436],[-58.138846491962106,-32.238259139482885],[-58.1388672623636,-32.238242486761216],[-58.138891652961554,-32.23821424797127],[-58.138917368182376,-32.238182954302545],[-58.138944596631326,-32.23815444175532],[-58.13896863940996,-32.23813649386913],[-58.13900543450451,-32.23812366547851],[-58.13904786888986,-32.23812300132138],[-58.139098172740105,-32.23811669197447],[-58.13912534978852,-32.23811358515563],[-58.139167462262364,-32.2381104999817],[-58.13920574473941,-32.23811316455512],[-58.13925602311579,-32.23811954901755],[-58.13928864044279,-32.23812276122869],[-58.139317652841655,-32.238124847455175],[-58.1393469873388,-32.238129345637944],[-58.139398022183016,-32.238137129619226],[-58.13943619224898,-32.23814322748785],[-58.13949421707158,-32.23814739986712],[-58.139524221396904,-32.23814401904744],[-58.139570051240646,-32.23813862634515],[-58.13962667504413,-32.23813659319108],[-58.139673272118856,-32.238132591167215],[-58.1397037215681,-32.23812818905804],[-58.13975142277118,-32.238115295651674],[-58.13977643171212,-32.23810458349223],[-58.1398006735905,-32.23809247159922],[-58.13982656199467,-32.23807972579242],[-58.139854398191446,-32.23806873969439],[-58.13988388128046,-32.238057101654064],[-58.13992591727329,-32.23804475587045],[-58.139953753448346,-32.23803376974961],[-58.13997996411255,-32.23802342685875],[-58.140006931409545,-32.23801447452022],[-58.14003781514766,-32.238009059937504],[-58.140073060642166,-32.2380061528467],[-58.140109620126175,-32.23800019070229],[-58.14013723163952,-32.23799606225874],[-58.14016396350047,-32.23799397646196],[-58.14020736437826,-32.23800053878466],[-58.14023175427262,-32.238019677760114],[-58.140248285392076,-32.238044462137935],[-58.14029147639615,-32.238045188117894],[-58.14034897978876,-32.238041111983236],[-58.14038182193427,-32.23803745717918],[-58.1404091113251,-32.2380309167148],[-58.14045713451647,-32.238020434997416],[-58.14049782055396,-32.23802383779119],[-58.140526597576304,-32.23803279031766],[-58.14057216666255,-32.23804695770534],[-58.14059975271751,-32.2380555320537],[-58.140625369753465,-32.23806234638102],[-58.140669650161136,-32.23806687490379],[-58.14069790594051,-32.23806757025926],[-58.14073311540299,-32.238077365722184],[-58.14075801903779,-32.23808510869695],[-58.14076668876826,-32.23808780426614],[-58.14081225792328,-32.238101971569485],[-58.14084464013941,-32.238112040946675],[-58.14087461900037,-32.238121362698436],[-58.140907747279705,-32.238132822457196],[-58.14094165343115,-32.238145673072594],[-58.140960144321575,-32.23815557011855],[-58.140972588128996,-32.23816223052712],[-58.1409958994373,-32.23817756684889],[-58.14101681780879,-32.23819216472103],[-58.141047640347956,-32.23821214651308],[-58.14108054394171,-32.23823047296464],[-58.14112271803558,-32.23824935956143],[-58.1411477776831,-32.23826062840642],[-58.14117076690142,-32.23827355273763],[-58.14120528145838,-32.23830392994541],[-58.141223239222214,-32.238322225781694],[-58.14125842347818,-32.238344723999745],[-58.141282614511844,-32.23835801761046],[-58.1413026429212,-32.23837464893036],[-58.14132397054145,-32.23840092824235],[-58.14134072656893,-32.23841885476518],[-58.14136160927703,-32.23844614631124],[-58.14139840455821,-32.23848069527838],[-58.14143267334214,-32.23851793885427],[-58.14145911952281,-32.238548116150525],[-58.14147739953914,-32.23856882391317],[-58.1415053590814,-32.23860178230079],[-58.1415321168608,-32.23863437138657],[-58.14155799503224,-32.23866900313058],[-58.14157244540265,-32.23869545170462],[-58.14159233644467,-32.238728210235664],[-58.14161318318686,-32.2387682134987],[-58.14163731314415,-32.23880691268552],[-58.14165743935602,-32.23883281363841],[-58.14167712046361,-32.238859735842475],[-58.14169452096379,-32.238882486241025],[-58.141713557770174,-32.23890458452186],[-58.14173020179905,-32.238925935354054],[-58.14174716799775,-32.23894969814324],[-58.14175495086733,-32.23898216133658],[-58.14176328041679,-32.23901017876296],[-58.141778809733886,-32.23904042982373],[-58.14180753662002,-32.239074787869114],[-58.14183627821524,-32.2390964428547],[-58.14185751928055,-32.239113443544056],[-58.14187720050508,-32.239140365720274],[-58.14189556778982,-32.239170342957074],[-58.14190761493201,-32.23919604389809],[-58.141914196083505,-32.239228137790356],[-58.14191817461754,-32.239253638911336],[-58.14192747074126,-32.23928889220441],[-58.14193964085356,-32.239311159929315],[-58.14195648422832,-32.23933835590723],[-58.14196745255965,-32.23936025433723],[-58.14198265964644,-32.23938810243066],[-58.141991557357734,-32.23941166537554],[-58.142003047100594,-32.23944182093342],[-58.14201378035342,-32.23947057693004],[-58.1420267070067,-32.23949424420799],[-58.142041592144466,-32.23951967132375],[-58.14205888070066,-32.23954584603441],[-58.14208019819701,-32.23957212507636],[-58.14209476118875,-32.23959514022824],[-58.142111727416946,-32.23961891198731],[-58.14212889325364,-32.239648510890135],[-58.14215665393153,-32.23967563299028],[-58.14215890470881,-32.239677659959476],[-58.14218409245037,-32.23970034312671],[-58.14220672415112,-32.23972355807005],[-58.142230879656935,-32.23974956327098],[-58.14224773379965,-32.23977675937045],[-58.14226150433425,-32.23981108670201],[-58.14227331638923,-32.239843654196626],[-58.14227860163087,-32.23986793065277],[-58.142279253348725,-32.2398709241574],[-58.14228563542582,-32.239897172861774],[-58.14230148723437,-32.2399298358242],[-58.14231365751731,-32.239952103517474],[-58.14234106032605,-32.23998951636639],[-58.142363022364975,-32.240020619281296],[-58.14238945866866,-32.24005079624754],[-58.14242102421095,-32.24008487133366],[-58.14244006125146,-32.24010697852994],[-58.14246117991358,-32.240127403329254],[-58.142479138278716,-32.24014569900459],[-58.14251069309825,-32.240179782927456],[-58.1425455309951,-32.24021257176104],[-58.14256556003487,-32.24022920289966],[-58.14258603419498,-32.24024481277812],[-58.14260487204545,-32.240261074779845],[-58.1426377516846,-32.240292094745826],[-58.142668662233966,-32.24032135471796],[-58.14269404501815,-32.240335026224926],[-58.14272238867559,-32.24034499068336],[-58.142774601747405,-32.24036584554041],[-58.14280882040662,-32.24038111650498],[-58.14284543227926,-32.240397116861004],[-58.142883578410796,-32.240415916630184],[-58.14292203633352,-32.240437119176114],[-58.14296050487947,-32.24045832186682],[-58.143002557490384,-32.24048064109749],[-58.143044620543876,-32.240502969483856],[-58.143081999635946,-32.24052036948514],[-58.143115896388956,-32.24053321940057],[-58.143147077924226,-32.24054291894288],[-58.143180652491736,-32.240553356885094],[-58.1432130252519,-32.24056342553735],[-58.143243005176615,-32.24057274676228],[-58.14327179389684,-32.24058169885543],[-58.143313437240536,-32.24059233649983],[-58.14334266047626,-32.24060026716146],[-58.14337907304108,-32.24061043120982],[-58.14340752897302,-32.240616971161],[-58.1434455776872,-32.240626492067115],[-58.14348735457248,-32.240633696595026],[-58.14352180863793,-32.24064210078506],[-58.14355102130494,-32.24065003124383],[-58.143577406629745,-32.24065823569974],[-58.143603791959535,-32.240666440150285],[-58.14362896505394,-32.24067426614911],[-58.14366374136643,-32.240685082257066],[-58.14369492320136,-32.24069477265486],[-58.14373373930373,-32.24070568417044],[-58.14375892284291,-32.240713519313054],[-58.14380013181381,-32.24072517821858],[-58.143825315548014,-32.240733004335205],[-58.14385049910344,-32.24074083946011],[-58.143888870144735,-32.24075277219138],[-58.14391981376877,-32.240762702461296],[-58.14401768374083,-32.240778225042796],[-58.14402048948757,-32.240778670044676],[-58.144027689264,-32.24078091257099],[-58.14404087675755,-32.24078501016678],[-58.14405406425235,-32.240789107761216],[-58.14406681707037,-32.240794235786076],[-58.144081973534696,-32.24080010235625],[-58.14410180363249,-32.24081088809222],[-58.14412391432768,-32.24082585460197],[-58.14414286502628,-32.24083867400065],[-58.14415877804427,-32.24084594011097],[-58.14416749146208,-32.24085095468802],[-58.14417785143667,-32.240855335299855],[-58.14419539017291,-32.24086194910332],[-58.14422057398225,-32.24086977514363],[-58.14425055412129,-32.24087909613647],[-58.14426902215579,-32.24088483601281],[-58.14427454672119,-32.240886553050416],[-58.144291328744224,-32.24089177630583],[-58.14430571790821,-32.240896252159374],[-58.14431771421239,-32.24089998061181],[-58.14432850887599,-32.240903330779034],[-58.14433569806553,-32.240905573132615],[-58.14434169621879,-32.24090743735759],[-58.14434769437229,-32.24090930158231],[-58.14435488374614,-32.2409115349217],[-58.144364476587434,-32.24091451581518],[-58.14437647289666,-32.240918244262204],[-58.144389660244,-32.2409223508359],[-58.144401656555395,-32.2409260792806],[-58.144414844088416,-32.24093017683863],[-58.144421276553324,-32.24093102865311],[-58.144427274710175,-32.24093289287414],[-58.14443599875679,-32.24093790758922],[-58.1444483067056,-32.24094404782815],[-58.144461381990965,-32.240951578755826],[-58.14447293321329,-32.24095632845835],[-58.14448448443684,-32.24096107815984],[-58.14449439952758,-32.24096647099799],[-58.14450519402292,-32.24096983016371],[-58.144513150741645,-32.24097345418407],[-58.1445251470653,-32.24097718261745],[-58.144544332591316,-32.24098315339182],[-58.144563518303215,-32.240989115150235],[-58.144579109324454,-32.24099396024244],[-58.144592296692764,-32.24099806679569],[-58.14460429302325,-32.24100179522176],[-58.144612684055495,-32.24100440682853],[-58.14462152018304,-32.2410059971698],[-58.1446291546666,-32.241007209229146],[-58.14464006141824,-32.24100713500896],[-58.1446522820599,-32.241004005694215],[-58.14466287717216,-32.24100151967387],[-58.144673461678835,-32.24099903349685],[-58.1446795719071,-32.24099747334454],[-58.14468524782944,-32.240996925599774],[-58.14478009498081,-32.24098183767566],[-58.14479449507522,-32.24098003863129],[-58.14483125492754,-32.24097992032844],[-58.14485951168773,-32.24098061478703],[-58.144894323764206,-32.24097872781039],[-58.14492704419513,-32.2409784960648],[-58.14495605751122,-32.24098059004652],[-58.14498899856847,-32.24098620376963],[-58.145037407659835,-32.241000104753866],[-58.14507053754522,-32.24101156347373],[-58.14509800212193,-32.2410235701045],[-58.145121637125946,-32.24104131766414],[-58.145143400948,-32.2410665749618],[-58.14516796747995,-32.241104252115946],[-58.145184934790834,-32.2411280234968],[-58.14520277126176,-32.24114974301668],[-58.14522073038759,-32.241168038327146],[-58.145243895530236,-32.241199510045185],[-58.14526370102824,-32.24122299851855],[-58.145286866199086,-32.241254470229535],[-58.14531058869596,-32.24128148729301],[-58.145330071782695,-32.241302572817254],[-58.14534803096351,-32.24132086811126],[-58.145374790905464,-32.24135345644994],[-58.14539707675821,-32.24138696182093],[-58.14541729182401,-32.241422140774674],[-58.14543153368347,-32.24144274362489],[-58.14544270253522,-32.241470486959614],[-58.14544112899889,-32.24149310255843],[-58.145437673494726,-32.241523236761076],[-58.14543849284379,-32.24154659973877],[-58.14544236021909,-32.24157553415636],[-58.145450456252895,-32.24161040896305],[-58.14546523046393,-32.241639269091564],[-58.145495186192264,-32.24166129271452],[-58.14553616080218,-32.24167981767295],[-58.14558117543473,-32.24169842897336],[-58.14561584017905,-32.241712677941614],[-58.14565877343404,-32.24173296264914],[-58.14568219866563,-32.24174486478393],[-58.14572546483051,-32.241767561577625],[-58.14576544813011,-32.24179154450925],[-58.14579943302242,-32.241813672283506],[-58.14582350949282,-32.241829278686765],[-58.14583025785231,-32.241833652981505],[-58.14587199997525,-32.24185356851833],[-58.1458991426354,-32.241863163034814],[-58.145931838468655,-32.2418756429682],[-58.145965424480764,-32.24188608035352],[-58.14596915679712,-32.24188749511622],[-58.1459993221774,-32.24189892952611],[-58.146027543909405,-32.24191232649343],[-58.14605217090028,-32.241924606831404],[-58.14607591833547,-32.24193892986119],[-58.14609923148285,-32.241954265299746],[-58.14612298972164,-32.24196857946371],[-58.146132563907024,-32.241974354029026],[-58.14614673717973,-32.241982902480906],[-58.146173445614835,-32.24199350935388],[-58.14621397561999,-32.242013046359716],[-58.14623773370963,-32.24202736951629],[-58.146264319375696,-32.24204140959308],[-58.1462897032014,-32.24205508041141],[-58.1463135735007,-32.242065970176554],[-58.14631597701554,-32.24206671769547],[-58.1465286697169,-32.242131696108515],[-58.14732766389009,-32.24229492432217],[-58.14791663866547,-32.24248660380973],[-58.14812937720168,-32.242627004584726],[-58.14815197369402,-32.24264686335257],[-58.14850004604243,-32.242952762714374],[-58.14902679351342,-32.2435553711397],[-58.14933450202893,-32.24398196621412],[-58.149636794785124,-32.24508110901985],[-58.149638732635694,-32.24508257627415],[-58.14967929782512,-32.245113290414594],[-58.14970033713795,-32.24512834847755],[-58.149721788971064,-32.24514242084005],[-58.14974323002252,-32.245156502056915],[-58.149788488504086,-32.245182048638405],[-58.149830679428604,-32.24520558482539],[-58.149854094963175,-32.24521803603454],[-58.1498794072684,-32.2452321649153],[-58.14990969490376,-32.24524996397302],[-58.149939580645125,-32.24526874887712],[-58.149968306548345,-32.245287183202095],[-58.14999205713461,-32.24530194734237],[-58.150033042635805,-32.245328432012506],[-58.15005484018711,-32.24534481743223],[-58.15007969491715,-32.245363204053476],[-58.15010454947451,-32.24538159968328],[-58.150130564077415,-32.245400336866396],[-58.15015693510071,-32.24542137829702],[-58.15018675424532,-32.245443452942006],[-58.15021503285771,-32.2454661631749],[-58.150242497070785,-32.245490844955164],[-58.15026723968546,-32.245515811444605],[-58.15028892513207,-32.245538776729376],[-58.150308703022176,-32.24556007319885],[-58.15032657353614,-32.24557969184073],[-58.15035699323393,-32.24561296386878],[-58.15037450735271,-32.245630278252385],[-58.15039277961467,-32.24564892004415],[-58.15041331568949,-32.24567154390908],[-58.150434644974524,-32.24569219590587],[-58.150454021211246,-32.245714469196336],[-58.15047610865385,-32.24573644859681],[-58.150495886629685,-32.24575774503954],[-58.15051566461467,-32.24577904147943],[-58.15053699394767,-32.24579969346039],[-58.15055989565787,-32.245819710305355],[-58.15058318867451,-32.24583874113581],[-58.15060649230651,-32.245857772117546],[-58.15063134710514,-32.24587616765118],[-58.150656614420996,-32.24589357747989],[-58.15070262106802,-32.24592045100758],[-58.15073834210556,-32.245937662250164],[-58.15077451053133,-32.2459505975198],[-58.1508091837061,-32.24596088728679],[-58.15081189509134,-32.245960584379354],[-58.15083731990956,-32.245968133175374],[-58.1508812414661,-32.2459811638841],[-58.15092677044972,-32.24599026016487],[-58.15095808627086,-32.24599294548984],[-58.150994824866,-32.24599502498447],[-58.15102192379698,-32.24599534953287],[-58.151049068192464,-32.24599238396777],[-58.15108517101839,-32.24598657430574],[-58.151120973837024,-32.24597515240376],[-58.151147482629256,-32.24596428867376],[-58.15117595525472,-32.24595179477167],[-58.151202464034064,-32.24594093102958],[-58.15123329140752,-32.24592583896066],[-58.15126857070317,-32.24589993896608],[-58.151304297145295,-32.245869772007794],[-58.15133656481959,-32.245838571694215],[-58.15136576465092,-32.245805370040934],[-58.15138831554401,-32.24577569543232],[-58.15140458400792,-32.24575187931704],[-58.15142016115457,-32.245723436983276],[-58.1514329602545,-32.24569858736644],[-58.15144460990839,-32.24567339635707],[-58.15145428530481,-32.24564982634904],[-58.151465176793664,-32.24562330793251],[-58.15147486296711,-32.245599729064416],[-58.15148338890929,-32.24557581766272],[-58.15148804361477,-32.24555185862399],[-58.151491147172116,-32.24552853504007],[-58.151496661523474,-32.24549932334283],[-58.151504552007076,-32.24546750478251],[-58.1515170508348,-32.24543705193734],[-58.15153528302206,-32.24541160562813],[-58.15155572299899,-32.24539343132637],[-58.15158112776172,-32.24537892698432],[-58.151612713035064,-32.24536516221607],[-58.15164921747125,-32.24535836652248],[-58.15169808348749,-32.24535302292906],[-58.151739552530174,-32.245349906180884],[-58.151770465355106,-32.245346836011336],[-58.15196370645267,-32.245356204716785],[-58.15238204545609,-32.24449994915235],[-58.15261161923146,-32.24406418015787],[-58.153358867454386,-32.24263683259505],[-58.153979756312246,-32.24141265649288],[-58.15464940742863,-32.239939378580274],[-58.15493862755988,-32.239776592163075],[-58.15529927168959,-32.23895055723131],[-58.155493820981704,-32.238504946012895],[-58.156138264416846,-32.2370288258415]]]}},{"type":"Feature","properties":{},"geometry":{"type":"Polygon","coordinates":[[[-58.154179511455524,-32.22896160448893],[-58.15375576128624,-32.22865948562202],[-58.15330576571961,-32.22833865105084],[-58.15288553916271,-32.228035991704374],[-58.15245098818564,-32.22772301199181],[-58.151600571361804,-32.227110626365594],[-58.15071449408112,-32.22647254711553],[-58.1498518707991,-32.22585844509507],[-58.14900731894306,-32.225257194717976],[-58.14815065707739,-32.22463317685536],[-58.14728105634851,-32.22400273795987],[-58.14643544855042,-32.223401842158516],[-58.1457048485489,-32.224130600744076],[-58.14497998694154,-32.22485361913601],[-58.14426030059128,-32.225571459403014],[-58.143772509183385,-32.22606175116508],[-58.14460805660876,-32.226664891223464],[-58.145489596658095,-32.22730121675378],[-58.146360354515366,-32.22792974490514],[-58.14583222002962,-32.22846910948818],[-58.14512652720505,-32.22917128331521],[-58.145933008262354,-32.229746842907396],[-58.14683128233407,-32.23041402487101],[-58.147696106905336,-32.2310397215921],[-58.14830190536702,-32.23148283076456],[-58.148552345941916,-32.231659289405115],[-58.14943082542624,-32.23227825065591],[-58.150285479323955,-32.23287727929441],[-58.15099009998873,-32.232177547320326],[-58.151526727940116,-32.23164463231564],[-58.15203064897359,-32.23113251874954],[-58.152731041508964,-32.23042543919383],[-58.15343655866262,-32.22969026972456],[-58.154179511455524,-32.22896160448893]]]}},{"type":"Feature","properties":{},"geometry":{"type":"Polygon","coordinates":[[[-58.13833276684914,-32.22798628479341],[-58.13759600333016,-32.22874510234921],[-58.13820176114247,-32.22917515222089],[-58.13881743418873,-32.229614985052955],[-58.139651498435185,-32.230210823846704],[-58.140493891292856,-32.230812599240764],[-58.14134971793218,-32.23142489880197],[-58.14221691566868,-32.23205966576642],[-58.14297354582673,-32.231326336383695],[-58.14368160716312,-32.230606699775315],[-58.14439795053428,-32.22989507596329],[-58.14512652720505,-32.22917128331521],[-58.14583222002962,-32.22846910948818],[-58.146360354515366,-32.22792974490514],[-58.145489596658095,-32.22730121675378],[-58.14460805660876,-32.226664891223464],[-58.143772509183385,-32.22606175116508],[-58.142939106249536,-32.22546641583851],[-58.14172010644897,-32.2245956048789],[-58.14117829528323,-32.22512232327128],[-58.14047119507753,-32.225845196302835],[-58.139755413694665,-32.226561883927154],[-58.139054019237165,-32.227264150997776],[-58.13833276684914,-32.22798628479341]]]}},{"type":"Feature","properties":{},"geometry":{"type":"Polygon","coordinates":[[[-58.13031013086932,-32.23740220674986],[-58.1303404515446,-32.23741393423271],[-58.13038080961353,-32.23742761341216],[-58.1304164843863,-32.23743637277976],[-58.13044322508778,-32.23744334719553],[-58.13046295267271,-32.23744849247061],[-58.13049686793243,-32.23746132795827],[-58.13052292371205,-32.237479817231545],[-58.13055398449847,-32.23750564728448],[-58.13058536734963,-32.23753388029404],[-58.13061326861385,-32.23755756290177],[-58.13063353573825,-32.23758004162879],[-58.130652269052746,-32.23759972079555],[-58.13068430611708,-32.23763278690578],[-58.13070892432481,-32.237657764265435],[-58.13073551117913,-32.23768451079587],[-58.1307659285444,-32.237705507834626],[-58.13079721498831,-32.23772447114262],[-58.13082534187574,-32.237741287017265],[-58.13085346858907,-32.23775811189902],[-58.130881605917544,-32.23777493693179],[-58.130910054523646,-32.237794173777914],[-58.1309341524477,-32.23781089395634],[-58.13096444654713,-32.23783532413844],[-58.13099114627738,-32.23785863727386],[-58.1310154425707,-32.2378812116153],[-58.13104021107492,-32.23789005288497],[-58.13106540360209,-32.23789787262357],[-58.13110696354355,-32.23791192998898],[-58.13115189258656,-32.23793396205482],[-58.13119439143178,-32.23796795816265],[-58.13123319359403,-32.238004279739535],[-58.13126522059101,-32.23803733654361],[-58.13130096535166,-32.23806807718293],[-58.13133454275592,-32.23809121249501],[-58.131361033323444,-32.2381086892493],[-58.131386880315574,-32.23812133303457],[-58.131421675623216,-32.2381321347154],[-58.13144707740662,-32.23814579970276],[-58.13147652943018,-32.238159560654815],[-58.131501609341534,-32.23817081365648],[-58.131550056300185,-32.23819356478501],[-58.13157892901042,-32.23821178897436],[-58.13159381098141,-32.238237217210234],[-58.13159822101854,-32.23826170619273],[-58.13161103221657,-32.23828879876748],[-58.13162514690853,-32.23831284525281],[-58.13164310268224,-32.23833114237989],[-58.131658220745216,-32.23834970407299],[-58.131671375086825,-32.23836859890638],[-58.131676707594266,-32.23837625849205],[-58.131699422053345,-32.238408753722396],[-58.131720945581684,-32.23844087070487],[-58.13175118141136,-32.23847801209888],[-58.131769024704646,-32.23849973354334],[-58.131785542943156,-32.238524518787955],[-58.131804909703476,-32.23854903060303],[-58.1318144150943,-32.238557595794056],[-58.131824501729675,-32.238566684734984],[-58.13186119665586,-32.23859196669259],[-58.131911447774094,-32.238611065927905],[-58.13193934438137,-32.2386220539611],[-58.131970846029176,-32.23863415915875],[-58.131999509590116,-32.23864654695068],[-58.132037320280034,-32.23866292874656],[-58.132086048016184,-32.23867923754251],[-58.13211482431751,-32.23868819196196],[-58.13214076271242,-32.23869741996699],[-58.132167902853986,-32.2387070173508],[-58.13219548822067,-32.23871559351223],[-58.132237129243556,-32.23872623473254],[-58.13228161879486,-32.23873660250126],[-58.13230811495797,-32.2387413849212],[-58.13235959461204,-32.2387481505195],[-58.132392957933305,-32.238752745940545],[-58.13242884767822,-32.23875466495086],[-58.13247084786403,-32.23875501537804],[-58.13250816456149,-32.23875044606371],[-58.1325394941171,-32.238744012123355],[-58.13257485272022,-32.23873767379685],[-58.1326127271281,-32.23872865889752],[-58.132650612318166,-32.238719635130245],[-58.13268564898478,-32.23871088479877],[-58.13271664599001,-32.23870203868343],[-58.13274197777196,-32.23869373992806],[-58.13278675626233,-32.23867184429266],[-58.13283022049015,-32.238653003598756],[-58.13286909776046,-32.23863852184559],[-58.13292314645297,-32.238617195930665],[-58.13295546824736,-32.238605294951874],[-58.132992264289726,-32.23859246835284],[-58.13302850243809,-32.238584096312245],[-58.13306801309127,-32.23857442927113],[-58.13311080685136,-32.238563467382995],[-58.13315655099341,-32.23854880752827],[-58.13320022435739,-32.23853581202407],[-58.133233302626884,-32.23852530156658],[-58.133258956437324,-32.23851940566305],[-58.13331571961081,-32.23850123914974],[-58.13334880846052,-32.23849072881768],[-58.13338308844208,-32.238480587692415],[-58.1334207533944,-32.23846572722078],[-58.133452640476534,-32.23845484748841],[-58.133501866484785,-32.23844472881357],[-58.13354175874705,-32.23845944595013],[-58.133578812935625,-32.23847444571225],[-58.13360881751592,-32.23847106631046],[-58.13363722297088,-32.2384556271992],[-58.133662135833376,-32.238435646620665],[-58.13369764392876,-32.238413171922325],[-58.13374491141922,-32.2384013022021],[-58.13377327981568,-32.23839856575756],[-58.13380437346555,-32.2383989890282],[-58.133836990627366,-32.23840220264394],[-58.13386796103217,-32.23840605909382],[-58.13389740792666,-32.238407125184146],[-58.13392490713467,-32.238406431465904],[-58.13397848388417,-32.23839882916482],[-58.13400828953202,-32.23838961351318],[-58.13403797211751,-32.23838382203648],[-58.134066908755365,-32.23837664011902],[-58.13409835072519,-32.23836677243061],[-58.13413142884103,-32.238356261731454],[-58.134159587704346,-32.23834768888896],[-58.13418524122979,-32.238341801806065],[-58.13422072281893,-32.238332029812526],[-58.1342458450419,-32.23831788542274],[-58.134276642865245,-32.23830320275961],[-58.13430756409372,-32.238285077879524],[-58.13433563662629,-32.23826723548982],[-58.13436152597142,-32.23825448182094],[-58.13438697011709,-32.238242749372006],[-58.13441406100943,-32.23823037406783],[-58.13444365721662,-32.238215312985886],[-58.13447281882768,-32.23820127327912],[-58.13450122406006,-32.23818583396433],[-58.13452873890205,-32.238172437094974],[-58.13454787370422,-32.23815643713329],[-58.13457028115963,-32.238139133125095],[-58.134594759152435,-32.238120173733684],[-58.13461760117459,-32.23810184833331],[-58.13464080186638,-32.238073241207246],[-58.13465133682208,-32.23804878365442],[-58.13466525685363,-32.23801959771388],[-58.134690737780296,-32.237995162494485],[-58.13472428716076,-32.23797092754328],[-58.13474820746527,-32.23795641368647],[-58.13477377450773,-32.237941256969904],[-58.13480021070486,-32.23792405748014],[-58.134825777914074,-32.23790889173926],[-58.13484730548983,-32.2378936302884],[-58.13487526519538,-32.23787922112336],[-58.13490410484126,-32.237862760326735],[-58.13492803569429,-32.23784824659005],[-58.1349595036376,-32.23782567581288],[-58.13498694254859,-32.237803009483876],[-58.13501337866642,-32.23778580994613],[-58.13504289887052,-32.23776147936095],[-58.13507141628344,-32.23774261556658],[-58.135107530915704,-32.237737667093725],[-58.1351163543021,-32.237740062299814],[-58.13513675243836,-32.23774559959722],[-58.135142365158664,-32.237770457848036],[-58.13512601580033,-32.23781159898887],[-58.13511275571467,-32.2378328968933],[-58.135096791361875,-32.237851044427195],[-58.13508081639803,-32.23786919180226],[-58.13506593075962,-32.237891132872974],[-58.13504971998429,-32.23791614679604],[-58.13503384197024,-32.23794356382977],[-58.13501839852571,-32.23796995947635],[-58.13500382404705,-32.237994321364475],[-58.13498422853818,-32.238024045647514],[-58.13497620958008,-32.23804581760516],[-58.135013499663536,-32.23805395039768],[-58.135038509095324,-32.23804323919655],[-58.13506788013597,-32.23803503565767],[-58.13510739018092,-32.238025376973795],[-58.135126625749734,-32.23802296153251],[-58.13515769435283,-32.23801906019159],[-58.13521083621991,-32.238012478740146],[-58.13525678936539,-32.23800365441179],[-58.135297501125805,-32.23799436502187],[-58.13533909263499,-32.23798303300321],[-58.13538024974327,-32.237972713343424],[-58.135417356424384,-32.23796230684005],[-58.135453717319066,-32.23795050088623],[-58.13548931103248,-32.23793730418253],[-58.13551868200339,-32.23792910053586],[-58.13556410348443,-32.23791202781229],[-58.13559346383663,-32.23790382399119],[-58.13562206761442,-32.23789422958123],[-58.135652430699245,-32.23788055894204],[-58.1356822360263,-32.23787134288196],[-58.13571967542412,-32.23786333939897],[-58.13575395493591,-32.237853197610534],[-58.1358074448003,-32.237836325003464],[-58.13584008797727,-32.23782683522916],[-58.13586769958287,-32.2378227077243],[-58.13589978519563,-32.23781766350909],[-58.1359272997341,-32.237804266322485],[-58.13594914911523,-32.23779141664414],[-58.13597471610712,-32.23777625066184],[-58.13598995501535,-32.23776809238592],[-58.136004757096266,-32.23776016796594],[-58.136037947169605,-32.23774623240627],[-58.13606667401814,-32.23773320469133],[-58.136093877103164,-32.2377173956547],[-58.13611420268496,-32.23770176463108],[-58.13614886685994,-32.23766862911589],[-58.13616646710306,-32.2376498384094],[-58.136195777508576,-32.23761966221577],[-58.136225619552086,-32.237597734294674],[-58.13624605763539,-32.23757866989028],[-58.136268587606956,-32.23755794137396],[-58.13629274308736,-32.2375365696649],[-58.136319302045635,-32.23751593663984],[-58.136342465411225,-32.237500031888175],[-58.13636431466247,-32.2374871821325],[-58.13638584189116,-32.23747192040509],[-58.136411086705586,-32.23745434235994],[-58.1364363207217,-32.23743677316596],[-58.13645949483581,-32.23742085953451],[-58.13648233613434,-32.23740254278751],[-58.13652111539925,-32.23737878118189],[-58.13655487356567,-32.23736039104135],[-58.136594296837835,-32.237341453346765],[-58.13664431514148,-32.23732002126942],[-58.13667423272808,-32.23730737160531],[-58.136708511935005,-32.237297229545206],[-58.13673951871813,-32.237288382564486],[-58.13676931314745,-32.237279166079304],[-58.136798249247626,-32.23727198351373],[-58.136842232960646,-32.23726139851614],[-58.13687694668873,-32.237250235016916],[-58.136911547884125,-32.23724250486698],[-58.13694167491823,-32.23723570046322],[-58.13696808456224,-32.23723120337024],[-58.13700648969859,-32.23723043539168],[-58.13704933243984,-32.23724144436112],[-58.13707264282392,-32.237256781375976],[-58.1370779340185,-32.237279227594435],[-58.13708167549424,-32.23731159538447],[-58.13712724362692,-32.237325763983534],[-58.1371575695919,-32.23732480469867],[-58.13719937029973,-32.237319308359424],[-58.13726692579082,-32.23730449977489],[-58.13733329030394,-32.23728931296167],[-58.137366776342,-32.237290482868374],[-58.13739520485214,-32.23730972700058],[-58.137416617874585,-32.237345267429745],[-58.137436061782935,-32.237379056806546],[-58.13744909946082,-32.23739929114505],[-58.13746574220611,-32.23742064249681],[-58.137495136915156,-32.23744712250659],[-58.13752019604615,-32.23745838303487],[-58.137563693664184,-32.23747421592403],[-58.13759942351278,-32.237492269376574],[-58.13764616771068,-32.237519510005285],[-58.137688539479655,-32.23754425189563],[-58.137726560389716,-32.23756647733825],[-58.137761866549575,-32.23758554328562],[-58.13779879823521,-32.23760396601561],[-58.13783585303184,-32.23761895553053],[-58.13786974791618,-32.23763180679223],[-58.13789601932093,-32.23764344574871],[-58.13792868682771,-32.23766862153188],[-58.13795784635873,-32.237701958994116],[-58.13796327832367,-32.23770563707606],[-58.137989424450296,-32.237723341085236],[-58.138013614815215,-32.23773663529959],[-58.13804127639287,-32.237754488570204],[-58.13806643295927,-32.237775018670185],[-58.13808886396201,-32.23779239814439],[-58.13810234716432,-32.23780454636013],[-58.13881737248457,-32.2370365782671],[-58.139562443473515,-32.2362363210502],[-58.14037384722541,-32.235372333155965],[-58.1415582751165,-32.23416987634101],[-58.142304628955195,-32.233412138959984],[-58.14304997595416,-32.232656214685875],[-58.14221691566868,-32.23205966576642],[-58.14134971793218,-32.23142489880197],[-58.140493891292856,-32.230812599240764],[-58.139651498435185,-32.230210823846704],[-58.13881743418873,-32.229614985052955],[-58.13820176114247,-32.22917515222089],[-58.13759600333016,-32.22874510234921],[-58.136860577490104,-32.229487328387485],[-58.13611904871554,-32.23022637768442],[-58.13537945958839,-32.23096624660251],[-58.13467427221801,-32.231674693064754],[-58.13526138724406,-32.232121222882846],[-58.133822038755554,-32.23353805541777],[-58.13340561103982,-32.2341036148265],[-58.132513961024785,-32.235064877053695],[-58.13160787802869,-32.23604167078309],[-58.13031013086932,-32.23740220674986]]]}},{"type":"Feature","properties":{},"geometry":{"type":"Polygon","coordinates":[[[-58.13759600333016,-32.22874510234921],[-58.13833276684914,-32.22798628479341],[-58.13749692566,-32.22737270299089],[-58.13664602735528,-32.226752521405245],[-58.13579158191731,-32.22613826917401],[-58.13537020323484,-32.22583535867639],[-58.13495131203602,-32.22553423300923],[-58.13409989703207,-32.224934003637486],[-58.13325116660968,-32.22432182923204],[-58.132397053663766,-32.22370545437225],[-58.132072448114634,-32.22349498127169],[-58.13091877439728,-32.2227469289732],[-58.13099326395691,-32.22283206797423],[-58.13079126531168,-32.223123848885926],[-58.130723909560594,-32.22318273545306],[-58.130569567453875,-32.22343337584998],[-58.13056239245056,-32.223552480766955],[-58.13072546953771,-32.223812316338424],[-58.13051488790322,-32.223834534056834],[-58.13047799877567,-32.2238261778257],[-58.130067401954605,-32.22428467456746],[-58.13010499266109,-32.224301957065926],[-58.12986793149151,-32.22484350528718],[-58.12979380110568,-32.224789865649655],[-58.129531607509115,-32.22496769582167],[-58.12953485773922,-32.22523405787707],[-58.12936124348468,-32.22546335621461],[-58.129214179809296,-32.22560239331919],[-58.12905511889004,-32.22565400675689],[-58.12884907294073,-32.22582509572889],[-58.12868004055336,-32.22607804595601],[-58.12865128319989,-32.22609373127696],[-58.128328988926164,-32.22633879421031],[-58.12812872048754,-32.22649333337109],[-58.128018542252335,-32.22670894557995],[-58.127990061785965,-32.2269257771269],[-58.128258107694705,-32.22732561268226],[-58.12805944695513,-32.22752800761418],[-58.12791740239769,-32.22771338413404],[-58.12782576108319,-32.22800335578513],[-58.12776351096488,-32.22822065118114],[-58.12774154341657,-32.22829304638328],[-58.1277830273475,-32.22853701557135],[-58.12779780402984,-32.22860804507435],[-58.12799138358285,-32.228910284090105],[-58.12812024420884,-32.22940883288866],[-58.128082820816836,-32.22956309754208],[-58.12747547855341,-32.230504956721745],[-58.127442896858355,-32.23060926429697],[-58.12674016451899,-32.23135630012076],[-58.12650815964,-32.23180663230751],[-58.12634775208588,-32.232059661615395],[-58.1261527840557,-32.23235512928051],[-58.12601370067487,-32.23264714304523],[-58.12581270886481,-32.23314648469337],[-58.12573175485716,-32.23339182018112],[-58.12560925011214,-32.23368319579216],[-58.125499667279655,-32.23381793356021],[-58.12529761714512,-32.23410773187146],[-58.125039013698675,-32.23446897900419],[-58.12485497453036,-32.23461874034946],[-58.12465345602894,-32.23478387529627],[-58.12448456343903,-32.234952198983024],[-58.124601591709194,-32.234993163891595],[-58.124803439895146,-32.23508356798888],[-58.12489638501638,-32.235228009817966],[-58.124981537262194,-32.23534389116064],[-58.12508034380601,-32.23538221404984],[-58.12511010502973,-32.23539838825161],[-58.12516155913372,-32.235430544772925],[-58.12518052696213,-32.23544337621407],[-58.12519612668696,-32.23544821477395],[-58.12520648525501,-32.23545258787583],[-58.12524060244681,-32.23547049460758],[-58.12524889529053,-32.23547731638917],[-58.12527562059524,-32.235487918832426],[-58.12530877776211,-32.23549937403803],[-58.12533461252635,-32.2355120188506],[-58.12536569906599,-32.23552512926543],[-58.12539603915047,-32.23553670101948],[-58.125398410982044,-32.235537605639244],[-58.12542502337205,-32.23555164138579],[-58.12545151221603,-32.23556911030344],[-58.12547352690076,-32.23558750456434],[-58.125503062367514,-32.23561054534579],[-58.12553718496762,-32.2356292274364],[-58.12556226340573,-32.235640481568495],[-58.12558974500856,-32.23565248359729],[-58.12561483406425,-32.23566373787671],[-58.1256579048685,-32.2356805782423],[-58.12569619039174,-32.2356959321225],[-58.12573403065446,-32.23571230718382],[-58.12576183421851,-32.23572671214844],[-58.12579595673236,-32.23574540318544],[-58.12582484886913,-32.235763619926736],[-58.12585101612054,-32.23577867678056],[-58.125876539913484,-32.23578890966025],[-58.12592081231871,-32.23580612839452],[-58.125962805111065,-32.23581916604173],[-58.12599628441378,-32.23583302404534],[-58.12603216689446,-32.23584762993381],[-58.12606782353132,-32.235869102482525],[-58.126093980250474,-32.235884159131125],[-58.1261294281017,-32.235899786344106],[-58.12616650151971,-32.23591477049105],[-58.126198789816755,-32.235928259161604],[-58.12623074577598,-32.23593933568302],[-58.12626156498504,-32.23594993370807],[-58.12626510510064,-32.235951151072676],[-58.12629749555634,-32.23596121523923],[-58.12633228937802,-32.235972018272534],[-58.1263674051405,-32.23598522426724],[-58.1263981700665,-32.23599593146787],[-58.126424128464606,-32.236005151902084],[-58.12646404000158,-32.236019853485814],[-58.12648288418731,-32.23602638517541],[-58.12649599602799,-32.236030929942345],[-58.12652676098584,-32.23604163711274],[-58.12656503639803,-32.23605698156955],[-58.126601798807634,-32.23606955376728],[-58.12665087804008,-32.236088259007765],[-58.12669046789705,-32.23610054853919],[-58.12672166756408,-32.23611023431056],[-58.12676366062242,-32.23612327170039],[-58.12681328748038,-32.236137522189956],[-58.12685811840822,-32.23615028607462],[-58.126896951902246,-32.2361611849141],[-58.126925748430175,-32.23617012275908],[-58.12695935133321,-32.23618055635032],[-58.12699894127615,-32.236192845787926],[-58.12704333760238,-32.23620663096305],[-58.12709012671014,-32.23622115482668],[-58.12713332156401,-32.236234561527674],[-58.12717051878744,-32.23624611221026],[-58.12722570858789,-32.23626324891454],[-58.12725690837334,-32.236272934557626],[-58.12750314861342,-32.236329717689664],[-58.12769119808557,-32.23637308163222],[-58.12794943607633,-32.236420887523046],[-58.12799461649739,-32.2364233511547],[-58.1280248404475,-32.236425800512514],[-58.128069586226715,-32.23642928547571],[-58.12810603338,-32.23642673311099],[-58.12813572659748,-32.23642092514113],[-58.12817513504978,-32.23641466606967],[-58.12821334198871,-32.23640802855272],[-58.12824719800302,-32.23639889230055],[-58.12828966997935,-32.23638549300634],[-58.12831588172742,-32.236375134539486],[-58.12834536596049,-32.2363634811986],[-58.12839766598034,-32.236346197418136],[-58.1284426539545,-32.23633011257989],[-58.12846843102791,-32.23632077543992],[-58.12849507719617,-32.23630940458741],[-58.12852914840292,-32.23629339240613],[-58.12856398646515,-32.2362787800052],[-58.12859435033942,-32.23626509305309],[-58.128640652767515,-32.236245944216975],[-58.12866490629654,-32.236233825639104],[-58.12869613942097,-32.236218095939805],[-58.12872833207826,-32.23622230531909],[-58.12875809425964,-32.23623847869352],[-58.12876340436822,-32.23626093451239],[-58.128765329168964,-32.236288118551755],[-58.12877864437477,-32.23629712062311],[-58.1288000963539,-32.23631162375309],[-58.128838817353355,-32.236325955347525],[-58.128874813344645,-32.23633712711026],[-58.12890361014436,-32.2363460645133],[-58.12895400437336,-32.236361713966325],[-58.12898804242778,-32.23637111665389],[-58.129008262655034,-32.23637739426235],[-58.1290228367603,-32.236381918963],[-58.12904802849913,-32.23638974809687],[-58.12907278579082,-32.23639858957506],[-58.12909798832817,-32.23640640984329],[-58.12913387157188,-32.23642101487615],[-58.12915228231946,-32.23643829128161],[-58.12917789229066,-32.23645780201968],[-58.12920941438223,-32.23646989015651],[-58.12924693381926,-32.23648385221968],[-58.1292669915399,-32.236500476813994],[-58.12928452245497,-32.23651979577041],[-58.12931950948962,-32.23654914631441],[-58.12934163802251,-32.236564106594145],[-58.1293652899069,-32.23658185727145],[-58.12938982185785,-32.23659755636177],[-58.1294107487127,-32.23661214722108],[-58.129446170457335,-32.23664047636896],[-58.12946578282619,-32.236658131153575],[-58.129487798792766,-32.23667651573871],[-58.129508612880414,-32.23669453992537],[-58.129531943183416,-32.23670986958188],[-58.12956967180634,-32.236729676875385],[-58.12959814696969,-32.23673620214812],[-58.12962421891379,-32.23674197958773],[-58.12965474831751,-32.23675955254611],[-58.12968874290186,-32.23679437890921],[-58.12972162163722,-32.23683810535194],[-58.1297465552721,-32.23687820702662],[-58.12976658621412,-32.23690753438425],[-58.129781724686936,-32.23692610560994],[-58.1298036278063,-32.23694793250011],[-58.12981940997502,-32.23697132767797],[-58.12983256333961,-32.237000841717],[-58.12984779828831,-32.237028682586725],[-58.129863789534866,-32.237057923080805],[-58.12989136862122,-32.23707919385926],[-58.12994360883777,-32.23710003629768],[-58.130007200731804,-32.23711977552042],[-58.13005836285985,-32.237136806310055],[-58.13011594643264,-32.23715468945144],[-58.130154346160445,-32.237166608684134],[-58.130182386878836,-32.23717415519754],[-58.13020898991695,-32.2371881898209],[-58.130223693898095,-32.237207782364294],[-58.1302379528375,-32.23722838710264],[-58.13027150258565,-32.23726423453079],[-58.130274961694,-32.23727396626085],[-58.13028443077308,-32.2373006062033],[-58.1302843874174,-32.237326021051345],[-58.13026762201717,-32.23736821020674],[-58.1302818915945,-32.23738881509787],[-58.13031013086932,-32.23740220674986],[-58.13160787802869,-32.23604167078309],[-58.132513961024785,-32.235064877053695],[-58.13340561103982,-32.2341036148265],[-58.133822038755554,-32.23353805541777],[-58.13526138724406,-32.232121222882846],[-58.13467427221801,-32.231674693064754],[-58.13537945958839,-32.23096624660251],[-58.13611904871554,-32.23022637768442],[-58.136860577490104,-32.229487328387485],[-58.13759600333016,-32.22874510234921]]]}},{"type":"Feature","properties":{},"geometry":{"type":"Polygon","coordinates":[[[-58.14172010644897,-32.2245956048789],[-58.140861392121316,-32.22397594039033],[-58.140020205430716,-32.223368906780486],[-58.13916807023628,-32.22275798163255],[-58.13832905340443,-32.22214228358551],[-58.13748612362425,-32.22153924655767],[-58.13663673284101,-32.22093167025284],[-58.13577557654971,-32.22031631017276],[-58.134930690282104,-32.21971256276693],[-58.1340823670285,-32.21910459502697],[-58.132563606716175,-32.21801611153278],[-58.132420755252774,-32.21817866544807],[-58.13221231384795,-32.21838977462165],[-58.13206961073258,-32.218593616779785],[-58.13188081170095,-32.21893094254941],[-58.131609399124244,-32.21953528683347],[-58.131396206151656,-32.219938035986935],[-58.13125015922753,-32.22034195236355],[-58.131120137256126,-32.220682737692314],[-58.130987935690236,-32.221373261077076],[-58.131002764963426,-32.22165727526875],[-58.13097893961329,-32.22170879079439],[-58.131355059272614,-32.22197033205483],[-58.130774787910035,-32.22258235682038],[-58.13091877439728,-32.2227469289732],[-58.132072448114634,-32.22349498127169],[-58.132397053663766,-32.22370545437225],[-58.13325116660968,-32.22432182923204],[-58.13409989703207,-32.224934003637486],[-58.13495131203602,-32.22553423300923],[-58.13537020323484,-32.22583535867639],[-58.13579158191731,-32.22613826917401],[-58.13664602735528,-32.226752521405245],[-58.13749692566,-32.22737270299089],[-58.13833276684914,-32.22798628479341],[-58.139054019237165,-32.227264150997776],[-58.139755413694665,-32.226561883927154],[-58.14047119507753,-32.225845196302835],[-58.14117829528323,-32.22512232327128],[-58.14172010644897,-32.2245956048789]]]}},{"type":"Feature","properties":{},"geometry":{"type":"Polygon","coordinates":[[[-58.132563606716175,-32.21801611153278],[-58.1340823670285,-32.21910459502697],[-58.134930690282104,-32.21971256276693],[-58.13577557654971,-32.22031631017276],[-58.13663673284101,-32.22093167025284],[-58.13748612362425,-32.22153924655767],[-58.13832905340443,-32.22214228358551],[-58.13916807023628,-32.22275798163255],[-58.140020205430716,-32.223368906780486],[-58.140861392121316,-32.22397594039033],[-58.14172010644897,-32.2245956048789],[-58.142939106249536,-32.22546641583851],[-58.143772509183385,-32.22606175116508],[-58.14426030059128,-32.225571459403014],[-58.14497998694154,-32.22485361913601],[-58.1457048485489,-32.224130600744076],[-58.14643544855042,-32.223401842158516],[-58.14558018378377,-32.222802197468724],[-58.14498565961709,-32.22236205050889],[-58.14438949626083,-32.22192890841561],[-58.14353115293732,-32.22130127736151],[-58.142697982032416,-32.22068474510368],[-58.14184795805902,-32.22007770645765],[-58.14100527313296,-32.21943775950633],[-58.14016543853872,-32.218831088287985],[-58.13931630271708,-32.218217684575485],[-58.13847063344655,-32.217609668895555],[-58.13763492096765,-32.216986057004284],[-58.13678978691819,-32.21635540073694],[-58.1355686503705,-32.215444138933265],[-58.13521959465336,-32.215675201025114],[-58.13448867874908,-32.21608284511071],[-58.13445627953091,-32.21610549440781],[-58.13441598584052,-32.21612724812586],[-58.13403981516399,-32.21651777225864],[-58.13383720229019,-32.216798823719124],[-58.133771420728145,-32.21684528428799],[-58.13373810132507,-32.21691891632151],[-58.13343565997874,-32.21671469052031],[-58.13333383551371,-32.216876608276124],[-58.132847827057184,-32.21762297058687],[-58.13271996017074,-32.217796332898516],[-58.132636852608,-32.21793276307474],[-58.132563606716175,-32.21801611153278]]]}}]}