{"type":"FeatureCollection","features":[{"type":"Feature","properties":{"NODO":"11C","CODIGO":2,"NOMBRE":"NORTE"},"geometry":{"type":"Polygon","coordinates":[[[-58.1531173,-32.214104],[-58.1527492,-32.2140458],[-58.1527276,-32.2140165],[-58.1526921,-32.2139623],[-58.1526533,-32.2139022],[-58.1526158,-32.213843],[-58.1525913,-32.2137992],[-58.1525742,-32.2137723],[-58.1525589,-32.2137508],[-58.1525407,-32.2137268],[-58.1525195,-32.2136981],[-58.1524941,-32.213666],[-58.1524825,-32.2136521],[-58.1524789,-32.2136477],[-58.1524699,-32.2136369],[-58.152447,-32.2136104],[-58.152428,-32.2135862],[-58.1524137,-32.2135692],[-58.1524058,-32.2135599],[-58.1523807,-32.2135251],[-58.1523561,-32.2134929],[-58.1523488,-32.2134834],[-58.1523114,-32.213447],[-58.1522935,-32.213428],[-58.1522634,-32.2133896],[-58.1522439,-32.213357],[-58.1522215,-32.2133177],[-58.1521988,-32.2132793],[-58.1521804,-32.2132498],[-58.1521586,-32.2132225],[-58.1521357,-32.2131884],[-58.152102,-32.2131413],[-58.1520661,-32.2130994],[-58.1520345,-32.2130686],[-58.1520094,-32.2130474],[-58.1519743,-32.213021],[-58.1519369,-32.2129885],[-58.1519128,-32.2129648],[-58.1518929,-32.2129447],[-58.1518739,-32.2129243],[-58.1518577,-32.212903],[-58.1518278,-32.2128701],[-58.1517969,-32.2128367],[-58.1517949,-32.2128346],[-58.151778,-32.2128169],[-58.1517622,-32.2127948],[-58.151743,-32.2127672],[-58.1517194,-32.2127307],[-58.151711,-32.2127199],[-58.1516894,-32.2126923],[-58.1516691,-32.2126617],[-58.1516592,-32.212637],[-58.1516449,-32.2126055],[-58.1516313,-32.2125704],[-58.1516156,-32.2125325],[-58.1515952,-32.2124905],[-58.1515818,-32.2124528],[-58.151573,-32.2124218],[-58.1515668,-32.2124004],[-58.1515647,-32.2123933],[-58.1515545,-32.2123636],[-58.1515463,-32.2123253],[-58.1515422,-32.2122811],[-58.1515393,-32.2122455],[-58.1515396,-32.2122103],[-58.1515428,-32.2121679],[-58.1515437,-32.2121388],[-58.1515436,-32.2121084],[-58.1515458,-32.212076],[-58.1515509,-32.212039],[-58.151554,-32.21203],[-58.151551,-32.2119894],[-58.1505468,-32.2113005],[-58.1497174,-32.2107019],[-58.1488668,-32.2100956],[-58.1480439,-32.2094939],[-58.1470693,-32.2087847],[-58.1449732,-32.2072955],[-58.1446951,-32.2070979],[-58.14467,-32.2071438],[-58.1441919,-32.2078205],[-58.1437658,-32.2082913],[-58.1435728,-32.208571],[-58.1434207,-32.2086165],[-58.1432835,-32.2086882],[-58.142973,-32.2089762],[-58.1426008,-32.2092766],[-58.1423572,-32.2095894],[-58.1421068,-32.2098292],[-58.1418672,-32.2100478],[-58.1417899,-32.2101147],[-58.1414064,-32.2105625],[-58.1411711,-32.210825],[-58.1408825,-32.2111517],[-58.1406289,-32.2114102],[-58.1404851,-32.2115531],[-58.1404265,-32.2116897],[-58.1402142,-32.2119118],[-58.1399901,-32.2121504],[-58.1397743,-32.2123527],[-58.1396455,-32.2124949],[-58.1394571,-32.2126933],[-58.1392593,-32.2128959],[-58.1390686,-32.2130605],[-58.1390046,-32.2132083],[-58.1387417,-32.2134317],[-58.1385205,-32.2135832],[-58.1382639,-32.2137444],[-58.1381361,-32.2137862],[-58.1381256,-32.2138863],[-58.1379602,-32.2142399],[-58.1378391,-32.2144236],[-58.1376981,-32.2145431],[-58.1376417,-32.2147428],[-58.1376053,-32.2148964],[-58.1375218,-32.2152081],[-58.1370978,-32.2152354],[-58.137056,-32.214656],[-58.1369417,-32.2145352],[-58.1355687,-32.2154441],[-58.1367898,-32.2163554],[-58.1376349,-32.2169861],[-58.1384706,-32.2176097],[-58.1393163,-32.2182177],[-58.1401654,-32.2188311],[-58.1410053,-32.2194378],[-58.141848,-32.2200777],[-58.142698,-32.2206847],[-58.1435312,-32.2213013],[-58.1443895,-32.2219289],[-58.1449857,-32.2223621],[-58.1455802,-32.2228022],[-58.1464354,-32.2234018],[-58.1471514,-32.2226887],[-58.1478536,-32.2219739],[-58.1485647,-32.2212575],[-58.1493111,-32.2205086],[-58.1501117,-32.219788],[-58.1508062,-32.219037],[-58.1515073,-32.2183231],[-58.1506741,-32.2176788],[-58.150062,-32.2172386],[-58.1508001,-32.2165],[-58.1531173,-32.214104]]]}},{"type":"Feature","properties":{"NODO":"11D","CODIGO":11,"NOMBRE":"PRESIDENTE J. D. PERON"},"geometry":{"type":"Polygon","coordinates":[[[-58.1515073,-32.2183231],[-58.152373,-32.2189488],[-58.1531853,-32.2195096],[-58.1541018,-32.2201672],[-58.1549304,-32.2207292],[-58.1558345,-32.2213855],[-58.1566771,-32.2219782],[-58.1574106,-32.221183],[-58.1588523,-32.2196204],[-58.1588034,-32.2196153],[-58.1587618,-32.219614],[-58.1587277,-32.2196064],[-58.1587255,-32.2196058],[-58.1586849,-32.2195944],[-58.1586272,-32.2195736],[-58.1585575,-32.2195427],[-58.1584796,-32.2195043],[-58.1584106,-32.2194774],[-58.1583902,-32.2194712],[-58.1583682,-32.2194645],[-58.1583357,-32.2194688],[-58.1583112,-32.2194477],[-58.1582892,-32.2194269],[-58.1582628,-32.2194029],[-58.1582534,-32.2193943],[-58.1582194,-32.2193693],[-58.1581972,-32.2193566],[-58.1581701,-32.2193418],[-58.1581443,-32.219328],[-58.1581158,-32.2193129],[-58.158085,-32.2192937],[-58.158052,-32.2192679],[-58.1580172,-32.2192351],[-58.1579854,-32.219195],[-58.1579547,-32.2191526],[-58.1579202,-32.219115],[-58.1578997,-32.219096],[-58.1578817,-32.2190794],[-58.1578444,-32.2190485],[-58.1578107,-32.2190187],[-58.1577695,-32.2189779],[-58.1577513,-32.2189615],[-58.1577389,-32.2189409],[-58.1577247,-32.2189187],[-58.1577073,-32.2188966],[-58.1576934,-32.2188756],[-58.1576791,-32.2188555],[-58.1576605,-32.2188362],[-58.1576328,-32.2188153],[-58.1575986,-32.2187925],[-58.1575595,-32.2187621],[-58.1575228,-32.218726],[-58.1574882,-32.2186851],[-58.1574615,-32.2186444],[-58.1574384,-32.2186048],[-58.157416,-32.2185638],[-58.1573917,-32.2185271],[-58.1573597,-32.2184913],[-58.1573413,-32.2184741],[-58.1573202,-32.2184543],[-58.1572763,-32.2184122],[-58.1572275,-32.2183567],[-58.1571911,-32.2183044],[-58.1571768,-32.2182754],[-58.1571661,-32.2182539],[-58.1571478,-32.2182011],[-58.1571468,-32.2181476],[-58.1571433,-32.2180923],[-58.1571358,-32.2180351],[-58.1571309,-32.2179832],[-58.1571342,-32.2179424],[-58.1571378,-32.2178974],[-58.1571305,-32.2178626],[-58.1571287,-32.2178284],[-58.1571203,-32.2177905],[-58.1571101,-32.2177532],[-58.1571052,-32.2177186],[-58.1571038,-32.2176813],[-58.157104,-32.2176423],[-58.1571027,-32.217605],[-58.1571004,-32.2175663],[-58.1570871,-32.2175188],[-58.1570683,-32.2174653],[-58.1570426,-32.2174125],[-58.1570154,-32.2173635],[-58.1569952,-32.2173134],[-58.1569817,-32.2172626],[-58.1569706,-32.2172137],[-58.1569692,-32.2171671],[-58.1569717,-32.2171206],[-58.1569755,-32.2170729],[-58.1569827,-32.217029],[-58.1569893,-32.2169903],[-58.1569863,-32.2169492],[-58.1569784,-32.2169023],[-58.1569695,-32.2168562],[-58.1569559,-32.2168113],[-58.1569443,-32.2167829],[-58.1569407,-32.2167742],[-58.1569088,-32.2167346],[-58.15685,-32.2166814],[-58.1567751,-32.2166207],[-58.1566973,-32.216559],[-58.156631,-32.2164987],[-58.1565796,-32.2164494],[-58.1565366,-32.216407],[-58.156496,-32.2163648],[-58.1564521,-32.2163151],[-58.1564427,-32.216305],[-58.1564108,-32.2162705],[-58.1563715,-32.2162368],[-58.1563439,-32.2162141],[-58.1563402,-32.216211],[-58.1563137,-32.2161932],[-58.1562905,-32.2161769],[-58.1562674,-32.2161645],[-58.156226,-32.2161432],[-58.1562036,-32.216131],[-58.1561762,-32.216121],[-58.1561338,-32.2161081],[-58.1560781,-32.2160923],[-58.1560078,-32.2160703],[-58.1559437,-32.2160492],[-58.1558892,-32.2160305],[-58.1558434,-32.216016],[-58.1558017,-32.2160033],[-58.1557631,-32.215991],[-58.1557099,-32.2159749],[-58.155684,-32.215967],[-58.1556373,-32.2159528],[-58.1556043,-32.2159427],[-58.1555547,-32.2159277],[-58.1554998,-32.2159115],[-58.1554409,-32.2158936],[-58.1553863,-32.215877],[-58.155336,-32.2158617],[-58.1552823,-32.2158448],[-58.1552305,-32.2158291],[-58.1552008,-32.2158207],[-58.1551798,-32.2158147],[-58.1551253,-32.2158074],[-58.1550735,-32.2158014],[-58.1550318,-32.2157925],[-58.1549939,-32.2157826],[-58.1549565,-32.2157712],[-58.1549122,-32.215761],[-58.1548626,-32.2157497],[-58.1548238,-32.2157417],[-58.1547907,-32.2157376],[-58.1547547,-32.2157305],[-58.1547069,-32.2157171],[-58.1546432,-32.2156988],[-58.1545771,-32.2156787],[-58.1545312,-32.2156663],[-58.1544913,-32.2156553],[-58.1544503,-32.2156428],[-58.1544025,-32.2156255],[-58.1543454,-32.2156011],[-58.1542795,-32.2155729],[-58.1541975,-32.2155442],[-58.1541461,-32.2155267],[-58.1541067,-32.2155134],[-58.1540149,-32.2154773],[-58.1539697,-32.2154543],[-58.1539434,-32.2154409],[-58.1538922,-32.2154047],[-58.1538377,-32.2153648],[-58.153796,-32.215325],[-58.1537587,-32.2152827],[-58.1537283,-32.2152392],[-58.1536995,-32.2151903],[-58.1536697,-32.215134],[-58.1536343,-32.2150755],[-58.1535969,-32.215018],[-58.1535662,-32.2149696],[-58.1535422,-32.2149302],[-58.1535178,-32.2148919],[-58.1534967,-32.2148496],[-58.15348,-32.2148044],[-58.1534664,-32.214752],[-58.1534574,-32.2146982],[-58.1534467,-32.2146543],[-58.1534352,-32.2146182],[-58.1534214,-32.2145814],[-58.1534095,-32.2145463],[-58.1533977,-32.2145145],[-58.1533898,-32.2144871],[-58.153382,-32.2144614],[-58.1533734,-32.2144279],[-58.1533553,-32.214386],[-58.1533395,-32.2143465],[-58.15333,-32.2143132],[-58.1533121,-32.2142806],[-58.1533006,-32.2142589],[-58.1531173,-32.214104],[-58.1508001,-32.2165],[-58.150062,-32.2172386],[-58.1506741,-32.2176788],[-58.1515073,-32.2183231]]]}},{"type":"Feature","properties":{"NODO":"11E","CODIGO":1,"NOMBRE":"SANTOS JUSTO Y PASTOR"},"geometry":{"type":"Polygon","coordinates":[[[-58.1541795,-32.2289616],[-58.1548876,-32.2282696],[-58.1555933,-32.2275315],[-58.1560359,-32.2278467],[-58.1564703,-32.2281561],[-58.1573163,-32.2287686],[-58.1580552,-32.2280576],[-58.1589201,-32.2286807],[-58.1581924,-32.2294063],[-58.1590317,-32.2300225],[-58.1593907,-32.2302861],[-58.1598595,-32.2293573],[-58.1603,-32.2284095],[-58.1611625,-32.2264513],[-58.1614019,-32.2259382],[-58.1619996,-32.2246733],[-58.1620197,-32.2245773],[-58.1620431,-32.2244656],[-58.1631205,-32.2223315],[-58.1632833,-32.2222762],[-58.1639098,-32.2207207],[-58.1638299,-32.2206911],[-58.1628114,-32.2203136],[-58.162859,-32.22022],[-58.1628439,-32.220221],[-58.1627894,-32.2202249],[-58.1627322,-32.2202286],[-58.1626672,-32.2202298],[-58.1626044,-32.2202292],[-58.1625503,-32.2202258],[-58.1624983,-32.2202174],[-58.1624485,-32.2202072],[-58.1624035,-32.220198],[-58.1623563,-32.2201886],[-58.1623064,-32.2201772],[-58.1622505,-32.2201626],[-58.1621902,-32.2201447],[-58.1621265,-32.2201246],[-58.1620609,-32.2201038],[-58.1620002,-32.2200852],[-58.1619442,-32.2200675],[-58.1618882,-32.2200497],[-58.1618334,-32.2200311],[-58.1617827,-32.2200113],[-58.1617411,-32.2199926],[-58.1617028,-32.2199748],[-58.1616607,-32.2199571],[-58.1616187,-32.2199376],[-58.1615785,-32.2199124],[-58.1615707,-32.2199069],[-58.1615377,-32.2198833],[-58.1614917,-32.2198563],[-58.1614483,-32.2198282],[-58.1614462,-32.2198264],[-58.1614112,-32.2197959],[-58.1613738,-32.219766],[-58.1613277,-32.2197458],[-58.1612846,-32.2197322],[-58.1612456,-32.2197291],[-58.1612083,-32.2197341],[-58.1611676,-32.2197449],[-58.1611201,-32.2197548],[-58.1610666,-32.2197615],[-58.1610084,-32.2197674],[-58.1609482,-32.2197726],[-58.1608893,-32.2197782],[-58.1608306,-32.2197852],[-58.1608171,-32.2197869],[-58.1607747,-32.2197924],[-58.160719,-32.219799],[-58.160669,-32.2198062],[-58.1606214,-32.2198129],[-58.160568,-32.2198178],[-58.1605055,-32.2198217],[-58.1604384,-32.219826],[-58.1603748,-32.2198289],[-58.1603209,-32.2198299],[-58.1602747,-32.2198283],[-58.1602343,-32.2198236],[-58.160193,-32.2198143],[-58.1601504,-32.2198027],[-58.1601018,-32.2197916],[-58.1600498,-32.2197832],[-58.1599974,-32.2197791],[-58.1599478,-32.2197802],[-58.1598987,-32.2197821],[-58.159842,-32.2197859],[-58.1597817,-32.2197899],[-58.1597238,-32.2197865],[-58.1596588,-32.2197728],[-58.1595926,-32.2197549],[-58.15953,-32.2197357],[-58.1595124,-32.2197306],[-58.1594464,-32.2197113],[-58.1594046,-32.219699],[-58.1593896,-32.2196942],[-58.1593614,-32.2196862],[-58.1593329,-32.2196846],[-58.1592864,-32.2196813],[-58.1592596,-32.2196775],[-58.1592191,-32.2196717],[-58.1591622,-32.2196701],[-58.1591329,-32.2196666],[-58.1590973,-32.2196585],[-58.1590615,-32.2196493],[-58.1590045,-32.2196384],[-58.1589716,-32.2196355],[-58.1589276,-32.2196303],[-58.1588663,-32.2196219],[-58.1588523,-32.2196204],[-58.1574106,-32.221183],[-58.1566771,-32.2219782],[-58.1558345,-32.2213855],[-58.1549304,-32.2207292],[-58.1541018,-32.2201672],[-58.1531853,-32.2195096],[-58.152373,-32.2189488],[-58.1515073,-32.2183231],[-58.1508062,-32.219037],[-58.1501117,-32.219788],[-58.1493111,-32.2205086],[-58.1485647,-32.2212575],[-58.1478536,-32.2219739],[-58.1471514,-32.2226887],[-58.1464354,-32.2234018],[-58.1472811,-32.2240027],[-58.1481507,-32.2246332],[-58.1490073,-32.2252572],[-58.1498519,-32.2258584],[-58.1507145,-32.2264725],[-58.1516006,-32.2271106],[-58.152451,-32.227723],[-58.1528855,-32.228036],[-58.1533058,-32.2283387],[-58.1537558,-32.2286595],[-58.1541795,-32.2289616]]]}},{"type":"Feature","properties":{"NODO":"11F","CODIGO":3,"NOMBRE":"HIPOLITO IRIGOYEN"},"geometry":{"type":"Polygon","coordinates":[[[-58.1593907,-32.2302861],[-58.1590317,-32.2300225],[-58.1581924,-32.2294063],[-58.1589201,-32.2286807],[-58.1580552,-32.2280576],[-58.1573163,-32.2287686],[-58.1564703,-32.2281561],[-58.1560359,-32.2278467],[-58.1555933,-32.2275315],[-58.1548876,-32.2282696],[-58.1541795,-32.2289616],[-58.1534366,-32.2296903],[-58.152731,-32.2304254],[-58.1520306,-32.2311325],[-58.1515267,-32.2316446],[-58.1509901,-32.2321775],[-58.1502855,-32.2328773],[-58.1511617,-32.2335112],[-58.152107,-32.2341881],[-58.1528579,-32.2347258],[-58.1538094,-32.235402],[-58.154676,-32.2360135],[-58.1561383,-32.2370288],[-58.1569,-32.235491],[-58.1573008,-32.2347253],[-58.1576431,-32.2340254],[-58.1585649,-32.2321405],[-58.1589974,-32.2311593],[-58.1593907,-32.2302861]]]}},{"type":"Feature","properties":{"NODO":"120","CODIGO":6,"NOMBRE":"MEDALLA MILAGROSA"},"geometry":{"type":"Polygon","coordinates":[[[-58.1561383,-32.2370288],[-58.154676,-32.2360135],[-58.1538094,-32.235402],[-58.1528579,-32.2347258],[-58.152107,-32.2341881],[-58.1511617,-32.2335112],[-58.1502855,-32.2328773],[-58.1494308,-32.2322783],[-58.1485523,-32.2316593],[-58.1483019,-32.2314828],[-58.1476961,-32.2310397],[-58.1468313,-32.230414],[-58.145933,-32.2297468],[-58.1451265,-32.2291713],[-58.144398,-32.2298951],[-58.1436816,-32.2306067],[-58.1429735,-32.2313263],[-58.1422169,-32.2320597],[-58.14305,-32.2326562],[-58.1423046,-32.2334121],[-58.1415583,-32.2341699],[-58.1403738,-32.2353723],[-58.1395624,-32.2362363],[-58.1388174,-32.2370366],[-58.1381023,-32.2378045],[-58.1381085,-32.2378101],[-58.1381276,-32.2378287],[-58.1381474,-32.2378522],[-58.1381767,-32.2378821],[-58.1381955,-32.2378984],[-58.1382164,-32.237911],[-58.1382193,-32.2379127],[-58.1382426,-32.237928],[-58.1382651,-32.237942],[-58.138286,-32.2379566],[-58.1383167,-32.23798],[-58.1383439,-32.2380023],[-58.1383701,-32.2380266],[-58.1383933,-32.2380581],[-58.1384205,-32.2380897],[-58.1384435,-32.2381119],[-58.1384734,-32.2381373],[-58.1385119,-32.2381678],[-58.1385345,-32.2381817],[-58.1385558,-32.2381953],[-58.13858,-32.2382086],[-58.1386177,-32.2382284],[-58.1386627,-32.2382471],[-58.1387087,-32.2382602],[-58.1387376,-32.2382657],[-58.138769,-32.2382686],[-58.1387977,-32.2382682],[-58.1388465,-32.2382591],[-58.1388673,-32.2382425],[-58.1388917,-32.2382142],[-58.1389174,-32.238183],[-58.1389446,-32.2381544],[-58.1389686,-32.2381365],[-58.1390054,-32.2381237],[-58.1390479,-32.238123],[-58.1390982,-32.2381167],[-58.1391253,-32.2381136],[-58.1391675,-32.2381105],[-58.1392057,-32.2381132],[-58.139256,-32.2381195],[-58.1392886,-32.2381228],[-58.1393177,-32.2381248],[-58.139347,-32.2381293],[-58.139398,-32.2381371],[-58.1394362,-32.2381432],[-58.1394942,-32.2381474],[-58.1395242,-32.238144],[-58.1395701,-32.2381386],[-58.1396267,-32.2381366],[-58.1396733,-32.2381326],[-58.1397037,-32.2381282],[-58.1397514,-32.2381153],[-58.1397764,-32.2381046],[-58.1398007,-32.2380925],[-58.1398266,-32.2380797],[-58.1398544,-32.2380687],[-58.1398839,-32.2380571],[-58.1399259,-32.2380448],[-58.1399538,-32.2380338],[-58.13998,-32.2380234],[-58.1400069,-32.2380145],[-58.1400378,-32.2380091],[-58.1400731,-32.2380062],[-58.1401096,-32.2380002],[-58.1401372,-32.2379961],[-58.140164,-32.237994],[-58.1402074,-32.2380005],[-58.1402318,-32.2380197],[-58.1402483,-32.2380445],[-58.1402915,-32.2380452],[-58.140349,-32.2380411],[-58.1403818,-32.2380375],[-58.1404091,-32.2380309],[-58.1404571,-32.2380204],[-58.1404978,-32.2380238],[-58.1405266,-32.2380328],[-58.1405722,-32.238047],[-58.1405998,-32.2380555],[-58.1406254,-32.2380623],[-58.1406697,-32.2380669],[-58.1406979,-32.2380676],[-58.1407331,-32.2380774],[-58.140758,-32.2380851],[-58.1407667,-32.2380878],[-58.1408123,-32.238102],[-58.1408446,-32.238112],[-58.1408746,-32.2381214],[-58.1409077,-32.2381328],[-58.1409417,-32.2381457],[-58.1409601,-32.2381556],[-58.1409726,-32.2381622],[-58.1409959,-32.2381776],[-58.1410168,-32.2381922],[-58.1410476,-32.2382121],[-58.1410805,-32.2382305],[-58.1411227,-32.2382494],[-58.1411478,-32.2382606],[-58.1411708,-32.2382736],[-58.1412053,-32.2383039],[-58.1412232,-32.2383222],[-58.1412584,-32.2383447],[-58.1412826,-32.238358],[-58.1413026,-32.2383746],[-58.141324,-32.2384009],[-58.1413407,-32.2384189],[-58.1413616,-32.2384461],[-58.1413984,-32.2384807],[-58.1414327,-32.2385179],[-58.1414591,-32.2385481],[-58.1414774,-32.2385688],[-58.1415054,-32.2386018],[-58.1415321,-32.2386344],[-58.141558,-32.238669],[-58.1415724,-32.2386955],[-58.1415923,-32.2387282],[-58.1416132,-32.2387682],[-58.1416373,-32.2388069],[-58.1416574,-32.2388328],[-58.1416771,-32.2388597],[-58.1416945,-32.2388825],[-58.1417136,-32.2389046],[-58.1417302,-32.2389259],[-58.1417472,-32.2389497],[-58.141755,-32.2389822],[-58.1417633,-32.2390102],[-58.1417788,-32.2390404],[-58.1418075,-32.2390748],[-58.1418363,-32.2390964],[-58.1418575,-32.2391134],[-58.1418772,-32.2391404],[-58.1418956,-32.2391703],[-58.1419076,-32.239196],[-58.1419142,-32.2392281],[-58.1419182,-32.2392536],[-58.1419275,-32.2392889],[-58.1419396,-32.2393112],[-58.1419565,-32.2393384],[-58.1419675,-32.2393603],[-58.1419827,-32.2393881],[-58.1419916,-32.2394117],[-58.142003,-32.2394418],[-58.1420138,-32.2394706],[-58.1420267,-32.2394942],[-58.1420416,-32.2395197],[-58.1420589,-32.2395458],[-58.1420802,-32.2395721],[-58.1420948,-32.2395951],[-58.1421117,-32.2396189],[-58.1421289,-32.2396485],[-58.1421567,-32.2396756],[-58.1421589,-32.2396777],[-58.1421841,-32.2397003],[-58.1422067,-32.2397236],[-58.1422309,-32.2397496],[-58.1422477,-32.2397768],[-58.1422615,-32.2398111],[-58.1422733,-32.2398437],[-58.1422786,-32.2398679],[-58.1422793,-32.2398709],[-58.1422856,-32.2398972],[-58.1423015,-32.2399298],[-58.1423137,-32.2399521],[-58.1423411,-32.2399895],[-58.142363,-32.2400206],[-58.1423895,-32.2400508],[-58.142421,-32.2400849],[-58.1424401,-32.240107],[-58.1424612,-32.2401274],[-58.1424791,-32.2401457],[-58.1425107,-32.2401798],[-58.1425455,-32.2402126],[-58.1425656,-32.2402292],[-58.142586,-32.2402448],[-58.1426049,-32.2402611],[-58.1426378,-32.2402921],[-58.1426687,-32.2403214],[-58.142694,-32.240335],[-58.1427224,-32.240345],[-58.1427746,-32.2403658],[-58.1428088,-32.2403811],[-58.1428454,-32.2403971],[-58.1428836,-32.2404159],[-58.142922,-32.2404371],[-58.1429605,-32.2404583],[-58.1430026,-32.2404806],[-58.1430446,-32.240503],[-58.143082,-32.2405204],[-58.1431159,-32.2405332],[-58.1431471,-32.2405429],[-58.1431807,-32.2405534],[-58.143213,-32.2405634],[-58.143243,-32.2405727],[-58.1432718,-32.2405817],[-58.1433134,-32.2405923],[-58.1433427,-32.2406003],[-58.1433791,-32.2406104],[-58.1434075,-32.240617],[-58.1434456,-32.2406265],[-58.1434874,-32.2406337],[-58.1435218,-32.2406421],[-58.143551,-32.24065],[-58.1435774,-32.2406582],[-58.1436038,-32.2406664],[-58.143629,-32.2406743],[-58.1436637,-32.2406851],[-58.1436949,-32.2406948],[-58.1437337,-32.2407057],[-58.1437589,-32.2407135],[-58.1438001,-32.2407252],[-58.1438253,-32.240733],[-58.1438505,-32.2407408],[-58.1438889,-32.2407528],[-58.1439198,-32.2407627],[-58.1440177,-32.2407782],[-58.1440205,-32.2407787],[-58.1440277,-32.2407809],[-58.1440409,-32.240785],[-58.1440541,-32.2407891],[-58.1440668,-32.2407942],[-58.144082,-32.2408001],[-58.1441018,-32.2408109],[-58.1441239,-32.2408259],[-58.1441429,-32.2408387],[-58.1441588,-32.2408459],[-58.1441675,-32.240851],[-58.1441779,-32.2408553],[-58.1441954,-32.2408619],[-58.1442206,-32.2408698],[-58.1442506,-32.2408791],[-58.144269,-32.2408848],[-58.1442745,-32.2408866],[-58.1442913,-32.2408918],[-58.1443057,-32.2408963],[-58.1443177,-32.2409],[-58.1443285,-32.2409033],[-58.1443357,-32.2409056],[-58.1443417,-32.2409074],[-58.1443477,-32.2409093],[-58.1443549,-32.2409115],[-58.1443645,-32.2409145],[-58.1443765,-32.2409182],[-58.1443897,-32.2409224],[-58.1444017,-32.2409261],[-58.1444148,-32.2409302],[-58.1444213,-32.240931],[-58.1444273,-32.2409329],[-58.144436,-32.2409379],[-58.1444483,-32.240944],[-58.1444614,-32.2409516],[-58.1444729,-32.2409563],[-58.1444845,-32.2409611],[-58.1444944,-32.2409665],[-58.1445052,-32.2409698],[-58.1445132,-32.2409735],[-58.1445251,-32.2409772],[-58.1445443,-32.2409832],[-58.1445635,-32.2409891],[-58.1445791,-32.240994],[-58.1445923,-32.2409981],[-58.1446043,-32.2410018],[-58.1446127,-32.2410044],[-58.1446215,-32.241006],[-58.1446292,-32.2410072],[-58.1446401,-32.2410071],[-58.1446523,-32.241004],[-58.1446629,-32.2410015],[-58.1446735,-32.240999],[-58.1446796,-32.2409975],[-58.1446852,-32.2409969],[-58.1447801,-32.2409818],[-58.1447945,-32.24098],[-58.1448313,-32.2409799],[-58.1448595,-32.2409806],[-58.1448943,-32.2409787],[-58.144927,-32.2409785],[-58.1449561,-32.2409806],[-58.144989,-32.2409862],[-58.1450374,-32.2410001],[-58.1450705,-32.2410116],[-58.145098,-32.2410236],[-58.1451216,-32.2410413],[-58.1451434,-32.2410666],[-58.145168,-32.2411043],[-58.1451849,-32.241128],[-58.1452028,-32.2411497],[-58.1452207,-32.241168],[-58.1452439,-32.2411995],[-58.1452637,-32.241223],[-58.1452869,-32.2412545],[-58.1453106,-32.2412815],[-58.1453301,-32.2413026],[-58.145348,-32.2413209],[-58.1453748,-32.2413535],[-58.1453971,-32.241387],[-58.1454173,-32.2414221],[-58.1454315,-32.2414427],[-58.1454427,-32.2414705],[-58.1454411,-32.2414931],[-58.1454377,-32.2415232],[-58.1454385,-32.2415466],[-58.1454424,-32.2415755],[-58.1454505,-32.2416104],[-58.1454652,-32.2416393],[-58.1454952,-32.2416613],[-58.1455362,-32.2416798],[-58.1455812,-32.2416984],[-58.1456158,-32.2417127],[-58.1456588,-32.241733],[-58.1456822,-32.2417449],[-58.1457255,-32.2417676],[-58.1457654,-32.2417915],[-58.1457994,-32.2418137],[-58.1458235,-32.2418293],[-58.1458303,-32.2418337],[-58.145872,-32.2418536],[-58.1458991,-32.2418632],[-58.1459318,-32.2418756],[-58.1459654,-32.2418861],[-58.1459692,-32.2418875],[-58.1459993,-32.2418989],[-58.1460275,-32.2419123],[-58.1460522,-32.2419246],[-58.1460759,-32.2419389],[-58.1460992,-32.2419543],[-58.146123,-32.2419686],[-58.1461326,-32.2419744],[-58.1461467,-32.2419829],[-58.1461734,-32.2419935],[-58.146214,-32.242013],[-58.1462377,-32.2420274],[-58.1462643,-32.2420414],[-58.1462897,-32.2420551],[-58.1463136,-32.242066],[-58.146316,-32.2420667],[-58.1465287,-32.2421317],[-58.1473277,-32.2422949],[-58.1479166,-32.2424866],[-58.1481294,-32.242627],[-58.148152,-32.2426469],[-58.1485,-32.2429528],[-58.1490268,-32.2435554],[-58.1493345,-32.243982],[-58.1496368,-32.2450811],[-58.1496387,-32.2450826],[-58.1496793,-32.2451133],[-58.1497003,-32.2451283],[-58.1497218,-32.2451424],[-58.1497432,-32.2451565],[-58.1497885,-32.245182],[-58.1498307,-32.2452056],[-58.1498541,-32.245218],[-58.1498794,-32.2452322],[-58.1499097,-32.24525],[-58.1499396,-32.2452687],[-58.1499683,-32.2452872],[-58.1499921,-32.2453019],[-58.150033,-32.2453284],[-58.1500548,-32.2453448],[-58.1500797,-32.2453632],[-58.1501045,-32.2453816],[-58.1501306,-32.2454003],[-58.1501569,-32.2454214],[-58.1501868,-32.2454435],[-58.150215,-32.2454662],[-58.1502425,-32.2454908],[-58.1502672,-32.2455158],[-58.1502889,-32.2455388],[-58.1503087,-32.2455601],[-58.1503266,-32.2455797],[-58.150357,-32.245613],[-58.1503745,-32.2456303],[-58.1503928,-32.2456489],[-58.1504133,-32.2456715],[-58.1504346,-32.2456922],[-58.150454,-32.2457145],[-58.1504761,-32.2457364],[-58.1504959,-32.2457577],[-58.1505157,-32.245779],[-58.150537,-32.2457997],[-58.1505599,-32.2458197],[-58.1505832,-32.2458387],[-58.1506065,-32.2458578],[-58.1506313,-32.2458762],[-58.1506566,-32.2458936],[-58.1507026,-32.2459205],[-58.1507383,-32.2459377],[-58.1507745,-32.2459506],[-58.1508092,-32.2459609],[-58.1508119,-32.2459606],[-58.1508373,-32.2459681],[-58.1508812,-32.2459812],[-58.1509268,-32.2459903],[-58.1509581,-32.2459929],[-58.1509948,-32.245995],[-58.1510219,-32.2459953],[-58.1510491,-32.2459924],[-58.1510852,-32.2459866],[-58.151121,-32.2459752],[-58.1511475,-32.2459643],[-58.151176,-32.2459518],[-58.1512025,-32.2459409],[-58.1512333,-32.2459258],[-58.1512686,-32.2458999],[-58.1513043,-32.2458698],[-58.1513366,-32.2458386],[-58.1513658,-32.2458054],[-58.1513883,-32.2457757],[-58.1514046,-32.2457519],[-58.1514202,-32.2457234],[-58.151433,-32.2456986],[-58.1514446,-32.2456734],[-58.1514543,-32.2456498],[-58.1514652,-32.2456233],[-58.1514749,-32.2455997],[-58.1514834,-32.2455758],[-58.151488,-32.2455519],[-58.1514911,-32.2455285],[-58.1514967,-32.2454993],[-58.1515046,-32.2454675],[-58.1515171,-32.2454371],[-58.1515353,-32.2454116],[-58.1515557,-32.2453934],[-58.1515811,-32.2453789],[-58.1516127,-32.2453652],[-58.1516492,-32.2453584],[-58.1516981,-32.245353],[-58.1517396,-32.2453499],[-58.1517705,-32.2453468],[-58.1519637,-32.2453562],[-58.152382,-32.2444999],[-58.1526116,-32.2440642],[-58.1533589,-32.2426368],[-58.1539798,-32.2414127],[-58.1546494,-32.2399394],[-58.1549386,-32.2397766],[-58.1552993,-32.2389506],[-58.1554938,-32.2385049],[-58.1561383,-32.2370288]]]}},{"type":"Feature","properties":{"NODO":"121","CODIGO":4,"NOMBRE":"12 DE ABRIL"},"geometry":{"type":"Polygon","coordinates":[[[-58.1541795,-32.2289616],[-58.1537558,-32.2286595],[-58.1533058,-32.2283387],[-58.1528855,-32.228036],[-58.152451,-32.227723],[-58.1516006,-32.2271106],[-58.1507145,-32.2264725],[-58.1498519,-32.2258584],[-58.1490073,-32.2252572],[-58.1481507,-32.2246332],[-58.1472811,-32.2240027],[-58.1464354,-32.2234018],[-58.1457048,-32.2241306],[-58.14498,-32.2248536],[-58.1442603,-32.2255715],[-58.1437725,-32.2260618],[-58.1446081,-32.2266649],[-58.1454896,-32.2273012],[-58.1463604,-32.2279297],[-58.1458322,-32.2284691],[-58.1451265,-32.2291713],[-58.145933,-32.2297468],[-58.1468313,-32.230414],[-58.1476961,-32.2310397],[-58.1483019,-32.2314828],[-58.1485523,-32.2316593],[-58.1494308,-32.2322783],[-58.1502855,-32.2328773],[-58.1509901,-32.2321775],[-58.1515267,-32.2316446],[-58.1520306,-32.2311325],[-58.152731,-32.2304254],[-58.1534366,-32.2296903],[-58.1541795,-32.2289616]]]}},{"type":"Feature","properties":{"NODO":"122","CODIGO":7,"NOMBRE":"TIRO FEDERAL NORTE"},"geometry":{"type":"Polygon","coordinates":[[[-58.1383328,-32.2279863],[-58.137596,-32.2287451],[-58.1382018,-32.2291752],[-58.1388174,-32.229615],[-58.1396515,-32.2302108],[-58.1404939,-32.2308126],[-58.1413497,-32.2314249],[-58.1422169,-32.2320597],[-58.1429735,-32.2313263],[-58.1436816,-32.2306067],[-58.144398,-32.2298951],[-58.1451265,-32.2291713],[-58.1458322,-32.2284691],[-58.1463604,-32.2279297],[-58.1454896,-32.2273012],[-58.1446081,-32.2266649],[-58.1437725,-32.2260618],[-58.1429391,-32.2254664],[-58.1417201,-32.2245956],[-58.1411783,-32.2251223],[-58.1404712,-32.2258452],[-58.1397554,-32.2265619],[-58.139054,-32.2272642],[-58.1383328,-32.2279863]]]}},{"type":"Feature","properties":{"NODO":"123","CODIGO":9,"NOMBRE":"TIRO FEDERAL SUR"},"geometry":{"type":"Polygon","coordinates":[[[-58.1303101,-32.2374022],[-58.1303405,-32.2374139],[-58.1303808,-32.2374276],[-58.1304165,-32.2374364],[-58.1304432,-32.2374433],[-58.130463,-32.2374485],[-58.1304969,-32.2374613],[-58.1305229,-32.2374798],[-58.130554,-32.2375056],[-58.1305854,-32.2375339],[-58.1306133,-32.2375576],[-58.1306335,-32.23758],[-58.1306523,-32.2375997],[-58.1306843,-32.2376328],[-58.1307089,-32.2376578],[-58.1307355,-32.2376845],[-58.1307659,-32.2377055],[-58.1307972,-32.2377245],[-58.1308253,-32.2377413],[-58.1308535,-32.2377581],[-58.1308816,-32.2377749],[-58.1309101,-32.2377942],[-58.1309342,-32.2378109],[-58.1309644,-32.2378353],[-58.1309911,-32.2378586],[-58.1310154,-32.2378812],[-58.1310402,-32.2378901],[-58.1310654,-32.2378979],[-58.131107,-32.2379119],[-58.1311519,-32.237934],[-58.1311944,-32.237968],[-58.1312332,-32.2380043],[-58.1312652,-32.2380373],[-58.131301,-32.2380681],[-58.1313345,-32.2380912],[-58.131361,-32.2381087],[-58.1313869,-32.2381213],[-58.1314217,-32.2381321],[-58.1314471,-32.2381458],[-58.1314765,-32.2381596],[-58.1315016,-32.2381708],[-58.1315501,-32.2381936],[-58.1315789,-32.2382118],[-58.1315938,-32.2382372],[-58.1315982,-32.2382617],[-58.131611,-32.2382888],[-58.1316251,-32.2383128],[-58.1316431,-32.2383311],[-58.1316582,-32.2383497],[-58.1316714,-32.2383686],[-58.1316767,-32.2383763],[-58.1316994,-32.2384088],[-58.1317209,-32.2384409],[-58.1317512,-32.238478],[-58.131769,-32.2384997],[-58.1317855,-32.2385245],[-58.1318049,-32.238549],[-58.1318144,-32.2385576],[-58.1318245,-32.2385667],[-58.1318612,-32.238592],[-58.1319114,-32.2386111],[-58.1319393,-32.2386221],[-58.1319708,-32.2386342],[-58.1319995,-32.2386465],[-58.1320373,-32.2386629],[-58.132086,-32.2386792],[-58.1321148,-32.2386882],[-58.1321408,-32.2386974],[-58.1321679,-32.238707],[-58.1321955,-32.2387156],[-58.1322371,-32.2387262],[-58.1322816,-32.2387366],[-58.1323081,-32.2387414],[-58.1323596,-32.2387482],[-58.132393,-32.2387527],[-58.1324288,-32.2387547],[-58.1324708,-32.238755],[-58.1325082,-32.2387504],[-58.1325395,-32.238744],[-58.1325749,-32.2387377],[-58.1326127,-32.2387287],[-58.1326506,-32.2387196],[-58.1326856,-32.2387109],[-58.1327166,-32.238702],[-58.132742,-32.2386937],[-58.1327868,-32.2386718],[-58.1328302,-32.238653],[-58.1328691,-32.2386385],[-58.1329231,-32.2386172],[-58.1329555,-32.2386053],[-58.1329923,-32.2385925],[-58.1330285,-32.2385841],[-58.133068,-32.2385744],[-58.1331108,-32.2385635],[-58.1331566,-32.2385488],[-58.1332002,-32.2385358],[-58.1332333,-32.2385253],[-58.133259,-32.2385194],[-58.1333157,-32.2385012],[-58.1333488,-32.2384907],[-58.1333831,-32.2384806],[-58.1334208,-32.2384657],[-58.1334526,-32.2384548],[-58.1335019,-32.2384447],[-58.1335418,-32.2384594],[-58.1335788,-32.2384744],[-58.1336088,-32.2384711],[-58.1336372,-32.2384556],[-58.1336621,-32.2384356],[-58.1336976,-32.2384132],[-58.1337449,-32.2384013],[-58.1337733,-32.2383986],[-58.1338044,-32.238399],[-58.133837,-32.2384022],[-58.133868,-32.2384061],[-58.1338974,-32.2384071],[-58.1339249,-32.2384064],[-58.1339785,-32.2383988],[-58.1340083,-32.2383896],[-58.134038,-32.2383838],[-58.1340669,-32.2383766],[-58.1340984,-32.2383668],[-58.1341314,-32.2383563],[-58.1341596,-32.2383477],[-58.1341852,-32.2383418],[-58.1342207,-32.238332],[-58.1342458,-32.2383179],[-58.1342766,-32.2383032],[-58.1343076,-32.2382851],[-58.1343356,-32.2382672],[-58.1343615,-32.2382545],[-58.134387,-32.2382427],[-58.1344141,-32.2382304],[-58.1344437,-32.2382153],[-58.1344728,-32.2382013],[-58.1345012,-32.2381858],[-58.1345287,-32.2381724],[-58.1345479,-32.2381564],[-58.1345703,-32.2381391],[-58.1345948,-32.2381202],[-58.1346176,-32.2381018],[-58.1346408,-32.2380732],[-58.1346513,-32.2380488],[-58.1346653,-32.2380196],[-58.1346907,-32.2379952],[-58.1347243,-32.2379709],[-58.1347482,-32.2379564],[-58.1347738,-32.2379413],[-58.1348002,-32.2379241],[-58.1348258,-32.2379089],[-58.1348473,-32.2378936],[-58.1348753,-32.2378792],[-58.1349041,-32.2378628],[-58.134928,-32.2378482],[-58.1349595,-32.2378257],[-58.1349869,-32.237803],[-58.1350134,-32.2377858],[-58.1350429,-32.2377615],[-58.1350714,-32.2377426],[-58.1351075,-32.2377377],[-58.1351164,-32.2377401],[-58.1351368,-32.2377456],[-58.1351424,-32.2377705],[-58.135126,-32.2378116],[-58.1351128,-32.2378329],[-58.1350968,-32.237851],[-58.1350808,-32.2378692],[-58.1350659,-32.2378911],[-58.1350497,-32.2379161],[-58.1350338,-32.2379436],[-58.1350184,-32.23797],[-58.1350038,-32.2379943],[-58.1349842,-32.238024],[-58.1349762,-32.2380458],[-58.1350135,-32.238054],[-58.1350385,-32.2380432],[-58.1350679,-32.238035],[-58.1351074,-32.2380254],[-58.1351266,-32.238023],[-58.1351577,-32.2380191],[-58.1352108,-32.2380125],[-58.1352568,-32.2380037],[-58.1352975,-32.2379944],[-58.1353391,-32.237983],[-58.1353802,-32.2379727],[-58.1354174,-32.2379623],[-58.1354537,-32.2379505],[-58.1354893,-32.2379373],[-58.1355187,-32.2379291],[-58.1355641,-32.237912],[-58.1355935,-32.2379038],[-58.1356221,-32.2378942],[-58.1356524,-32.2378806],[-58.1356822,-32.2378713],[-58.1357197,-32.2378633],[-58.135754,-32.2378532],[-58.1358074,-32.2378363],[-58.1358401,-32.2378268],[-58.1358677,-32.2378227],[-58.1358998,-32.2378177],[-58.1359273,-32.2378043],[-58.1359491,-32.2377914],[-58.1359747,-32.2377763],[-58.13599,-32.2377681],[-58.1360048,-32.2377602],[-58.1360379,-32.2377462],[-58.1360667,-32.2377332],[-58.1360939,-32.2377174],[-58.1361142,-32.2377018],[-58.1361489,-32.2376686],[-58.1361665,-32.2376498],[-58.1361958,-32.2376197],[-58.1362256,-32.2375977],[-58.1362461,-32.2375787],[-58.1362686,-32.2375579],[-58.1362927,-32.2375366],[-58.1363193,-32.2375159],[-58.1363425,-32.2375],[-58.1363643,-32.2374872],[-58.1363858,-32.2374719],[-58.1364111,-32.2374543],[-58.1364363,-32.2374368],[-58.1364595,-32.2374209],[-58.1364823,-32.2374025],[-58.1365211,-32.2373788],[-58.1365549,-32.2373604],[-58.1365943,-32.2373415],[-58.1366443,-32.23732],[-58.1366742,-32.2373074],[-58.1367085,-32.2372972],[-58.1367395,-32.2372884],[-58.1367693,-32.2372792],[-58.1367982,-32.237272],[-58.1368422,-32.2372614],[-58.1368769,-32.2372502],[-58.1369115,-32.2372425],[-58.1369417,-32.2372357],[-58.1369681,-32.2372312],[-58.1370065,-32.2372304],[-58.1370493,-32.2372414],[-58.1370726,-32.2372568],[-58.1370779,-32.2372792],[-58.1370817,-32.2373116],[-58.1371272,-32.2373258],[-58.1371576,-32.2373248],[-58.1371994,-32.2373193],[-58.1372669,-32.2373045],[-58.1373333,-32.2372893],[-58.1373668,-32.2372905],[-58.1373952,-32.2373097],[-58.1374166,-32.2373453],[-58.1374361,-32.2373791],[-58.1374491,-32.2373993],[-58.1374657,-32.2374206],[-58.1374951,-32.2374471],[-58.1375202,-32.2374584],[-58.1375637,-32.2374742],[-58.1375994,-32.2374923],[-58.1376462,-32.2375195],[-58.1376885,-32.2375443],[-58.1377266,-32.2375665],[-58.1377619,-32.2375855],[-58.1377988,-32.237604],[-58.1378359,-32.237619],[-58.1378697,-32.2376318],[-58.137896,-32.2376434],[-58.1379287,-32.2376686],[-58.1379578,-32.237702],[-58.1379633,-32.2377056],[-58.1379894,-32.2377233],[-58.1380136,-32.2377366],[-58.1380413,-32.2377545],[-58.1380664,-32.237775],[-58.1380889,-32.2377924],[-58.1381023,-32.2378045],[-58.1388174,-32.2370366],[-58.1395624,-32.2362363],[-58.1403738,-32.2353723],[-58.1415583,-32.2341699],[-58.1423046,-32.2334121],[-58.14305,-32.2326562],[-58.1422169,-32.2320597],[-58.1413497,-32.2314249],[-58.1404939,-32.2308126],[-58.1396515,-32.2302108],[-58.1388174,-32.229615],[-58.1382018,-32.2291752],[-58.137596,-32.2287451],[-58.1368606,-32.2294873],[-58.136119,-32.2302264],[-58.1353795,-32.2309662],[-58.1346743,-32.2316747],[-58.1352614,-32.2321212],[-58.133822,-32.2335381],[-58.1334056,-32.2341036],[-58.132514,-32.2350649],[-58.1316079,-32.2360417],[-58.1303101,-32.2374022]]]}},{"type":"Feature","properties":{"NODO":"124","CODIGO":10,"NOMBRE":"PARQUE"},"geometry":{"type":"Polygon","coordinates":[[[-58.137596,-32.2287451],[-58.1383328,-32.2279863],[-58.1374969,-32.2273727],[-58.136646,-32.2267525],[-58.1357916,-32.2261383],[-58.1353702,-32.2258354],[-58.1349513,-32.2255342],[-58.1340999,-32.224934],[-58.1332512,-32.2243218],[-58.1323971,-32.2237055],[-58.1320724,-32.223495],[-58.1309188,-32.2227469],[-58.1309933,-32.2228321],[-58.1307913,-32.2231238],[-58.1307239,-32.2231827],[-58.1305696,-32.2234334],[-58.1305624,-32.2235525],[-58.1307255,-32.2238123],[-58.1305149,-32.2238345],[-58.130478,-32.2238262],[-58.1300674,-32.2242847],[-58.130105,-32.224302],[-58.1298679,-32.2248435],[-58.1297938,-32.2247899],[-58.1295316,-32.2249677],[-58.1295349,-32.2252341],[-58.1293612,-32.2254634],[-58.1292142,-32.2256024],[-58.1290551,-32.225654],[-58.1288491,-32.2258251],[-58.12868,-32.226078],[-58.1286513,-32.2260937],[-58.128329,-32.2263388],[-58.1281287,-32.2264933],[-58.1280185,-32.2267089],[-58.1279901,-32.2269258],[-58.1282581,-32.2273256],[-58.1280594,-32.227528],[-58.1279174,-32.2277134],[-58.1278258,-32.2280034],[-58.1277635,-32.2282207],[-58.1277415,-32.228293],[-58.127783,-32.228537],[-58.1277978,-32.228608],[-58.1279914,-32.2289103],[-58.1281202,-32.2294088],[-58.1280828,-32.2295631],[-58.1274755,-32.230505],[-58.1274429,-32.2306093],[-58.1267402,-32.2313563],[-58.1265082,-32.2318066],[-58.1263478,-32.2320597],[-58.1261528,-32.2323551],[-58.1260137,-32.2326471],[-58.1258127,-32.2331465],[-58.1257318,-32.2333918],[-58.1256093,-32.2336832],[-58.1254997,-32.2338179],[-58.1252976,-32.2341077],[-58.125039,-32.234469],[-58.124855,-32.2346187],[-58.1246535,-32.2347839],[-58.1244846,-32.2349522],[-58.1246016,-32.2349932],[-58.1248034,-32.2350836],[-58.1248964,-32.235228],[-58.1249815,-32.2353439],[-58.1250803,-32.2353822],[-58.1251101,-32.2353984],[-58.1251616,-32.2354305],[-58.1251805,-32.2354434],[-58.1251961,-32.2354482],[-58.1252065,-32.2354526],[-58.1252406,-32.2354705],[-58.1252489,-32.2354773],[-58.1252756,-32.2354879],[-58.1253088,-32.2354994],[-58.1253346,-32.235512],[-58.1253657,-32.2355251],[-58.125396,-32.2355367],[-58.1253984,-32.2355376],[-58.125425,-32.2355516],[-58.1254515,-32.2355691],[-58.1254735,-32.2355875],[-58.1255031,-32.2356105],[-58.1255372,-32.2356292],[-58.1255623,-32.2356405],[-58.1255897,-32.2356525],[-58.1256148,-32.2356637],[-58.1256579,-32.2356806],[-58.1256962,-32.2356959],[-58.125734,-32.2357123],[-58.1257618,-32.2357267],[-58.125796,-32.2357454],[-58.1258248,-32.2357636],[-58.125851,-32.2357787],[-58.1258765,-32.2357889],[-58.1259208,-32.2358061],[-58.1259628,-32.2358192],[-58.1259963,-32.235833],[-58.1260322,-32.2358476],[-58.1260678,-32.2358691],[-58.126094,-32.2358842],[-58.1261294,-32.2358998],[-58.1261665,-32.2359148],[-58.1261988,-32.2359283],[-58.1262307,-32.2359393],[-58.1262616,-32.2359499],[-58.1262651,-32.2359512],[-58.1262975,-32.2359612],[-58.1263323,-32.235972],[-58.1263674,-32.2359852],[-58.1263982,-32.2359959],[-58.1264241,-32.2360052],[-58.126464,-32.2360199],[-58.1264829,-32.2360264],[-58.126496,-32.2360309],[-58.1265268,-32.2360416],[-58.126565,-32.236057],[-58.1266018,-32.2360696],[-58.1266509,-32.2360883],[-58.1266905,-32.2361005],[-58.1267217,-32.2361102],[-58.1267637,-32.2361233],[-58.1268133,-32.2361375],[-58.1268581,-32.2361503],[-58.126897,-32.2361612],[-58.1269257,-32.2361701],[-58.1269594,-32.2361806],[-58.1269989,-32.2361928],[-58.1270433,-32.2362066],[-58.1270901,-32.2362212],[-58.1271333,-32.2362346],[-58.1271705,-32.2362461],[-58.1272257,-32.2362632],[-58.1272569,-32.2362729],[-58.1275031,-32.2363297],[-58.1276912,-32.2363731],[-58.1279494,-32.2364209],[-58.1279946,-32.2364234],[-58.1280248,-32.2364258],[-58.1280696,-32.2364293],[-58.128106,-32.2364267],[-58.1281357,-32.2364209],[-58.1281751,-32.2364147],[-58.1282133,-32.236408],[-58.1282472,-32.2363989],[-58.1282897,-32.2363855],[-58.1283159,-32.2363751],[-58.1283454,-32.2363635],[-58.1283977,-32.2363462],[-58.1284427,-32.2363301],[-58.1284684,-32.2363208],[-58.1284951,-32.2363094],[-58.1285291,-32.2362934],[-58.128564,-32.2362788],[-58.1285944,-32.2362651],[-58.1286407,-32.2362459],[-58.1286649,-32.2362338],[-58.1286961,-32.2362181],[-58.1287283,-32.2362223],[-58.1287581,-32.2362385],[-58.1287634,-32.2362609],[-58.1287653,-32.2362881],[-58.1287786,-32.2362971],[-58.1288001,-32.2363116],[-58.1288388,-32.236326],[-58.1288748,-32.2363371],[-58.1289036,-32.2363461],[-58.128954,-32.2363617],[-58.128988,-32.2363711],[-58.1290083,-32.2363774],[-58.1290228,-32.2363819],[-58.129048,-32.2363897],[-58.1290728,-32.2363986],[-58.129098,-32.2364064],[-58.1291339,-32.236421],[-58.1291523,-32.2364383],[-58.1291779,-32.2364578],[-58.1292094,-32.2364699],[-58.1292469,-32.2364839],[-58.129267,-32.2365005],[-58.1292845,-32.2365198],[-58.1293195,-32.2365491],[-58.1293416,-32.2365641],[-58.1293653,-32.2365819],[-58.1293898,-32.2365976],[-58.1294107,-32.2366121],[-58.1294462,-32.2366405],[-58.1294658,-32.2366581],[-58.1294878,-32.2366765],[-58.1295086,-32.2366945],[-58.1295319,-32.2367099],[-58.1295697,-32.2367297],[-58.1295981,-32.2367362],[-58.1296242,-32.236742],[-58.1296547,-32.2367596],[-58.1296887,-32.2367944],[-58.1297216,-32.2368381],[-58.1297466,-32.2368782],[-58.1297666,-32.2369075],[-58.1297817,-32.2369261],[-58.1298036,-32.2369479],[-58.1298194,-32.2369713],[-58.1298326,-32.2370008],[-58.1298478,-32.2370287],[-58.1298638,-32.2370579],[-58.1298914,-32.2370792],[-58.1299436,-32.2371],[-58.1300072,-32.2371198],[-58.1300584,-32.2371368],[-58.1301159,-32.2371547],[-58.1301543,-32.2371666],[-58.1301824,-32.2371742],[-58.130209,-32.2371882],[-58.1302237,-32.2372078],[-58.130238,-32.2372284],[-58.1302715,-32.2372642],[-58.130275,-32.237274],[-58.1302844,-32.2373006],[-58.1302844,-32.237326],[-58.1302676,-32.2373682],[-58.1302819,-32.2373888],[-58.1303101,-32.2374022],[-58.1316079,-32.2360417],[-58.132514,-32.2350649],[-58.1334056,-32.2341036],[-58.133822,-32.2335381],[-58.1352614,-32.2321212],[-58.1346743,-32.2316747],[-58.1353795,-32.2309662],[-58.136119,-32.2302264],[-58.1368606,-32.2294873],[-58.137596,-32.2287451]]]}},{"type":"Feature","properties":{"NODO":"125","CODIGO":8,"NOMBRE":"HOSPITAL"},"geometry":{"type":"Polygon","coordinates":[[[-58.1417201,-32.2245956],[-58.1408614,-32.2239759],[-58.1400202,-32.2233689],[-58.1391681,-32.222758],[-58.1383291,-32.2221423],[-58.1374861,-32.2215392],[-58.1366367,-32.2209317],[-58.1357756,-32.2203163],[-58.1349307,-32.2197126],[-58.1340824,-32.2191046],[-58.1325636,-32.2180161],[-58.1324208,-32.2181787],[-58.1322123,-32.2183898],[-58.1320696,-32.2185936],[-58.1318808,-32.2189309],[-58.1316094,-32.2195353],[-58.1313962,-32.219938],[-58.1312502,-32.220342],[-58.1311201,-32.2206827],[-58.1309879,-32.2213733],[-58.1310028,-32.2216573],[-58.1309789,-32.2217088],[-58.1313551,-32.2219703],[-58.1307748,-32.2225824],[-58.1309188,-32.2227469],[-58.1320724,-32.223495],[-58.1323971,-32.2237055],[-58.1332512,-32.2243218],[-58.1340999,-32.224934],[-58.1349513,-32.2255342],[-58.1353702,-32.2258354],[-58.1357916,-32.2261383],[-58.136646,-32.2267525],[-58.1374969,-32.2273727],[-58.1383328,-32.2279863],[-58.139054,-32.2272642],[-58.1397554,-32.2265619],[-58.1404712,-32.2258452],[-58.1411783,-32.2251223],[-58.1417201,-32.2245956]]]}},{"type":"Feature","properties":{"NODO":"126","CODIGO":5,"NOMBRE":"CENTRO"},"geometry":{"type":"Polygon","coordinates":[[[-58.1325636,-32.2180161],[-58.1340824,-32.2191046],[-58.1349307,-32.2197126],[-58.1357756,-32.2203163],[-58.1366367,-32.2209317],[-58.1374861,-32.2215392],[-58.1383291,-32.2221423],[-58.1391681,-32.222758],[-58.1400202,-32.2233689],[-58.1408614,-32.2239759],[-58.1417201,-32.2245956],[-58.1429391,-32.2254664],[-58.1437725,-32.2260618],[-58.1442603,-32.2255715],[-58.14498,-32.2248536],[-58.1457048,-32.2241306],[-58.1464354,-32.2234018],[-58.1455802,-32.2228022],[-58.1449857,-32.2223621],[-58.1443895,-32.2219289],[-58.1435312,-32.2213013],[-58.142698,-32.2206847],[-58.141848,-32.2200777],[-58.1410053,-32.2194378],[-58.1401654,-32.2188311],[-58.1393163,-32.2182177],[-58.1384706,-32.2176097],[-58.1376349,-32.2169861],[-58.1367898,-32.2163554],[-58.1355687,-32.2154441],[-58.1352196,-32.2156752],[-58.1344887,-32.2160828],[-58.1344563,-32.2161055],[-58.134416,-32.2161272],[-58.1340398,-32.2165178],[-58.1338372,-32.2167988],[-58.1337714,-32.2168453],[-58.1337381,-32.2169189],[-58.1334357,-32.2167147],[-58.1333338,-32.2168766],[-58.1328478,-32.217623],[-58.13272,-32.2177963],[-58.1326369,-32.2179328],[-58.1325636,-32.2180161]]]}}]}