{"type":"FeatureCollection","features":[{"type":"Feature","properties":{},"geometry":{"type":"Point","coordinates":[-58.14111150363421,-32.222110758984556]}},{"type":"Feature","properties":{},"geometry":{"type":"Point","coordinates":[-58.14193785656173,-32.22146304400208]}},{"type":"Feature","properties":{},"geometry":{"type":"Point","coordinates":[-58.142699617430985,-32.22071057468673]}},{"type":"Feature","properties":{},"geometry":{"type":"Point","coordinates":[-58.14338902083934,-32.220028668148856]}},{"type":"Feature","properties":{},"geometry":{"type":"Point","coordinates":[-58.14580744579555,-32.22052952014895]}},{"type":"Feature","properties":{},"geometry":{"type":"Point","coordinates":[-58.147013744759555,-32.22140802884565]}},{"type":"Feature","properties":{},"geometry":{"type":"Point","coordinates":[-58.14630562798228,-32.222109723113654]}},{"type":"Feature","properties":{},"geometry":{"type":"Point","coordinates":[-58.14510282227971,-32.221244503221065]}},{"type":"Feature","properties":{},"geometry":{"type":"Point","coordinates":[-58.145706769507754,-32.224105841964736]}},{"type":"Feature","properties":{},"geometry":{"type":"Point","coordinates":[-58.14486168260668,-32.22352703613776]}},{"type":"Feature","properties":{},"geometry":{"type":"Point","coordinates":[-58.14364911352818,-32.222661388642024]}},{"type":"Feature","properties":{},"geometry":{"type":"Point","coordinates":[-58.14278947367561,-32.22204328101862]}},{"type":"Feature","properties":{},"geometry":{"type":"Point","coordinates":[-58.14207281331512,-32.22276950138632]}},{"type":"Feature","properties":{},"geometry":{"type":"Point","coordinates":[-58.14292933033176,-32.22338269942982]}},{"type":"Feature","properties":{},"geometry":{"type":"Point","coordinates":[-58.14343857356014,-32.223744225095295]}},{"type":"Feature","properties":{},"geometry":{"type":"Point","coordinates":[-58.14417198197115,-32.22421281346084]}},{"type":"Feature","properties":{},"geometry":{"type":"Point","coordinates":[-58.1403715911155,-32.22156161852364]}},{"type":"Feature","properties":{},"geometry":{"type":"Point","coordinates":[-58.13951809656236,-32.22095063006339]}},{"type":"Feature","properties":{},"geometry":{"type":"Point","coordinates":[-58.13866769670524,-32.220334064761836]}},{"type":"Feature","properties":{},"geometry":{"type":"Point","coordinates":[-58.13854279339411,-32.21900047066864]}},{"type":"Feature","properties":{},"geometry":{"type":"Point","coordinates":[-58.13932385591532,-32.21962615851764]}},{"type":"Feature","properties":{},"geometry":{"type":"Point","coordinates":[-58.1402357269619,-32.220214512001455]}},{"type":"Feature","properties":{},"geometry":{"type":"Point","coordinates":[-58.142544529348,-32.219373591471886]}},{"type":"Feature","properties":{},"geometry":{"type":"Point","coordinates":[-58.13931039753791,-32.218233727540195]}},{"type":"Feature","properties":{},"geometry":{"type":"Point","coordinates":[-58.140167541294474,-32.21886319008017]}},{"type":"Feature","properties":{},"geometry":{"type":"Point","coordinates":[-58.14109250144876,-32.22082580533445]}},{"type":"Feature","properties":{},"geometry":{"type":"Point","coordinates":[-58.14122497208124,-32.222161032441036]}},{"type":"Feature","properties":{},"geometry":{"type":"Point","coordinates":[-58.14232549121878,-32.21804401652699]}},{"type":"Feature","properties":{},"geometry":{"type":"Point","coordinates":[-58.139902174492335,-32.22054517165155]}},{"type":"Feature","properties":{},"geometry":{"type":"Point","coordinates":[-58.13891191958785,-32.22003207048858]}},{"type":"Feature","properties":{},"geometry":{"type":"Point","coordinates":[-58.1389743052457,-32.2200845056748]}},{"type":"Feature","properties":{},"geometry":{"type":"Point","coordinates":[-58.139610075669296,-32.22094309463142]}},{"type":"Feature","properties":{},"geometry":{"type":"Point","coordinates":[-58.139629396191346,-32.22089640662879]}},{"type":"Feature","properties":{},"geometry":{"type":"Point","coordinates":[-58.13526363269727,-32.21789491266349]}},{"type":"Feature","properties":{},"geometry":{"type":"Point","coordinates":[-58.13611449251139,-32.21850853164716]}},{"type":"Feature","properties":{},"geometry":{"type":"Point","coordinates":[-58.136976579362916,-32.21911200553367]}},{"type":"Feature","properties":{},"geometry":{"type":"Point","coordinates":[-58.13782039390301,-32.21972117294982]}},{"type":"Feature","properties":{},"geometry":{"type":"Point","coordinates":[-58.13854438958795,-32.21900072859232]}},{"type":"Feature","properties":{},"geometry":{"type":"Point","coordinates":[-58.13768995218771,-32.2183919594138]}},{"type":"Feature","properties":{},"geometry":{"type":"Point","coordinates":[-58.1368323472989,-32.21778253389573]}},{"type":"Feature","properties":{},"geometry":{"type":"Point","coordinates":[-58.13598958136882,-32.217163178833076]}},{"type":"Feature","properties":{},"geometry":{"type":"Point","coordinates":[-58.13767406925486,-32.21699739216673]}},{"type":"Feature","properties":{},"geometry":{"type":"Point","coordinates":[-58.139958467795225,-32.21756058047655]}},{"type":"Feature","properties":{},"geometry":{"type":"Point","coordinates":[-58.13828543855222,-32.21636475284565]}},{"type":"Feature","properties":{},"geometry":{"type":"Point","coordinates":[-58.13951783277038,-32.22388275169984]}},{"type":"Feature","properties":{},"geometry":{"type":"Point","coordinates":[-58.141346842208854,-32.22227583843718]}},{"type":"Feature","properties":{},"geometry":{"type":"Point","coordinates":[-58.144105447570475,-32.22428749710105]}},{"type":"Feature","properties":{},"geometry":{"type":"Point","coordinates":[-58.14342454964039,-32.22497951203058]}},{"type":"Feature","properties":{},"geometry":{"type":"Point","coordinates":[-58.14289453448593,-32.22458921796924]}},{"type":"Feature","properties":{},"geometry":{"type":"Point","coordinates":[-58.14175952320466,-32.22380175965741]}},{"type":"Feature","properties":{},"geometry":{"type":"Point","coordinates":[-58.14156362171807,-32.223666517279185]}},{"type":"Feature","properties":{},"geometry":{"type":"Point","coordinates":[-58.141360840651764,-32.22349255864019]}},{"type":"Feature","properties":{},"geometry":{"type":"Point","coordinates":[-58.14050743319144,-32.22288235312459]}},{"type":"Feature","properties":{},"geometry":{"type":"Point","coordinates":[-58.140014405055524,-32.22337717906793]}},{"type":"Feature","properties":{},"geometry":{"type":"Point","coordinates":[-58.14086516590837,-32.22398198455025]}},{"type":"Feature","properties":{},"geometry":{"type":"Point","coordinates":[-58.14171020000257,-32.22458679043714]}},{"type":"Feature","properties":{},"geometry":{"type":"Point","coordinates":[-58.142938017092376,-32.22545864906237]}},{"type":"Feature","properties":{},"geometry":{"type":"Point","coordinates":[-58.14242067698399,-32.22601395665213]}},{"type":"Feature","properties":{},"geometry":{"type":"Point","coordinates":[-58.13963507247422,-32.22522216395285]}},{"type":"Feature","properties":{},"geometry":{"type":"Point","coordinates":[-58.142523609973324,-32.227308005267126]}},{"type":"Feature","properties":{},"geometry":{"type":"Point","coordinates":[-58.13747394986055,-32.221540508457736]}},{"type":"Feature","properties":{},"geometry":{"type":"Point","coordinates":[-58.13831843570856,-32.22214815012005]}},{"type":"Feature","properties":{},"geometry":{"type":"Point","coordinates":[-58.139167596547935,-32.22276113844823]}},{"type":"Feature","properties":{},"geometry":{"type":"Point","coordinates":[-58.139657668779805,-32.22226932864438]}},{"type":"Feature","properties":{},"geometry":{"type":"Point","coordinates":[-58.138811664203885,-32.22165556063168]}},{"type":"Feature","properties":{},"geometry":{"type":"Point","coordinates":[-58.13795876483199,-32.22104395754069]}},{"type":"Feature","properties":{},"geometry":{"type":"Point","coordinates":[-58.13695789944552,-32.22208777963317]}},{"type":"Feature","properties":{},"geometry":{"type":"Point","coordinates":[-58.13867047233857,-32.22326615868342]}},{"type":"Feature","properties":{},"geometry":{"type":"Point","coordinates":[-58.13978969748488,-32.22220452818999]}},{"type":"Feature","properties":{},"geometry":{"type":"Point","coordinates":[-58.14001892607538,-32.22197590731779]}},{"type":"Feature","properties":{},"geometry":{"type":"Point","coordinates":[-58.14004542291945,-32.22194815894338]}},{"type":"Feature","properties":{},"geometry":{"type":"Point","coordinates":[-58.140331124689176,-32.22165403024504]}},{"type":"Feature","properties":{},"geometry":{"type":"Point","coordinates":[-58.14028399737964,-32.22155741732284]}},{"type":"Feature","properties":{},"geometry":{"type":"Point","coordinates":[-58.132843852717606,-32.22036186443001]}},{"type":"Feature","properties":{},"geometry":{"type":"Point","coordinates":[-58.133702863559556,-32.2209412157125]}},{"type":"Feature","properties":{},"geometry":{"type":"Point","coordinates":[-58.13537326147779,-32.222170739078415]}},{"type":"Feature","properties":{},"geometry":{"type":"Point","coordinates":[-58.1360921822001,-32.2214628751964]}},{"type":"Feature","properties":{},"geometry":{"type":"Point","coordinates":[-58.134410892821045,-32.220229287639924]}},{"type":"Feature","properties":{},"geometry":{"type":"Point","coordinates":[-58.13357242095846,-32.219619617810665]}},{"type":"Feature","properties":{},"geometry":{"type":"Point","coordinates":[-58.13407223437802,-32.219106326677874]}},{"type":"Feature","properties":{},"geometry":{"type":"Point","coordinates":[-58.13491801410226,-32.21971280126943]}},{"type":"Feature","properties":{},"geometry":{"type":"Point","coordinates":[-58.1357682254852,-32.22032094058813]}},{"type":"Feature","properties":{},"geometry":{"type":"Point","coordinates":[-58.13661612147291,-32.22092667809592]}},{"type":"Feature","properties":{},"geometry":{"type":"Point","coordinates":[-58.1371182109351,-32.220435497090385]}},{"type":"Feature","properties":{},"geometry":{"type":"Point","coordinates":[-58.13626789807781,-32.21981831327078]}},{"type":"Feature","properties":{},"geometry":{"type":"Point","coordinates":[-58.13542621651022,-32.21920593049103]}},{"type":"Feature","properties":{},"geometry":{"type":"Point","coordinates":[-58.13542657981512,-32.21923228908363]}},{"type":"Feature","properties":{},"geometry":{"type":"Point","coordinates":[-58.134572249184075,-32.218589646427965]}},{"type":"Feature","properties":{},"geometry":{"type":"Point","coordinates":[-58.13371825623533,-32.218051469430954]}},{"type":"Feature","properties":{},"geometry":{"type":"Point","coordinates":[-58.135470223147614,-32.21930496038988]}},{"type":"Feature","properties":{},"geometry":{"type":"Point","coordinates":[-58.147536311339266,-32.226738117949814]}},{"type":"Feature","properties":{},"geometry":{"type":"Point","coordinates":[-58.14598722821214,-32.22681101044398]}},{"type":"Feature","properties":{},"geometry":{"type":"Point","coordinates":[-58.14509571159148,-32.22617792542879]}},{"type":"Feature","properties":{},"geometry":{"type":"Point","coordinates":[-58.14487132138413,-32.230862941689935]}},{"type":"Feature","properties":{},"geometry":{"type":"Point","coordinates":[-58.144537867743175,-32.23119849160647]}},{"type":"Feature","properties":{},"geometry":{"type":"Point","coordinates":[-58.1441851895674,-32.23155813696979]}},{"type":"Feature","properties":{},"geometry":{"type":"Point","coordinates":[-58.1490131565196,-32.22525296214654]}},{"type":"Feature","properties":{},"geometry":{"type":"Point","coordinates":[-58.14983885224809,-32.225854934297146]}},{"type":"Feature","properties":{},"geometry":{"type":"Point","coordinates":[-58.14973240204433,-32.2245555813579]}},{"type":"Feature","properties":{},"geometry":{"type":"Point","coordinates":[-58.14829537896081,-32.22597834519087]}},{"type":"Feature","properties":{},"geometry":{"type":"Point","coordinates":[-58.14815139044614,-32.2246299992268]}},{"type":"Feature","properties":{},"geometry":{"type":"Point","coordinates":[-58.14886296549826,-32.2239170938681]}},{"type":"Feature","properties":{},"geometry":{"type":"Point","coordinates":[-58.14956679160427,-32.223208136847404]}},{"type":"Feature","properties":{},"geometry":{"type":"Point","coordinates":[-58.14714074556283,-32.222699327363664]}},{"type":"Feature","properties":{},"geometry":{"type":"Point","coordinates":[-58.14643860054232,-32.22343448623529]}}]}