{"type":"FeatureCollection","features":[{"type":"Feature","properties":{},"geometry":{"type":"Polygon","coordinates":[[[-58.3100022,-32.2515458],[-58.3081451,-32.2562766],[-58.3044993,-32.2652231],[-58.3044298,-32.2654557],[-58.3026307,-32.2699242],[-58.3009287,-32.2742119],[-58.300717,-32.2745608],[-58.2989516,-32.2791344],[-58.2980038,-32.2814587],[-58.2978146,-32.2820383],[-58.2972046,-32.2836112],[-58.2971703,-32.2836973],[-58.2916091,-32.2820573],[-58.2908106,-32.2841898],[-58.2854351,-32.2826398],[-58.2850045,-32.2836784],[-58.2747647,-32.2840155],[-58.2627821,-32.2792632],[-58.2576598,-32.2772364],[-58.2572487,-32.2780961],[-58.2574074,-32.2799766],[-58.257502,-32.2802604],[-58.2576168,-32.2805948],[-58.257942,-32.2812351],[-58.2580125,-32.2814052],[-58.2580792,-32.2817731],[-58.2580682,-32.2819488],[-58.2580293,-32.2821814],[-58.2580187,-32.2824855],[-58.2576837,-32.2829413],[-58.2573959,-32.2829813],[-58.2569384,-32.2834927],[-58.2572084,-32.284441],[-58.2573733,-32.284753],[-58.2575713,-32.2853021],[-58.2575733,-32.2856496],[-58.2575774,-32.2863425],[-58.2587698,-32.2875076],[-58.2587334,-32.2876865],[-58.2575332,-32.2883378],[-58.2581496,-32.2891745],[-58.2591471,-32.2900581],[-58.2585343,-32.2904211],[-58.2580709,-32.2912537],[-58.2589726,-32.291433],[-58.2592604,-32.2918573],[-58.2601513,-32.2922792],[-58.2600697,-32.2926716],[-58.2599232,-32.2929819],[-58.2595585,-32.293754],[-58.2597635,-32.2937923],[-58.259709,-32.2938789],[-58.2596349,-32.2939323],[-58.2595348,-32.2940405],[-58.2594169,-32.2942288],[-58.2593452,-32.2944076],[-58.2593082,-32.294503],[-58.2592789,-32.2945992],[-58.2591993,-32.294744],[-58.2591286,-32.2947892],[-58.2590627,-32.2948951],[-58.2589822,-32.2950423],[-58.258825,-32.2952155],[-58.2587813,-32.2952269],[-58.2585862,-32.2952839],[-58.2584017,-32.2953288],[-58.258172,-32.295371],[-58.2579943,-32.295425],[-58.2579064,-32.2954744],[-58.2577958,-32.2956137],[-58.2577491,-32.2957264],[-58.2577047,-32.2958317],[-58.2576332,-32.2960483],[-58.2576008,-32.2961508],[-58.2575782,-32.2962251],[-58.2575506,-32.2964055],[-58.257527,-32.2965409],[-58.2575305,-32.2966187],[-58.2574895,-32.2968451],[-58.2574309,-32.2969826],[-58.2573658,-32.2971279],[-58.2573333,-32.2972612],[-58.2573047,-32.2974185],[-58.2572517,-32.2975544],[-58.2571912,-32.2976668],[-58.2570655,-32.2977799],[-58.2568257,-32.298023],[-58.256759,-32.2980879],[-58.2566646,-32.298188],[-58.2564971,-32.2983391],[-58.2564382,-32.2984243],[-58.2562518,-32.2986171],[-58.2561569,-32.2987089],[-58.2560866,-32.2988118],[-58.2559269,-32.2989087],[-58.2556956,-32.2990744],[-58.2552038,-32.2992575],[-58.2549729,-32.2994664],[-58.2547343,-32.2995636],[-58.2546803,-32.2995899],[-58.2544563,-32.2997105],[-58.2541918,-32.2998935],[-58.2540817,-32.3000199],[-58.2539914,-32.3001789],[-58.2539292,-32.3002936],[-58.2538729,-32.3004295],[-58.2538129,-32.3005704],[-58.253808,-32.3006978],[-58.2537432,-32.300866],[-58.2536529,-32.3010152],[-58.2536037,-32.3011299],[-58.2535052,-32.3012832],[-58.2533936,-32.3013483],[-58.2533469,-32.3014061],[-58.2532941,-32.3014865],[-58.2531877,-32.301594],[-58.2530238,-32.3017206],[-58.2528226,-32.3018295],[-58.2525905,-32.3019597],[-58.2523065,-32.3020923],[-58.2505181,-32.301751],[-58.2496184,-32.3014952],[-58.2479217,-32.3011841],[-58.2477886,-32.3013443],[-58.2497121,-32.3037709],[-58.2498641,-32.3040665],[-58.2498143,-32.30413],[-58.2497465,-32.3041906],[-58.2496797,-32.3043087],[-58.2496331,-32.3044168],[-58.2495796,-32.3046752],[-58.2495997,-32.3048666],[-58.2496089,-32.3050165],[-58.2496158,-32.3051793],[-58.2496163,-32.3053047],[-58.249596,-32.3054264],[-58.2495724,-32.3055035],[-58.2495331,-32.3055947],[-58.2493901,-32.3057109],[-58.249341,-32.3057801],[-58.2492473,-32.305849],[-58.2491078,-32.3058602],[-58.2489894,-32.3058969],[-58.2487217,-32.3060643],[-58.2485677,-32.306139],[-58.2484321,-32.3061785],[-58.2482794,-32.3062428],[-58.2481978,-32.306261],[-58.2480064,-32.3063155],[-58.2479285,-32.3063353],[-58.2478024,-32.3063751],[-58.2476798,-32.3064214],[-58.2475622,-32.3064339],[-58.2475092,-32.3064528],[-58.2473848,-32.3065258],[-58.2473527,-32.3066003],[-58.2472224,-32.3066796],[-58.2471093,-32.3067561],[-58.2469913,-32.3068365],[-58.2469505,-32.3069164],[-58.246906,-32.3070197],[-58.2468777,-32.3071226],[-58.2468831,-32.307274],[-58.2468441,-32.3074389],[-58.2468235,-32.3075686],[-58.2467715,-32.3076968],[-58.2467231,-32.3079432],[-58.2466545,-32.3081696],[-58.2466281,-32.3082458],[-58.2465984,-32.3083891],[-58.2465482,-32.3085505],[-58.2464902,-32.3087149],[-58.246445,-32.3088942],[-58.2463737,-32.30903],[-58.2463058,-32.3091505],[-58.2462417,-32.3092994],[-58.2461751,-32.3094911],[-58.2461573,-32.3096517],[-58.2461333,-32.3097967],[-58.2460995,-32.3099795],[-58.2460929,-32.3100319],[-58.2460791,-32.3102128],[-58.2460744,-32.3102685],[-58.2460624,-32.3104527],[-58.246057,-32.3105844],[-58.2460494,-32.3107509],[-58.2460216,-32.3109792],[-58.2459802,-32.3111052],[-58.2459655,-32.3112286],[-58.2459705,-32.3113064],[-58.2459706,-32.3113582],[-58.2459556,-32.3115196],[-58.2459646,-32.3116476],[-58.2459883,-32.311734],[-58.2460517,-32.3118326],[-58.2461123,-32.3119821],[-58.2461513,-32.3120524],[-58.2461981,-32.3121776],[-58.2462468,-32.3122581],[-58.2462942,-32.3123191],[-58.2465347,-32.3122978],[-58.2465202,-32.312539],[-58.2465797,-32.3126093],[-58.2466266,-32.3126865],[-58.2466832,-32.3128157],[-58.2466997,-32.3129188],[-58.246666,-32.3130118],[-58.2465356,-32.313151],[-58.2464327,-32.3132335],[-58.24629,-32.3133117],[-58.2461397,-32.313363],[-58.2457763,-32.3134026],[-58.2457161,-32.3134084],[-58.24557,-32.3133603],[-58.2455022,-32.3133393],[-58.2454757,-32.3133338],[-58.2452841,-32.3133096],[-58.2451785,-32.3133313],[-58.2450202,-32.3133638],[-58.2448444,-32.3134372],[-58.244664,-32.3135582],[-58.2445183,-32.3136954],[-58.2444924,-32.313897],[-58.2444904,-32.3139835],[-58.2443782,-32.3141175],[-58.244319,-32.3141508],[-58.244252,-32.3141872],[-58.2440618,-32.314316],[-58.2439271,-32.314413],[-58.2437595,-32.3144671],[-58.2436107,-32.31447],[-58.2434311,-32.3145149],[-58.2433137,-32.3145492],[-58.2431517,-32.3146051],[-58.2430167,-32.3146564],[-58.2428497,-32.3147182],[-58.2427173,-32.3147724],[-58.2425963,-32.3148301],[-58.2424525,-32.3149107],[-58.2422415,-32.3150358],[-58.2420926,-32.3151284],[-58.2418744,-32.3152703],[-58.2417834,-32.3153401],[-58.2416706,-32.3154085],[-58.2415469,-32.3154872],[-58.2414173,-32.3155722],[-58.2413642,-32.315621],[-58.2412661,-32.3157594],[-58.2411858,-32.3158788],[-58.2411059,-32.3160418],[-58.2410518,-32.3162047],[-58.2410487,-32.3163236],[-58.2410392,-32.316435],[-58.2410551,-32.3165842],[-58.2410408,-32.3167514],[-58.2410237,-32.3169176],[-58.2409553,-32.3172476],[-58.2408592,-32.3174111],[-58.240829,-32.3174589],[-58.2407854,-32.317508],[-58.2407279,-32.3175745],[-58.2406172,-32.3177199],[-58.2405506,-32.3178299],[-58.2404501,-32.3179811],[-58.2404163,-32.3180523],[-58.2401873,-32.3185094],[-58.2400702,-32.318729],[-58.2400375,-32.3187678],[-58.2399281,-32.3189027],[-58.2398736,-32.3189919],[-58.239791,-32.3190943],[-58.2396753,-32.3191918],[-58.2395663,-32.3192586],[-58.2394171,-32.3193593],[-58.2392494,-32.3194434],[-58.2390872,-32.3195074],[-58.238926,-32.3195689],[-58.2386823,-32.319673],[-58.2383509,-32.3198096],[-58.2381882,-32.3199415],[-58.2381021,-32.3200373],[-58.2379863,-32.3201647],[-58.2379149,-32.3203005],[-58.2378583,-32.3204245],[-58.2377783,-32.3205059],[-58.2377317,-32.3205622],[-58.2376151,-32.3206839],[-58.2374727,-32.3208357],[-58.2373435,-32.3209644],[-58.2372089,-32.3210832],[-58.237092,-32.321243],[-58.2369693,-32.3213931],[-58.2368727,-32.3214708],[-58.2367869,-32.3215816],[-58.2367494,-32.321711],[-58.2367209,-32.3219279],[-58.2367013,-32.3220239],[-58.236683,-32.3220821],[-58.2366133,-32.3222397],[-58.2365282,-32.3224323],[-58.2364378,-32.3226221],[-58.236418,-32.3227188],[-58.2363907,-32.3228788],[-58.236375,-32.3230481],[-58.2363629,-32.3231905],[-58.2363324,-32.3233298],[-58.2362738,-32.3234717],[-58.2361979,-32.3236639],[-58.2361431,-32.3237342],[-58.2359962,-32.3238572],[-58.2358375,-32.3240012],[-58.235722,-32.3240548],[-58.2355056,-32.3240642],[-58.2353073,-32.3240903],[-58.2349777,-32.3240982],[-58.2346885,-32.3240274],[-58.2344971,-32.3240129],[-58.2341854,-32.3240492],[-58.2338792,-32.3240584],[-58.2336319,-32.3240579],[-58.2333436,-32.3240707],[-58.2330902,-32.3240563],[-58.2328784,-32.3238979],[-58.2326534,-32.3240157],[-58.2323709,-32.3239504],[-58.2320629,-32.3238517],[-58.23183,-32.3237781],[-58.2316767,-32.3236799],[-58.2315656,-32.3236106],[-58.2313371,-32.3235175],[-58.2312036,-32.3234711],[-58.2311253,-32.3234275],[-58.2309247,-32.3233346],[-58.2307452,-32.3232697],[-58.2305579,-32.3232281],[-58.2303017,-32.3231903],[-58.230088,-32.3232198],[-58.2298553,-32.3232716],[-58.2296614,-32.3233359],[-58.2295571,-32.3234457],[-58.229369,-32.3235266],[-58.2292769,-32.3235903],[-58.2292107,-32.3236975],[-58.2291106,-32.3238053],[-58.2289632,-32.3239923],[-58.2288819,-32.3240557],[-58.228795,-32.3242209],[-58.2286777,-32.3243862],[-58.2285537,-32.32455],[-58.2284114,-32.3246921],[-58.2282434,-32.3249257],[-58.228147,-32.3250308],[-58.2280702,-32.325134],[-58.2279672,-32.3252596],[-58.2279284,-32.3253475],[-58.2278466,-32.3255324],[-58.2277645,-32.3257089],[-58.2276298,-32.3258227],[-58.2274834,-32.3259388],[-58.227347,-32.3260658],[-58.2272521,-32.3261917],[-58.2271578,-32.3263715],[-58.2270929,-32.3264554],[-58.2270295,-32.3266396],[-58.2270286,-32.3267325],[-58.2270696,-32.3268771],[-58.2271548,-32.3271124],[-58.2272026,-32.3272268],[-58.2273174,-32.3274048],[-58.2275016,-32.3275758],[-58.2276984,-32.3276626],[-58.2278232,-32.3277418],[-58.2279132,-32.3278423],[-58.2280486,-32.3280569],[-58.2280742,-32.3281621],[-58.228057,-32.3282585],[-58.2279148,-32.3284077],[-58.2277329,-32.3285634],[-58.2275232,-32.3287301],[-58.2273168,-32.3288281],[-58.2271648,-32.3289199],[-58.2269329,-32.3290904],[-58.2266468,-32.3293039],[-58.2264966,-32.3294676],[-58.2264055,-32.3296588],[-58.2263444,-32.3299139],[-58.226348,-32.3301227],[-58.2263545,-32.330488],[-58.2262916,-32.330697],[-58.2260804,-32.3308023],[-58.2257152,-32.3307385],[-58.2256329,-32.3305836],[-58.2255967,-32.330417],[-58.225562,-32.3302547],[-58.2255257,-32.3301253],[-58.2253052,-32.3299977],[-58.2246025,-32.3300059],[-58.2243867,-32.3299026],[-58.2241553,-32.3297735],[-58.223935,-32.3296546],[-58.2237766,-32.3295866],[-58.2234636,-32.3294233],[-58.22326,-32.3292795],[-58.2230455,-32.3291306],[-58.222744,-32.3288581],[-58.2226227,-32.3286857],[-58.2225396,-32.3285343],[-58.2225347,-32.3283229],[-58.2226081,-32.3281069],[-58.2226516,-32.3278676],[-58.2226736,-32.3276379],[-58.2226547,-32.3273655],[-58.222557,-32.3270824],[-58.2224646,-32.3268206],[-58.2223626,-32.3266582],[-58.2221568,-32.3265307],[-58.2219591,-32.3264699],[-58.2216998,-32.3263873],[-58.2215076,-32.32624],[-58.2214168,-32.3261321],[-58.2212353,-32.3260031],[-58.2210424,-32.3258835],[-58.2208071,-32.3257483],[-58.2206389,-32.3255746],[-58.2204965,-32.3254482],[-58.2204227,-32.3254093],[-58.2202954,-32.3253468],[-58.2202039,-32.3252239],[-58.2201358,-32.3251425],[-58.2199549,-32.3250493],[-58.2198442,-32.3249329],[-58.2198258,-32.3248372],[-58.2197979,-32.3247428],[-58.2196729,-32.324601],[-58.219642,-32.3244838],[-58.2196017,-32.3243877],[-58.2195567,-32.3242818],[-58.2195166,-32.3241315],[-58.2194829,-32.3240112],[-58.2193204,-32.3238301],[-58.2192404,-32.3237257],[-58.2191818,-32.3236505],[-58.2190448,-32.3235806],[-58.2189792,-32.3235657],[-58.218753,-32.323601],[-58.2185401,-32.3236082],[-58.2182161,-32.3235866],[-58.2178755,-32.3235323],[-58.2177482,-32.3233958],[-58.2177017,-32.3231541],[-58.2176861,-32.3227409],[-58.2176652,-32.3225694],[-58.2176404,-32.3222902],[-58.2175868,-32.3221296],[-58.2175143,-32.3219728],[-58.2172496,-32.3216095],[-58.2169616,-32.3213566],[-58.2166386,-32.32108],[-58.2164414,-32.3207659],[-58.216455,-32.3205816],[-58.2164902,-32.3203853],[-58.2165697,-32.3201393],[-58.2166266,-32.3199673],[-58.2166551,-32.3198003],[-58.216747,-32.3195297],[-58.2167066,-32.3192154],[-58.2166587,-32.3188422],[-58.2164229,-32.3184352],[-58.2162225,-32.3182331],[-58.2159887,-32.31803],[-58.2158383,-32.317977],[-58.2154564,-32.3178584],[-58.2152293,-32.3177362],[-58.2150843,-32.3175934],[-58.2150029,-32.317402],[-58.2148786,-32.3171296],[-58.2147746,-32.3168386],[-58.2147184,-32.3165591],[-58.2147409,-32.3163423],[-58.2147398,-32.3162021],[-58.214748,-32.3160806],[-58.2144917,-32.3157874],[-58.2141916,-32.3154067],[-58.2140735,-32.3153331],[-58.2139653,-32.3151852],[-58.2138178,-32.3150252],[-58.2137036,-32.3148622],[-58.2136385,-32.3147523],[-58.2135136,-32.3146473],[-58.2134179,-32.3145443],[-58.2132928,-32.3143751],[-58.2132305,-32.3142521],[-58.2131741,-32.3140871],[-58.2131374,-32.3140121],[-58.2130823,-32.3138671],[-58.2129906,-32.3137085],[-58.2129191,-32.3136118],[-58.2128896,-32.3135207],[-58.2128345,-32.3133605],[-58.2127733,-32.3132704],[-58.2127167,-32.3131924],[-58.2126404,-32.3130888],[-58.2123421,-32.3129405],[-58.2121291,-32.3128631],[-58.2118988,-32.3127548],[-58.2116912,-32.3126019],[-58.2113711,-32.3124765],[-58.2112378,-32.3124349],[-58.2110276,-32.3123776],[-58.2108671,-32.3123467],[-58.2106728,-32.3123271],[-58.2105019,-32.3123203],[-58.2102918,-32.3123413],[-58.2102216,-32.3123343],[-58.2099715,-32.3122951],[-58.209754,-32.3122772],[-58.2095655,-32.3122821],[-58.2094683,-32.312283],[-58.2092613,-32.3123005],[-58.2090833,-32.3123221],[-58.2089458,-32.3123305],[-58.2086627,-32.312345],[-58.2085222,-32.3123413],[-58.2083545,-32.3123378],[-58.2081809,-32.3123132],[-58.2080155,-32.3122827],[-58.2078534,-32.3122294],[-58.2077107,-32.3121712],[-58.2075313,-32.3121181],[-58.2073103,-32.3120878],[-58.2071727,-32.3120616],[-58.2070641,-32.3120519],[-58.2067988,-32.312014],[-58.2065336,-32.3119571],[-58.2063178,-32.3118736],[-58.2062072,-32.3118307],[-58.2059878,-32.3117596],[-58.2057883,-32.3116502],[-58.2056452,-32.3115583],[-58.2054952,-32.3114661],[-58.205294,-32.3113409],[-58.2050982,-32.3112533],[-58.2048839,-32.3111503],[-58.2047961,-32.3110992],[-58.2046914,-32.311007],[-58.2045766,-32.3107794],[-58.2044443,-32.3106673],[-58.204305,-32.310593],[-58.2041557,-32.3105112],[-58.204051,-32.3104422],[-58.2039641,-32.3103477],[-58.2038898,-32.3102446],[-58.2038343,-32.3101653],[-58.2037264,-32.3100374],[-58.2036464,-32.3099553],[-58.2035029,-32.3098445],[-58.2033285,-32.3097988],[-58.2031681,-32.3097878],[-58.2029965,-32.3097778],[-58.2028226,-32.309767],[-58.2026208,-32.3097522],[-58.2024741,-32.3097858],[-58.2023351,-32.3098163],[-58.2021855,-32.3098491],[-58.2020203,-32.3098659],[-58.201808,-32.3098572],[-58.2017,-32.3098536],[-58.2015045,-32.3098582],[-58.2013145,-32.3097907],[-58.2012322,-32.3097349],[-58.2011573,-32.3096622],[-58.2010612,-32.3095638],[-58.2009615,-32.3094888],[-58.2008707,-32.3094304],[-58.2007835,-32.3093785],[-58.2006564,-32.3092923],[-58.2005556,-32.3092198],[-58.2004484,-32.3091397],[-58.2003246,-32.3090682],[-58.200226,-32.3090128],[-58.2000844,-32.3089303],[-58.1999956,-32.3088971],[-58.1998386,-32.3088426],[-58.1995952,-32.308742],[-58.1994475,-32.3086959],[-58.1993822,-32.3086755],[-58.1992188,-32.3086135],[-58.1991974,-32.3085959],[-58.199158,-32.3084932],[-58.1991219,-32.3084053],[-58.1990665,-32.3082949],[-58.1989999,-32.3081509],[-58.1989442,-32.3079966],[-58.1989058,-32.3078915],[-58.1988578,-32.3077642],[-58.1988251,-32.3076609],[-58.1988105,-32.3075605],[-58.1988017,-32.3074318],[-58.1987011,-32.3072471],[-58.1986492,-32.3071734],[-58.1985845,-32.3070546],[-58.1985009,-32.3069573],[-58.1984327,-32.306884],[-58.1982929,-32.3068047],[-58.1982188,-32.3067898],[-58.1980608,-32.3067898],[-58.197979,-32.3067999],[-58.1978622,-32.3068017],[-58.1977803,-32.3067898],[-58.1976756,-32.3067708],[-58.1975904,-32.3067442],[-58.1975064,-32.3066851],[-58.1974629,-32.3066442],[-58.1974368,-32.3066224],[-58.1973923,-32.3065838],[-58.1973298,-32.3065643],[-58.1972438,-32.306532],[-58.197134,-32.3063909],[-58.1970875,-32.3063271],[-58.1970374,-32.3062567],[-58.1969785,-32.3061616],[-58.1968818,-32.3060112],[-58.1955283,-32.3061197],[-58.1864487,-32.3128502],[-58.1844516,-32.3108585],[-58.1927455,-32.3047085],[-58.1926367,-32.3046992],[-58.1924478,-32.3046813],[-58.1923162,-32.3046949],[-58.1922049,-32.304621],[-58.1921615,-32.3045234],[-58.1921295,-32.3044559],[-58.1920847,-32.3043954],[-58.1919297,-32.3043661],[-58.1918296,-32.3043814],[-58.1917025,-32.3044293],[-58.1916477,-32.3044068],[-58.1915709,-32.3043609],[-58.1915015,-32.30432],[-58.1914745,-32.3043006],[-58.1914203,-32.3042098],[-58.1913977,-32.3041726],[-58.191311,-32.3041866],[-58.1913052,-32.3042149],[-58.1912804,-32.3042647],[-58.1912358,-32.3042562],[-58.1912017,-32.3042456],[-58.1911353,-32.3042276],[-58.1910767,-32.3042586],[-58.1910606,-32.3042809],[-58.1910354,-32.3043169],[-58.1909575,-32.3043254],[-58.1909284,-32.3043108],[-58.190873,-32.3042525],[-58.1908461,-32.304203],[-58.1908389,-32.3041378],[-58.1908345,-32.3040214],[-58.19083,-32.303905],[-58.1908122,-32.3037899],[-58.1907203,-32.3036818],[-58.1904819,-32.3036292],[-58.1904193,-32.3036398],[-58.1903427,-32.3036679],[-58.1902342,-32.3037025],[-58.1901487,-32.303684],[-58.1901131,-32.3036099],[-58.1900737,-32.3035593],[-58.1900168,-32.3035196],[-58.1899728,-32.3034648],[-58.1899559,-32.3034294],[-58.1899179,-32.3033682],[-58.189864,-32.3033213],[-58.189705,-32.3032716],[-58.1896957,-32.3032638],[-58.1895815,-32.303192],[-58.1895019,-32.3031671],[-58.1894188,-32.3031357],[-58.1893536,-32.3030852],[-58.1893343,-32.3030628],[-58.1893173,-32.3030054],[-58.1893078,-32.302923],[-58.1892983,-32.3027886],[-58.1892837,-32.3027403],[-58.1892217,-32.3026826],[-58.18912,-32.3026344],[-58.1890818,-32.3025513],[-58.1890706,-32.3025176],[-58.1890215,-32.3024448],[-58.1890198,-32.3023594],[-58.1890407,-32.3022591],[-58.1890081,-32.3021257],[-58.1889836,-32.3020633],[-58.1889139,-32.3019785],[-58.1888141,-32.3019193],[-58.1885837,-32.3020561],[-58.1879592,-32.3005963],[-58.1872953,-32.2989703],[-58.1873288,-32.2972275],[-58.1873454,-32.2963599],[-58.1872548,-32.2954615],[-58.187682,-32.2939917],[-58.1871831,-32.2939727],[-58.1848841,-32.2953658],[-58.1812549,-32.2975648],[-58.1803503,-32.297005],[-58.1782176,-32.2956849],[-58.1746389,-32.2947787],[-58.1744984,-32.2947431],[-58.1744219,-32.2948808],[-58.1705492,-32.2939057],[-58.1705772,-32.2938756],[-58.1697885,-32.2910632],[-58.1690873,-32.2886121],[-58.1688144,-32.2876707],[-58.1686453,-32.2874601],[-58.1634018,-32.2883404],[-58.1632743,-32.2884575],[-58.159773,-32.2890574],[-58.1571783,-32.2846888],[-58.1525499,-32.2854212],[-58.1504037,-32.281707],[-58.1481982,-32.2826225],[-58.1446914,-32.2765027],[-58.1445251,-32.2764332],[-58.1424561,-32.2771678],[-58.1423449,-32.2771918],[-58.1382489,-32.2786454],[-58.1379084,-32.2776254],[-58.1370871,-32.2777119],[-58.1366606,-32.2777779],[-58.1363678,-32.2779073],[-58.1361708,-32.2779947],[-58.136004,-32.2780337],[-58.1356502,-32.2781331],[-58.1353919,-32.278228],[-58.1350547,-32.2783301],[-58.134739,-32.2784074],[-58.1343865,-32.2784709],[-58.1341575,-32.2785072],[-58.1338848,-32.2785213],[-58.1335995,-32.2785479],[-58.1333799,-32.2785532],[-58.1330103,-32.2785302],[-58.1327305,-32.2785509],[-58.1323222,-32.2785598],[-58.1320195,-32.2785146],[-58.131773,-32.2785243],[-58.1315108,-32.2785191],[-58.131183,-32.2785335],[-58.1307572,-32.2785224],[-58.1303907,-32.2784765],[-58.129917,-32.2784024],[-58.1296923,-32.2783779],[-58.12924,-32.2784383],[-58.1289221,-32.2784724],[-58.1287273,-32.2785216],[-58.1285468,-32.2785965],[-58.1283331,-32.2787075],[-58.1280357,-32.2788668],[-58.1277112,-32.2789614],[-58.1274959,-32.2788942],[-58.1272921,-32.278798],[-58.1272006,-32.2787638],[-58.1270032,-32.2787308],[-58.126664,-32.278702],[-58.1264582,-32.278654],[-58.1261583,-32.2785534],[-58.1258734,-32.2785062],[-58.1257036,-32.278448],[-58.125406,-32.2784132],[-58.1252771,-32.2784375],[-58.1252119,-32.2784488],[-58.1250062,-32.2785047],[-58.1248587,-32.2785209],[-58.1247178,-32.2784865],[-58.1245729,-32.2783733],[-58.1244425,-32.2782482],[-58.1243186,-32.2781252],[-58.1241962,-32.2780214],[-58.124005,-32.2778539],[-58.1238903,-32.2778013],[-58.1237281,-32.2777791],[-58.1235248,-32.2777269],[-58.1234213,-32.2776914],[-58.1232579,-32.2776113],[-58.1231127,-32.2776131],[-58.1228779,-32.2778592],[-58.1226114,-32.2779578],[-58.1223482,-32.2779998],[-58.1221931,-32.2779886],[-58.1220668,-32.2779374],[-58.1218935,-32.277818],[-58.1218364,-32.2777755],[-58.1216067,-32.2778065],[-58.1214763,-32.2779556],[-58.1213799,-32.2780612],[-58.1213079,-32.2781806],[-58.1212976,-32.2782951],[-58.1213344,-32.2784115],[-58.1214222,-32.2785623],[-58.1216451,-32.2787608],[-58.1217963,-32.2788246],[-58.1218966,-32.2789129],[-58.1220075,-32.2790457],[-58.1220401,-32.2791771],[-58.1220148,-32.2793096],[-58.1219764,-32.279388],[-58.1218303,-32.2794821],[-58.1215916,-32.2795379],[-58.1214835,-32.2795774],[-58.1213495,-32.2797542],[-58.1213077,-32.2799967],[-58.1212752,-32.2801307],[-58.1210153,-32.280349],[-58.1208271,-32.2804278],[-58.1207449,-32.2804602],[-58.1205936,-32.2805302],[-58.1204774,-32.2805209],[-58.1204142,-32.2805016],[-58.1203214,-32.2804356],[-58.1203256,-32.2803806],[-58.1203656,-32.2802551],[-58.1203392,-32.2801732],[-58.1202373,-32.2800869],[-58.119984,-32.2799981],[-58.1196739,-32.2799494],[-58.1192935,-32.2799518],[-58.1190839,-32.2800152],[-58.1189296,-32.2801132],[-58.1188373,-32.2803202],[-58.1188242,-32.2808995],[-58.1188422,-32.2810965],[-58.118955,-32.2814402],[-58.1190434,-32.2816813],[-58.1191369,-32.2819002],[-58.1192208,-32.2820411],[-58.1193104,-32.2821562],[-58.1193916,-32.2823137],[-58.1194959,-32.2824758],[-58.1195771,-32.2825833],[-58.119639,-32.2827149],[-58.1196168,-32.2828108],[-58.1195699,-32.2828552],[-58.1195296,-32.2828704],[-58.1193598,-32.2828747],[-58.1191645,-32.282875],[-58.1191036,-32.2828813],[-58.1190083,-32.2829148],[-58.1188814,-32.2829447],[-58.1186708,-32.2828977],[-58.118556,-32.2828626],[-58.1183498,-32.282852],[-58.1181736,-32.2828957],[-58.1179226,-32.2830028],[-58.1177782,-32.2830862],[-58.1175296,-32.2831928],[-58.1173228,-32.2832772],[-58.1171129,-32.2833343],[-58.1169096,-32.2833621],[-58.1166702,-32.2832838],[-58.1166426,-32.2831927],[-58.1166432,-32.2831166],[-58.116634,-32.2830324],[-58.1166646,-32.2829917],[-58.1168898,-32.2830269],[-58.1169594,-32.2829167],[-58.116939,-32.2827791],[-58.1169233,-32.2826216],[-58.1169063,-32.2825212],[-58.1168204,-32.2821995],[-58.1167833,-32.282063],[-58.1168008,-32.281987],[-58.1168144,-32.2818196],[-58.1167946,-32.2816444],[-58.1167701,-32.2814316],[-58.1167374,-32.2812175],[-58.1167062,-32.2810263],[-58.1166546,-32.2808228],[-58.1165606,-32.2805337],[-58.1165217,-32.2804132],[-58.1164444,-32.2801477],[-58.1163861,-32.2799373],[-58.116271,-32.2795057],[-58.1162286,-32.2793669],[-58.1161225,-32.2791325],[-58.1160398,-32.2789656],[-58.1158909,-32.278747],[-58.1158601,-32.2786066],[-58.1144171,-32.2785791],[-58.1137167,-32.2773361],[-58.113755,-32.275488],[-58.1134303,-32.2736343],[-58.11273,-32.2723914],[-58.1127683,-32.2705432],[-58.1117114,-32.2689867],[-58.1110495,-32.2658955],[-58.1110662,-32.2650867],[-58.1108449,-32.2638112],[-58.1102662,-32.2616882],[-58.1091141,-32.2585725],[-58.1083571,-32.2577955],[-58.1079228,-32.2573497],[-58.1071655,-32.2547563],[-58.1072737,-32.2533496],[-58.1074432,-32.2511455],[-58.1082969,-32.2490926],[-58.1089192,-32.2484134],[-58.1140258,-32.2465962],[-58.1168741,-32.2461223],[-58.1182611,-32.2457313],[-58.1184487,-32.2453701],[-58.1186423,-32.245187],[-58.1187135,-32.2450403],[-58.1188354,-32.2448516],[-58.1189,-32.244733],[-58.1191019,-32.2445957],[-58.1191919,-32.2444526],[-58.11923,-32.2443292],[-58.1193118,-32.2440124],[-58.1193746,-32.2438886],[-58.1195093,-32.2437524],[-58.1195763,-32.2435964],[-58.1197478,-32.2433872],[-58.1197874,-32.2433174],[-58.1198118,-32.2432892],[-58.1199061,-32.2431393],[-58.12001,-32.2429323],[-58.1201549,-32.2426618],[-58.1202905,-32.2424507],[-58.1203932,-32.2422815],[-58.1204548,-32.2421793],[-58.1205468,-32.2419431],[-58.1206248,-32.2417616],[-58.1207269,-32.2416095],[-58.1207758,-32.2415623],[-58.1209158,-32.2412809],[-58.1210082,-32.2410785],[-58.121145,-32.2407603],[-58.1212963,-32.2405507],[-58.1213764,-32.240282],[-58.1214662,-32.2400636],[-58.121542,-32.2398872],[-58.1216448,-32.2396198],[-58.1217889,-32.2393952],[-58.1218795,-32.2391528],[-58.1219864,-32.238904],[-58.1220916,-32.2386593],[-58.1222071,-32.2383842],[-58.1223789,-32.2380446],[-58.1224204,-32.2379893],[-58.1225223,-32.2377111],[-58.1225736,-32.2375791],[-58.1227215,-32.2373268],[-58.1228666,-32.2371187],[-58.1229862,-32.2369386],[-58.1230808,-32.2368893],[-58.1231849,-32.2368465],[-58.1232207,-32.2366461],[-58.1232816,-32.2365298],[-58.1234108,-32.2364],[-58.1235212,-32.2362667],[-58.1236126,-32.2361298],[-58.1237256,-32.2360631],[-58.1237861,-32.2359351],[-58.1238308,-32.2358785],[-58.124083,-32.2357441],[-58.1241384,-32.2356215],[-58.1242981,-32.2354272],[-58.1244855,-32.2353108],[-58.1245753,-32.235393],[-58.1246336,-32.2354123],[-58.1247711,-32.2354087],[-58.1250061,-32.2353363],[-58.1249164,-32.2352828],[-58.1248034,-32.2350836],[-58.1246884,-32.2350063],[-58.1244846,-32.2349522],[-58.1246116,-32.2348148],[-58.1247467,-32.234703],[-58.1248822,-32.2346029],[-58.1250179,-32.2344959],[-58.1251248,-32.2343581],[-58.1252391,-32.2341901],[-58.1253367,-32.2340517],[-58.1254434,-32.2338825],[-58.125558,-32.2337551],[-58.1256512,-32.2336014],[-58.1257318,-32.2333918],[-58.1257779,-32.2332339],[-58.125894,-32.232951],[-58.125941,-32.2328384],[-58.1260137,-32.2326471],[-58.1261196,-32.2324165],[-58.1261794,-32.2323091],[-58.1263077,-32.2321212],[-58.1264721,-32.231859],[-58.1266027,-32.2316626],[-58.1267402,-32.2313563],[-58.1274755,-32.230505],[-58.1276313,-32.2302543],[-58.1280264,-32.2296184],[-58.1280828,-32.2295631],[-58.1305034,-32.2313097],[-58.1306748,-32.2314519],[-58.1322337,-32.2325554],[-58.13246,-32.2327127],[-58.1325517,-32.2325905],[-58.1325641,-32.232473],[-58.1338736,-32.2311699],[-58.1351292,-32.2320835],[-58.1353104,-32.2322525],[-58.1366122,-32.2331507],[-58.1367768,-32.2332408],[-58.1383345,-32.2343158],[-58.1400732,-32.2354704],[-58.1403312,-32.2356476],[-58.1417405,-32.2341392],[-58.1430771,-32.2327775],[-58.1431016,-32.2327805],[-58.1446637,-32.2339145],[-58.1448385,-32.2340359],[-58.1463755,-32.2351621],[-58.1465389,-32.2352741],[-58.1480177,-32.2338296],[-58.1481593,-32.2336806],[-58.1494473,-32.2324032],[-58.1501713,-32.2328975],[-58.1503334,-32.2330138],[-58.1510305,-32.2335136],[-58.1511704,-32.2336403],[-58.1527426,-32.2347415],[-58.1528516,-32.2348259],[-58.1545422,-32.236009],[-58.1558025,-32.236891],[-58.1562637,-32.2372137],[-58.1565094,-32.2366861],[-58.1567264,-32.2362429],[-58.157195,-32.2353212],[-58.1575326,-32.2346572],[-58.1576625,-32.2344217],[-58.157737,-32.2342519],[-58.1578705,-32.2339837],[-58.1586404,-32.2322989],[-58.1587177,-32.2321296],[-58.1595756,-32.2302509],[-58.1596325,-32.2301345],[-58.1604478,-32.2283603],[-58.1602529,-32.2282242],[-58.1578968,-32.2265786],[-58.1563281,-32.2254766],[-58.1562047,-32.2253111],[-58.1546134,-32.2241813],[-58.1552324,-32.2235614],[-58.155833,-32.2229599],[-58.1566913,-32.2221179],[-58.1574186,-32.2213707],[-58.1574901,-32.2211831],[-58.1539089,-32.2186517],[-58.1530286,-32.2180039],[-58.15099,-32.2165055],[-58.1506249,-32.2162722],[-58.1493613,-32.2153637],[-58.1508711,-32.2137972],[-58.1492696,-32.2126458],[-58.1506955,-32.2112259],[-58.1447318,-32.2070656],[-58.1447818,-32.2067449],[-58.1448444,-32.2065712],[-58.1449346,-32.2064185],[-58.145125,-32.2061567],[-58.145277,-32.2059826],[-58.1453869,-32.2058852],[-58.1455037,-32.2056211],[-58.1457157,-32.2053985],[-58.1458664,-32.2051697],[-58.146014,-32.2049557],[-58.1461963,-32.2045628],[-58.146459,-32.2042275],[-58.1465831,-32.2040617],[-58.1467189,-32.2038083],[-58.1468253,-32.2035709],[-58.1469386,-32.2033248],[-58.147096,-32.2031224],[-58.1472989,-32.2029888],[-58.1474181,-32.2027672],[-58.147488,-32.2026012],[-58.1475434,-32.2024965],[-58.1476941,-32.2023155],[-58.1477609,-32.2022011],[-58.1478694,-32.2020415],[-58.1480014,-32.2018108],[-58.1480571,-32.2016899],[-58.1481331,-32.2016055],[-58.1483235,-32.2014594],[-58.1485477,-32.201362],[-58.1487384,-32.2013055],[-58.1489724,-32.2012698],[-58.1492416,-32.201254],[-58.1495185,-32.2012492],[-58.1497944,-32.2012349],[-58.1502887,-32.2012295],[-58.1506026,-32.2012061],[-58.1508835,-32.2012454],[-58.1511198,-32.2013119],[-58.1513192,-32.2013427],[-58.1516671,-32.2013654],[-58.1519108,-32.2013565],[-58.1522775,-32.2013405],[-58.1525525,-32.2013476],[-58.1527787,-32.2013437],[-58.1529102,-32.2013913],[-58.1531703,-32.201357],[-58.1533712,-32.2014382],[-58.1536138,-32.2015494],[-58.1538675,-32.2017075],[-58.1540654,-32.2018882],[-58.154314,-32.2020121],[-58.1545824,-32.2022587],[-58.1547754,-32.202426],[-58.1548058,-32.2027006],[-58.154751,-32.2028387],[-58.1545847,-32.2031566],[-58.1586119,-32.2044415],[-58.1616638,-32.2054865],[-58.1618168,-32.2056758],[-58.1638915,-32.2063593],[-58.164191,-32.2064573],[-58.1694071,-32.2081638],[-58.169567,-32.2082337],[-58.1749011,-32.2099669],[-58.1751079,-32.210013],[-58.1805884,-32.2117933],[-58.1859776,-32.213556],[-58.1912562,-32.2152353],[-58.1967011,-32.2170017],[-58.2021178,-32.2187389],[-58.2074476,-32.2204074],[-58.2128145,-32.2221236],[-58.2179864,-32.2237592],[-58.2225787,-32.2252455],[-58.2249674,-32.2258758],[-58.2289345,-32.2271362],[-58.2336148,-32.2286455],[-58.2350598,-32.2291154],[-58.2392193,-32.2304094],[-58.2394903,-32.230628],[-58.2557579,-32.2357337],[-58.2562393,-32.2358027],[-58.2776224,-32.242073],[-58.2777545,-32.2422122],[-58.2795377,-32.237925],[-58.2824795,-32.2387914],[-58.2807757,-32.2430379],[-58.2831128,-32.2436933],[-58.3100022,-32.2515458]]]}}]}