{"type":"FeatureCollection","features":[{"type":"Feature","geometry":{"type":"LineString","coordinates":[[-58.2469141243312,-32.3144416484784],[-58.2463344595992,-32.3124434836144]]},"properties":{"tension_kv":132,"tension_raw":"132","source":"ENERSA","dataset":"redes-distribucion-media-tension","clipped_to":"colon_ejido_secciones"}},{"type":"Feature","geometry":{"type":"LineString","coordinates":[[-58.2463344595992,-32.3124434836144],[-58.2457548077261,-32.3104453162241]]},"properties":{"tension_kv":132,"tension_raw":"132","source":"ENERSA","dataset":"redes-distribucion-media-tension","clipped_to":"colon_ejido_secciones"}},{"type":"Feature","geometry":{"type":"LineString","coordinates":[[-58.2457548077261,-32.3104453162241],[-58.2451592561406,-32.3084046854453]]},"properties":{"tension_kv":132,"tension_raw":"132","source":"ENERSA","dataset":"redes-distribucion-media-tension","clipped_to":"colon_ejido_secciones"}},{"type":"Feature","geometry":{"type":"LineString","coordinates":[[-58.2451592561406,-32.3084046854453],[-58.2445637187528,-32.3063640429973]]},"properties":{"tension_kv":132,"tension_raw":"132","source":"ENERSA","dataset":"redes-distribucion-media-tension","clipped_to":"colon_ejido_secciones"}},{"type":"Feature","geometry":{"type":"LineString","coordinates":[[-58.2445637187528,-32.3063640429973],[-58.2439682058247,-32.3043234070555]]},"properties":{"tension_kv":132,"tension_raw":"132","source":"ENERSA","dataset":"redes-distribucion-media-tension","clipped_to":"colon_ejido_secciones"}},{"type":"Feature","geometry":{"type":"LineString","coordinates":[[-58.2439682058247,-32.3043234070555],[-58.2433727281391,-32.3022827687547]]},"properties":{"tension_kv":132,"tension_raw":"132","source":"ENERSA","dataset":"redes-distribucion-media-tension","clipped_to":"colon_ejido_secciones"}},{"type":"Feature","geometry":{"type":"LineString","coordinates":[[-58.2433727281391,-32.3022827687547],[-58.2427772644663,-32.3002421278003]]},"properties":{"tension_kv":132,"tension_raw":"132","source":"ENERSA","dataset":"redes-distribucion-media-tension","clipped_to":"colon_ejido_secciones"}},{"type":"Feature","geometry":{"type":"LineString","coordinates":[[-58.2427772644663,-32.3002421278003],[-58.2421818362017,-32.298201475475]]},"properties":{"tension_kv":132,"tension_raw":"132","source":"ENERSA","dataset":"redes-distribucion-media-tension","clipped_to":"colon_ejido_secciones"}},{"type":"Feature","geometry":{"type":"LineString","coordinates":[[-58.2421818362017,-32.298201475475],[-58.2415864217686,-32.2961608295107]]},"properties":{"tension_kv":132,"tension_raw":"132","source":"ENERSA","dataset":"redes-distribucion-media-tension","clipped_to":"colon_ejido_secciones"}},{"type":"Feature","geometry":{"type":"LineString","coordinates":[[-58.2415864217686,-32.2961608295107],[-58.2409910319497,-32.2941201810426]]},"properties":{"tension_kv":132,"tension_raw":"132","source":"ENERSA","dataset":"redes-distribucion-media-tension","clipped_to":"colon_ejido_secciones"}},{"type":"Feature","geometry":{"type":"LineString","coordinates":[[-58.2409910319497,-32.2941201810426],[-58.2403956775267,-32.2920795212057]]},"properties":{"tension_kv":132,"tension_raw":"132","source":"ENERSA","dataset":"redes-distribucion-media-tension","clipped_to":"colon_ejido_secciones"}},{"type":"Feature","geometry":{"type":"LineString","coordinates":[[-58.2403956775267,-32.2920795212057],[-58.2398003369242,-32.2900388677319]]},"properties":{"tension_kv":132,"tension_raw":"132","source":"ENERSA","dataset":"redes-distribucion-media-tension","clipped_to":"colon_ejido_secciones"}},{"type":"Feature","geometry":{"type":"LineString","coordinates":[[-58.2398003369242,-32.2900388677319],[-58.2392050209242,-32.2879982117562]]},"properties":{"tension_kv":132,"tension_raw":"132","source":"ENERSA","dataset":"redes-distribucion-media-tension","clipped_to":"colon_ejido_secciones"}},{"type":"Feature","geometry":{"type":"LineString","coordinates":[[-58.2392050209242,-32.2879982117562],[-58.2386097401337,-32.2859575534274]]},"properties":{"tension_kv":132,"tension_raw":"132","source":"ENERSA","dataset":"redes-distribucion-media-tension","clipped_to":"colon_ejido_secciones"}},{"type":"Feature","geometry":{"type":"LineString","coordinates":[[-58.2386097401337,-32.2859575534274],[-58.2380144735011,-32.2839168834367]]},"properties":{"tension_kv":132,"tension_raw":"132","source":"ENERSA","dataset":"redes-distribucion-media-tension","clipped_to":"colon_ejido_secciones"}},{"type":"Feature","geometry":{"type":"LineString","coordinates":[[-58.2380144735011,-32.2839168834367],[-58.2377166301324,-32.2817836939957]]},"properties":{"tension_kv":132,"tension_raw":"132","source":"ENERSA","dataset":"redes-distribucion-media-tension","clipped_to":"colon_ejido_secciones"}},{"type":"Feature","geometry":{"type":"LineString","coordinates":[[-58.2377166301324,-32.2817836939957],[-58.2374188089297,-32.2796505038033]]},"properties":{"tension_kv":132,"tension_raw":"132","source":"ENERSA","dataset":"redes-distribucion-media-tension","clipped_to":"colon_ejido_secciones"}},{"type":"Feature","geometry":{"type":"LineString","coordinates":[[-58.2374188089297,-32.2796505038033],[-58.237120988845,-32.2775173035498]]},"properties":{"tension_kv":132,"tension_raw":"132","source":"ENERSA","dataset":"redes-distribucion-media-tension","clipped_to":"colon_ejido_secciones"}},{"type":"Feature","geometry":{"type":"LineString","coordinates":[[-58.237120988845,-32.2775173035498],[-58.2368231801376,-32.2753841114105]]},"properties":{"tension_kv":132,"tension_raw":"132","source":"ENERSA","dataset":"redes-distribucion-media-tension","clipped_to":"colon_ejido_secciones"}},{"type":"Feature","geometry":{"type":"LineString","coordinates":[[-58.2368231801376,-32.2753841114105],[-58.2365253829799,-32.2732509183722]]},"properties":{"tension_kv":132,"tension_raw":"132","source":"ENERSA","dataset":"redes-distribucion-media-tension","clipped_to":"colon_ejido_secciones"}},{"type":"Feature","geometry":{"type":"LineString","coordinates":[[-58.2365253829799,-32.2732509183722],[-58.2362276081533,-32.2711177155698]]},"properties":{"tension_kv":132,"tension_raw":"132","source":"ENERSA","dataset":"redes-distribucion-media-tension","clipped_to":"colon_ejido_secciones"}},{"type":"Feature","geometry":{"type":"LineString","coordinates":[[-58.2362276081533,-32.2711177155698],[-58.2359298340884,-32.2689845207341]]},"properties":{"tension_kv":132,"tension_raw":"132","source":"ENERSA","dataset":"redes-distribucion-media-tension","clipped_to":"colon_ejido_secciones"}},{"type":"Feature","geometry":{"type":"LineString","coordinates":[[-58.2359298340884,-32.2689845207341],[-58.2356320715669,-32.266851325]]},"properties":{"tension_kv":132,"tension_raw":"132","source":"ENERSA","dataset":"redes-distribucion-media-tension","clipped_to":"colon_ejido_secciones"}},{"type":"Feature","geometry":{"type":"LineString","coordinates":[[-58.2356320715669,-32.266851325],[-58.2353343313696,-32.2647181195023]]},"properties":{"tension_kv":132,"tension_raw":"132","source":"ENERSA","dataset":"redes-distribucion-media-tension","clipped_to":"colon_ejido_secciones"}},{"type":"Feature","geometry":{"type":"LineString","coordinates":[[-58.2353343313696,-32.2647181195023],[-58.2350365919284,-32.262584921972]]},"properties":{"tension_kv":132,"tension_raw":"132","source":"ENERSA","dataset":"redes-distribucion-media-tension","clipped_to":"colon_ejido_secciones"}},{"type":"Feature","geometry":{"type":"LineString","coordinates":[[-58.2350365919284,-32.262584921972],[-58.2347468466239,-32.2604756643023]]},"properties":{"tension_kv":132,"tension_raw":"132","source":"ENERSA","dataset":"redes-distribucion-media-tension","clipped_to":"colon_ejido_secciones"}},{"type":"Feature","geometry":{"type":"LineString","coordinates":[[-58.2347468466239,-32.2604756643023],[-58.2344571125557,-32.2583663967554]]},"properties":{"tension_kv":132,"tension_raw":"132","source":"ENERSA","dataset":"redes-distribucion-media-tension","clipped_to":"colon_ejido_secciones"}},{"type":"Feature","geometry":{"type":"LineString","coordinates":[[-58.2344571125557,-32.2583663967554],[-58.2341673787654,-32.2562571372102]]},"properties":{"tension_kv":132,"tension_raw":"132","source":"ENERSA","dataset":"redes-distribucion-media-tension","clipped_to":"colon_ejido_secciones"}},{"type":"Feature","geometry":{"type":"LineString","coordinates":[[-58.2341673787654,-32.2562571372102],[-58.2338776666405,-32.2541478769501]]},"properties":{"tension_kv":132,"tension_raw":"132","source":"ENERSA","dataset":"redes-distribucion-media-tension","clipped_to":"colon_ejido_secciones"}},{"type":"Feature","geometry":{"type":"LineString","coordinates":[[-58.2338776666405,-32.2541478769501],[-58.2335879657459,-32.2520386068133]]},"properties":{"tension_kv":132,"tension_raw":"132","source":"ENERSA","dataset":"redes-distribucion-media-tension","clipped_to":"colon_ejido_secciones"}},{"type":"Feature","geometry":{"type":"LineString","coordinates":[[-58.2335879657459,-32.2520386068133],[-58.2332982757306,-32.2499293448271]]},"properties":{"tension_kv":132,"tension_raw":"132","source":"ENERSA","dataset":"redes-distribucion-media-tension","clipped_to":"colon_ejido_secciones"}},{"type":"Feature","geometry":{"type":"LineString","coordinates":[[-58.2332982757306,-32.2499293448271],[-58.2331582431147,-32.2489097241783]]},"properties":{"tension_kv":132,"tension_raw":"132","source":"ENERSA","dataset":"redes-distribucion-media-tension","clipped_to":"colon_ejido_secciones"}},{"type":"Feature","geometry":{"type":"LineString","coordinates":[[-58.1958728843962,-32.2329206715914],[-58.1943403658627,-32.2364189861112],[-58.1943752986006,-32.2365001442692],[-58.1973415256096,-32.2374752275524],[-58.2013144368273,-32.2387351626153],[-58.2092913806075,-32.2413007096414],[-58.2152550375329,-32.2431923530385],[-58.2192300487545,-32.2444553286045],[-58.2222373513287,-32.2454448109184],[-58.224852639934,-32.2462837433682],[-58.2289960977109,-32.2476399965515],[-58.2310746650273,-32.2483028101561],[-58.2321363167315,-32.2485839484222],[-58.2331505603032,-32.2489072750452]]},"properties":{"tension_kv":132,"tension_raw":"132","source":"ENERSA","dataset":"redes-distribucion-media-tension","clipped_to":"colon_ejido_secciones"}},{"type":"Feature","geometry":{"type":"LineString","coordinates":[[-58.2324008516809,-32.2435855821865],[-58.2322453127141,-32.2416119486626]]},"properties":{"tension_kv":132,"tension_raw":"132","source":"ENERSA","dataset":"redes-distribucion-media-tension","clipped_to":"colon_ejido_secciones"}},{"type":"Feature","geometry":{"type":"LineString","coordinates":[[-58.2313489592232,-32.2432428789945],[-58.2324008516809,-32.2435855821865]]},"properties":{"tension_kv":132,"tension_raw":"132","source":"ENERSA","dataset":"redes-distribucion-media-tension","clipped_to":"colon_ejido_secciones"}},{"type":"Feature","geometry":{"type":"LineString","coordinates":[[-58.2322453127141,-32.2416119486626],[-58.2320613697885,-32.2396223522129]]},"properties":{"tension_kv":132,"tension_raw":"132","source":"ENERSA","dataset":"redes-distribucion-media-tension","clipped_to":"colon_ejido_secciones"}},{"type":"Feature","geometry":{"type":"LineString","coordinates":[[-58.2320613697885,-32.2396223522129],[-58.231877432953,-32.2376327461685]]},"properties":{"tension_kv":132,"tension_raw":"132","source":"ENERSA","dataset":"redes-distribucion-media-tension","clipped_to":"colon_ejido_secciones"}},{"type":"Feature","geometry":{"type":"LineString","coordinates":[[-58.231877432953,-32.2376327461685],[-58.2316935018572,-32.2356431485564]]},"properties":{"tension_kv":132,"tension_raw":"132","source":"ENERSA","dataset":"redes-distribucion-media-tension","clipped_to":"colon_ejido_secciones"}},{"type":"Feature","geometry":{"type":"LineString","coordinates":[[-58.2316935018572,-32.2356431485564],[-58.2315095766746,-32.2336535503633]]},"properties":{"tension_kv":132,"tension_raw":"132","source":"ENERSA","dataset":"redes-distribucion-media-tension","clipped_to":"colon_ejido_secciones"}},{"type":"Feature","geometry":{"type":"LineString","coordinates":[[-58.2315095766746,-32.2336535503633],[-58.2313256574041,-32.2316639515892]]},"properties":{"tension_kv":132,"tension_raw":"132","source":"ENERSA","dataset":"redes-distribucion-media-tension","clipped_to":"colon_ejido_secciones"}},{"type":"Feature","geometry":{"type":"LineString","coordinates":[[-58.230374280033,-32.2429298713411],[-58.2313489592232,-32.2432428789945]]},"properties":{"tension_kv":132,"tension_raw":"132","source":"ENERSA","dataset":"redes-distribucion-media-tension","clipped_to":"colon_ejido_secciones"}},{"type":"Feature","geometry":{"type":"LineString","coordinates":[[-58.2313256574041,-32.2316639515892],[-58.2311417336152,-32.2296743430722]]},"properties":{"tension_kv":132,"tension_raw":"132","source":"ENERSA","dataset":"redes-distribucion-media-tension","clipped_to":"colon_ejido_secciones"}},{"type":"Feature","geometry":{"type":"LineString","coordinates":[[-58.2294066260309,-32.2426110853597],[-58.230374280033,-32.2429298713411]]},"properties":{"tension_kv":132,"tension_raw":"132","source":"ENERSA","dataset":"redes-distribucion-media-tension","clipped_to":"colon_ejido_secciones"}},{"type":"Feature","geometry":{"type":"LineString","coordinates":[[-58.2284319610609,-32.2422980541452],[-58.2294066260309,-32.2426110853597]]},"properties":{"tension_kv":132,"tension_raw":"132","source":"ENERSA","dataset":"redes-distribucion-media-tension","clipped_to":"colon_ejido_secciones"}},{"type":"Feature","geometry":{"type":"LineString","coordinates":[[-58.2274492052366,-32.2419775539907],[-58.2284319610609,-32.2422980541452]]},"properties":{"tension_kv":132,"tension_raw":"132","source":"ENERSA","dataset":"redes-distribucion-media-tension","clipped_to":"colon_ejido_secciones"}},{"type":"Feature","geometry":{"type":"LineString","coordinates":[[-58.2264690280364,-32.2416748439678],[-58.2274492052366,-32.2419775539907]]},"properties":{"tension_kv":132,"tension_raw":"132","source":"ENERSA","dataset":"redes-distribucion-media-tension","clipped_to":"colon_ejido_secciones"}},{"type":"Feature","geometry":{"type":"LineString","coordinates":[[-58.2254889522395,-32.2413721729617],[-58.2264690280364,-32.2416748439678]]},"properties":{"tension_kv":132,"tension_raw":"132","source":"ENERSA","dataset":"redes-distribucion-media-tension","clipped_to":"colon_ejido_secciones"}},{"type":"Feature","geometry":{"type":"LineString","coordinates":[[-58.2245062567906,-32.241069268316],[-58.2254889522395,-32.2413721729617]]},"properties":{"tension_kv":132,"tension_raw":"132","source":"ENERSA","dataset":"redes-distribucion-media-tension","clipped_to":"colon_ejido_secciones"}},{"type":"Feature","geometry":{"type":"LineString","coordinates":[[-58.2235285015637,-32.2407668764142],[-58.2245062567906,-32.241069268316]]},"properties":{"tension_kv":132,"tension_raw":"132","source":"ENERSA","dataset":"redes-distribucion-media-tension","clipped_to":"colon_ejido_secciones"}},{"type":"Feature","geometry":{"type":"LineString","coordinates":[[-58.2225411001032,-32.2404617267101],[-58.2235285015637,-32.2407668764142]]},"properties":{"tension_kv":132,"tension_raw":"132","source":"ENERSA","dataset":"redes-distribucion-media-tension","clipped_to":"colon_ejido_secciones"}},{"type":"Feature","geometry":{"type":"LineString","coordinates":[[-58.2215684226717,-32.2401612936864],[-58.2225411001032,-32.2404617267101]]},"properties":{"tension_kv":132,"tension_raw":"132","source":"ENERSA","dataset":"redes-distribucion-media-tension","clipped_to":"colon_ejido_secciones"}},{"type":"Feature","geometry":{"type":"LineString","coordinates":[[-58.2205695921689,-32.2398526861071],[-58.2215684226717,-32.2401612936864]]},"properties":{"tension_kv":132,"tension_raw":"132","source":"ENERSA","dataset":"redes-distribucion-media-tension","clipped_to":"colon_ejido_secciones"}},{"type":"Feature","geometry":{"type":"LineString","coordinates":[[-58.219602111358,-32.2395540965362],[-58.2205695921689,-32.2398526861071]]},"properties":{"tension_kv":132,"tension_raw":"132","source":"ENERSA","dataset":"redes-distribucion-media-tension","clipped_to":"colon_ejido_secciones"}},{"type":"Feature","geometry":{"type":"LineString","coordinates":[[-58.218616038271,-32.239249665644],[-58.219602111358,-32.2395540965362]]},"properties":{"tension_kv":132,"tension_raw":"132","source":"ENERSA","dataset":"redes-distribucion-media-tension","clipped_to":"colon_ejido_secciones"}},{"type":"Feature","geometry":{"type":"LineString","coordinates":[[-58.2175444453096,-32.2389188209854],[-58.218616038271,-32.239249665644]]},"properties":{"tension_kv":132,"tension_raw":"132","source":"ENERSA","dataset":"redes-distribucion-media-tension","clipped_to":"colon_ejido_secciones"}},{"type":"Feature","geometry":{"type":"LineString","coordinates":[[-58.2166437229941,-32.2386407246462],[-58.2175444453096,-32.2389188209854]]},"properties":{"tension_kv":132,"tension_raw":"132","source":"ENERSA","dataset":"redes-distribucion-media-tension","clipped_to":"colon_ejido_secciones"}},{"type":"Feature","geometry":{"type":"LineString","coordinates":[[-58.2156575755486,-32.2383362519401],[-58.2166437229941,-32.2386407246462]]},"properties":{"tension_kv":132,"tension_raw":"132","source":"ENERSA","dataset":"redes-distribucion-media-tension","clipped_to":"colon_ejido_secciones"}},{"type":"Feature","geometry":{"type":"LineString","coordinates":[[-58.2146714353687,-32.2380317537271],[-58.2156575755486,-32.2383362519401]]},"properties":{"tension_kv":132,"tension_raw":"132","source":"ENERSA","dataset":"redes-distribucion-media-tension","clipped_to":"colon_ejido_secciones"}},{"type":"Feature","geometry":{"type":"LineString","coordinates":[[-58.2136634646701,-32.2377205199054],[-58.2146714353687,-32.2380317537271]]},"properties":{"tension_kv":132,"tension_raw":"132","source":"ENERSA","dataset":"redes-distribucion-media-tension","clipped_to":"colon_ejido_secciones"}},{"type":"Feature","geometry":{"type":"LineString","coordinates":[[-58.2126991646149,-32.2374227617524],[-58.2136634646701,-32.2377205199054]]},"properties":{"tension_kv":132,"tension_raw":"132","source":"ENERSA","dataset":"redes-distribucion-media-tension","clipped_to":"colon_ejido_secciones"}},{"type":"Feature","geometry":{"type":"LineString","coordinates":[[-58.211713139914,-32.2371182785056],[-58.2126991646149,-32.2374227617524]]},"properties":{"tension_kv":132,"tension_raw":"132","source":"ENERSA","dataset":"redes-distribucion-media-tension","clipped_to":"colon_ejido_secciones"}},{"type":"Feature","geometry":{"type":"LineString","coordinates":[[-58.2107270272115,-32.2368137593893],[-58.211713139914,-32.2371182785056]]},"properties":{"tension_kv":132,"tension_raw":"132","source":"ENERSA","dataset":"redes-distribucion-media-tension","clipped_to":"colon_ejido_secciones"}},{"type":"Feature","geometry":{"type":"LineString","coordinates":[[-58.2097412627283,-32.2365085974994],[-58.2107270272115,-32.2368137593893]]},"properties":{"tension_kv":132,"tension_raw":"132","source":"ENERSA","dataset":"redes-distribucion-media-tension","clipped_to":"colon_ejido_secciones"}},{"type":"Feature","geometry":{"type":"LineString","coordinates":[[-58.2087548225494,-32.2362046987209],[-58.2097412627283,-32.2365085974994]]},"properties":{"tension_kv":132,"tension_raw":"132","source":"ENERSA","dataset":"redes-distribucion-media-tension","clipped_to":"colon_ejido_secciones"}},{"type":"Feature","geometry":{"type":"LineString","coordinates":[[-58.207800256094,-32.2359039763511],[-58.2087548225494,-32.2362046987209]]},"properties":{"tension_kv":132,"tension_raw":"132","source":"ENERSA","dataset":"redes-distribucion-media-tension","clipped_to":"colon_ejido_secciones"}},{"type":"Feature","geometry":{"type":"LineString","coordinates":[[-58.2068463180252,-32.2356034541536],[-58.207800256094,-32.2359039763511]]},"properties":{"tension_kv":132,"tension_raw":"132","source":"ENERSA","dataset":"redes-distribucion-media-tension","clipped_to":"colon_ejido_secciones"}},{"type":"Feature","geometry":{"type":"LineString","coordinates":[[-58.2058923971541,-32.2353029251127],[-58.2068463180252,-32.2356034541536]]},"properties":{"tension_kv":132,"tension_raw":"132","source":"ENERSA","dataset":"redes-distribucion-media-tension","clipped_to":"colon_ejido_secciones"}},{"type":"Feature","geometry":{"type":"LineString","coordinates":[[-58.2049384722715,-32.2350023889274],[-58.2058923971541,-32.2353029251127]]},"properties":{"tension_kv":132,"tension_raw":"132","source":"ENERSA","dataset":"redes-distribucion-media-tension","clipped_to":"colon_ejido_secciones"}},{"type":"Feature","geometry":{"type":"LineString","coordinates":[[-58.2039845647643,-32.2347018368859],[-58.2049384722715,-32.2350023889274]]},"properties":{"tension_kv":132,"tension_raw":"132","source":"ENERSA","dataset":"redes-distribucion-media-tension","clipped_to":"colon_ejido_secciones"}},{"type":"Feature","geometry":{"type":"LineString","coordinates":[[-58.2029937660355,-32.2343896634482],[-58.2039845647643,-32.2347018368859]]},"properties":{"tension_kv":132,"tension_raw":"132","source":"ENERSA","dataset":"redes-distribucion-media-tension","clipped_to":"colon_ejido_secciones"}},{"type":"Feature","geometry":{"type":"LineString","coordinates":[[-58.2020029744203,-32.2340774824661],[-58.2029937660355,-32.2343896634482]]},"properties":{"tension_kv":132,"tension_raw":"132","source":"ENERSA","dataset":"redes-distribucion-media-tension","clipped_to":"colon_ejido_secciones"}},{"type":"Feature","geometry":{"type":"LineString","coordinates":[[-58.2010121900967,-32.2337652849266],[-58.2020029744203,-32.2340774824661]]},"properties":{"tension_kv":132,"tension_raw":"132","source":"ENERSA","dataset":"redes-distribucion-media-tension","clipped_to":"colon_ejido_secciones"}},{"type":"Feature","geometry":{"type":"LineString","coordinates":[[-58.2000213073758,-32.2334530512924],[-58.2010121900967,-32.2337652849266]]},"properties":{"tension_kv":132,"tension_raw":"132","source":"ENERSA","dataset":"redes-distribucion-media-tension","clipped_to":"colon_ejido_secciones"}},{"type":"Feature","geometry":{"type":"LineString","coordinates":[[-58.1990304421975,-32.2331408192777],[-58.2000213073758,-32.2334530512924]]},"properties":{"tension_kv":132,"tension_raw":"132","source":"ENERSA","dataset":"redes-distribucion-media-tension","clipped_to":"colon_ejido_secciones"}},{"type":"Feature","geometry":{"type":"LineString","coordinates":[[-58.1980395843129,-32.2328285707049],[-58.1990304421975,-32.2331408192777]]},"properties":{"tension_kv":132,"tension_raw":"132","source":"ENERSA","dataset":"redes-distribucion-media-tension","clipped_to":"colon_ejido_secciones"}},{"type":"Feature","geometry":{"type":"LineString","coordinates":[[-58.1970487229402,-32.2325163144365],[-58.1980395843129,-32.2328285707049]]},"properties":{"tension_kv":132,"tension_raw":"132","source":"ENERSA","dataset":"redes-distribucion-media-tension","clipped_to":"colon_ejido_secciones"}},{"type":"Feature","geometry":{"type":"LineString","coordinates":[[-58.1973307757363,-32.2331563306683],[-58.1973366519221,-32.2328002588795]]},"properties":{"tension_kv":132,"tension_raw":"132","source":"ENERSA","dataset":"redes-distribucion-media-tension","clipped_to":"colon_ejido_secciones"}},{"type":"Feature","geometry":{"type":"LineString","coordinates":[[-58.1973366519221,-32.2328002588795],[-58.197046769278,-32.2325395025343]]},"properties":{"tension_kv":132,"tension_raw":"132","source":"ENERSA","dataset":"redes-distribucion-media-tension","clipped_to":"colon_ejido_secciones"}},{"type":"Feature","geometry":{"type":"LineString","coordinates":[[-58.197046769278,-32.2325395025343],[-58.1970487229402,-32.2325163144365]]},"properties":{"tension_kv":132,"tension_raw":"132","source":"ENERSA","dataset":"redes-distribucion-media-tension","clipped_to":"colon_ejido_secciones"}}]}