{"type":"FeatureCollection","features":[{"type":"Feature","geometry":{"type":"LineString","coordinates":[[-58.2502452903325,-32.2097107309024],[-58.2573738837603,-32.2618790101902]]},"properties":{"tension_kv":33,"tension_raw":"33","source":"ENERSA","dataset":"redes-distribucion-media-tension","clipped_to":"colon_ejido_secciones"}},{"type":"Feature","geometry":{"type":"LineString","coordinates":[[-58.2482244019445,-32.3016544125616],[-58.247918187003,-32.3003593235428]]},"properties":{"tension_kv":33,"tension_raw":"33","source":"ENERSA","dataset":"redes-distribucion-media-tension","clipped_to":"colon_ejido_secciones"}},{"type":"Feature","geometry":{"type":"LineString","coordinates":[[-58.247918187003,-32.3003593235428],[-58.2476425986168,-32.2992377288498]]},"properties":{"tension_kv":33,"tension_raw":"33","source":"ENERSA","dataset":"redes-distribucion-media-tension","clipped_to":"colon_ejido_secciones"}},{"type":"Feature","geometry":{"type":"LineString","coordinates":[[-58.2476425986168,-32.2992377288498],[-58.2473628228832,-32.2981211242909]]},"properties":{"tension_kv":33,"tension_raw":"33","source":"ENERSA","dataset":"redes-distribucion-media-tension","clipped_to":"colon_ejido_secciones"}},{"type":"Feature","geometry":{"type":"LineString","coordinates":[[-58.2473628228832,-32.2981211242909],[-58.2470607881336,-32.2970053639626]]},"properties":{"tension_kv":33,"tension_raw":"33","source":"ENERSA","dataset":"redes-distribucion-media-tension","clipped_to":"colon_ejido_secciones"}},{"type":"Feature","geometry":{"type":"LineString","coordinates":[[-58.2470607881336,-32.2970053639626],[-58.2467587601625,-32.2958896029818]]},"properties":{"tension_kv":33,"tension_raw":"33","source":"ENERSA","dataset":"redes-distribucion-media-tension","clipped_to":"colon_ejido_secciones"}},{"type":"Feature","geometry":{"type":"LineString","coordinates":[[-58.2467587601625,-32.2958896029818],[-58.2464567389693,-32.2947738413483]]},"properties":{"tension_kv":33,"tension_raw":"33","source":"ENERSA","dataset":"redes-distribucion-media-tension","clipped_to":"colon_ejido_secciones"}},{"type":"Feature","geometry":{"type":"LineString","coordinates":[[-58.2464567389693,-32.2947738413483],[-58.2461547245533,-32.2936580790624]]},"properties":{"tension_kv":33,"tension_raw":"33","source":"ENERSA","dataset":"redes-distribucion-media-tension","clipped_to":"colon_ejido_secciones"}},{"type":"Feature","geometry":{"type":"LineString","coordinates":[[-58.2461547245533,-32.2936580790624],[-58.2458527169141,-32.2925423161241]]},"properties":{"tension_kv":33,"tension_raw":"33","source":"ENERSA","dataset":"redes-distribucion-media-tension","clipped_to":"colon_ejido_secciones"}},{"type":"Feature","geometry":{"type":"LineString","coordinates":[[-58.2458527169141,-32.2925423161241],[-58.2455515386327,-32.2914295843072]]},"properties":{"tension_kv":33,"tension_raw":"33","source":"ENERSA","dataset":"redes-distribucion-media-tension","clipped_to":"colon_ejido_secciones"}},{"type":"Feature","geometry":{"type":"LineString","coordinates":[[-58.2455515386327,-32.2914295843072],[-58.2452589230107,-32.2903129496745]]},"properties":{"tension_kv":33,"tension_raw":"33","source":"ENERSA","dataset":"redes-distribucion-media-tension","clipped_to":"colon_ejido_secciones"}},{"type":"Feature","geometry":{"type":"LineString","coordinates":[[-58.2452589230107,-32.2903129496745],[-58.2450397514459,-32.28946408112]]},"properties":{"tension_kv":33,"tension_raw":"33","source":"ENERSA","dataset":"redes-distribucion-media-tension","clipped_to":"colon_ejido_secciones"}},{"type":"Feature","geometry":{"type":"LineString","coordinates":[[-58.2450397514459,-32.28946408112],[-58.2447951816576,-32.2885250241575]]},"properties":{"tension_kv":33,"tension_raw":"33","source":"ENERSA","dataset":"redes-distribucion-media-tension","clipped_to":"colon_ejido_secciones"}},{"type":"Feature","geometry":{"type":"LineString","coordinates":[[-58.2447951816576,-32.2885250241575],[-58.2445742272195,-32.2876798535514]]},"properties":{"tension_kv":33,"tension_raw":"33","source":"ENERSA","dataset":"redes-distribucion-media-tension","clipped_to":"colon_ejido_secciones"}},{"type":"Feature","geometry":{"type":"LineString","coordinates":[[-58.2445742272195,-32.2876798535514],[-58.2443472947529,-32.286705049304]]},"properties":{"tension_kv":33,"tension_raw":"33","source":"ENERSA","dataset":"redes-distribucion-media-tension","clipped_to":"colon_ejido_secciones"}},{"type":"Feature","geometry":{"type":"LineString","coordinates":[[-58.2443472947529,-32.286705049304],[-58.244125152187,-32.2858349232442]]},"properties":{"tension_kv":33,"tension_raw":"33","source":"ENERSA","dataset":"redes-distribucion-media-tension","clipped_to":"colon_ejido_secciones"}},{"type":"Feature","geometry":{"type":"LineString","coordinates":[[-58.244125152187,-32.2858349232442],[-58.2438398940269,-32.2847159892653]]},"properties":{"tension_kv":33,"tension_raw":"33","source":"ENERSA","dataset":"redes-distribucion-media-tension","clipped_to":"colon_ejido_secciones"}},{"type":"Feature","geometry":{"type":"LineString","coordinates":[[-58.2438398940269,-32.2847159892653],[-58.2435546422418,-32.2835970546978]]},"properties":{"tension_kv":33,"tension_raw":"33","source":"ENERSA","dataset":"redes-distribucion-media-tension","clipped_to":"colon_ejido_secciones"}},{"type":"Feature","geometry":{"type":"LineString","coordinates":[[-58.2435546422418,-32.2835970546978],[-58.243270521426,-32.2824825439895]]},"properties":{"tension_kv":33,"tension_raw":"33","source":"ENERSA","dataset":"redes-distribucion-media-tension","clipped_to":"colon_ejido_secciones"}},{"type":"Feature","geometry":{"type":"LineString","coordinates":[[-58.243270521426,-32.2824825439895],[-58.2429951839056,-32.2813537293359]]},"properties":{"tension_kv":33,"tension_raw":"33","source":"ENERSA","dataset":"redes-distribucion-media-tension","clipped_to":"colon_ejido_secciones"}},{"type":"Feature","geometry":{"type":"LineString","coordinates":[[-58.2429951839056,-32.2813537293359],[-58.2427112147451,-32.2802320066523]]},"properties":{"tension_kv":33,"tension_raw":"33","source":"ENERSA","dataset":"redes-distribucion-media-tension","clipped_to":"colon_ejido_secciones"}},{"type":"Feature","geometry":{"type":"LineString","coordinates":[[-58.2427112147451,-32.2802320066523],[-58.2424440888846,-32.2791177305409]]},"properties":{"tension_kv":33,"tension_raw":"33","source":"ENERSA","dataset":"redes-distribucion-media-tension","clipped_to":"colon_ejido_secciones"}},{"type":"Feature","geometry":{"type":"LineString","coordinates":[[-58.2424440888846,-32.2791177305409],[-58.242151757374,-32.2780015791782]]},"properties":{"tension_kv":33,"tension_raw":"33","source":"ENERSA","dataset":"redes-distribucion-media-tension","clipped_to":"colon_ejido_secciones"}},{"type":"Feature","geometry":{"type":"LineString","coordinates":[[-58.242151757374,-32.2780015791782],[-58.2418792072328,-32.2768753432485]]},"properties":{"tension_kv":33,"tension_raw":"33","source":"ENERSA","dataset":"redes-distribucion-media-tension","clipped_to":"colon_ejido_secciones"}},{"type":"Feature","geometry":{"type":"LineString","coordinates":[[-58.2418792072328,-32.2768753432485],[-58.241617993223,-32.2757702176448]]},"properties":{"tension_kv":33,"tension_raw":"33","source":"ENERSA","dataset":"redes-distribucion-media-tension","clipped_to":"colon_ejido_secciones"}},{"type":"Feature","geometry":{"type":"LineString","coordinates":[[-58.241617993223,-32.2757702176448],[-58.2413240900693,-32.274674346306]]},"properties":{"tension_kv":33,"tension_raw":"33","source":"ENERSA","dataset":"redes-distribucion-media-tension","clipped_to":"colon_ejido_secciones"}},{"type":"Feature","geometry":{"type":"LineString","coordinates":[[-58.2413240900693,-32.274674346306],[-58.2410575860858,-32.2735788920297]]},"properties":{"tension_kv":33,"tension_raw":"33","source":"ENERSA","dataset":"redes-distribucion-media-tension","clipped_to":"colon_ejido_secciones"}},{"type":"Feature","geometry":{"type":"LineString","coordinates":[[-58.2410575860858,-32.2735788920297],[-58.2403442550953,-32.2708042912474]]},"properties":{"tension_kv":33,"tension_raw":"33","source":"ENERSA","dataset":"redes-distribucion-media-tension","clipped_to":"colon_ejido_secciones"}},{"type":"Feature","geometry":{"type":"LineString","coordinates":[[-58.2403442550953,-32.2708042912474],[-58.2394314602106,-32.2671992764173]]},"properties":{"tension_kv":33,"tension_raw":"33","source":"ENERSA","dataset":"redes-distribucion-media-tension","clipped_to":"colon_ejido_secciones"}},{"type":"Feature","geometry":{"type":"LineString","coordinates":[[-58.2394314602106,-32.2671992764173],[-58.2387426773471,-32.2644461418026]]},"properties":{"tension_kv":33,"tension_raw":"33","source":"ENERSA","dataset":"redes-distribucion-media-tension","clipped_to":"colon_ejido_secciones"}},{"type":"Feature","geometry":{"type":"LineString","coordinates":[[-58.2387426773471,-32.2644461418026],[-58.2386367458043,-32.2640413893693]]},"properties":{"tension_kv":33,"tension_raw":"33","source":"ENERSA","dataset":"redes-distribucion-media-tension","clipped_to":"colon_ejido_secciones"}},{"type":"Feature","geometry":{"type":"LineString","coordinates":[[-58.2386367458043,-32.2640413893693],[-58.2385007039762,-32.2636057248518]]},"properties":{"tension_kv":33,"tension_raw":"33","source":"ENERSA","dataset":"redes-distribucion-media-tension","clipped_to":"colon_ejido_secciones"}},{"type":"Feature","geometry":{"type":"LineString","coordinates":[[-58.2385007039762,-32.2636057248518],[-58.2383646633547,-32.2631700602047]]},"properties":{"tension_kv":33,"tension_raw":"33","source":"ENERSA","dataset":"redes-distribucion-media-tension","clipped_to":"colon_ejido_secciones"}},{"type":"Feature","geometry":{"type":"LineString","coordinates":[[-58.2383646633547,-32.2631700602047],[-58.2382286239395,-32.2627343954281]]},"properties":{"tension_kv":33,"tension_raw":"33","source":"ENERSA","dataset":"redes-distribucion-media-tension","clipped_to":"colon_ejido_secciones"}},{"type":"Feature","geometry":{"type":"LineString","coordinates":[[-58.2382286239395,-32.2627343954281],[-58.238093035397,-32.2623001703338]]},"properties":{"tension_kv":33,"tension_raw":"33","source":"ENERSA","dataset":"redes-distribucion-media-tension","clipped_to":"colon_ejido_secciones"}},{"type":"Feature","geometry":{"type":"LineString","coordinates":[[-58.238093035397,-32.2623001703338],[-58.2379466850665,-32.2618672284716]]},"properties":{"tension_kv":33,"tension_raw":"33","source":"ENERSA","dataset":"redes-distribucion-media-tension","clipped_to":"colon_ejido_secciones"}},{"type":"Feature","geometry":{"type":"LineString","coordinates":[[-58.2379466850665,-32.2618672284716],[-58.2379362658405,-32.2618540189603]]},"properties":{"tension_kv":33,"tension_raw":"33","source":"ENERSA","dataset":"redes-distribucion-media-tension","clipped_to":"colon_ejido_secciones"}},{"type":"Feature","geometry":{"type":"LineString","coordinates":[[-58.2379362658405,-32.2618540189603],[-58.2379363411779,-32.2618528659683]]},"properties":{"tension_kv":33,"tension_raw":"33","source":"ENERSA","dataset":"redes-distribucion-media-tension","clipped_to":"colon_ejido_secciones"}},{"type":"Feature","geometry":{"type":"LineString","coordinates":[[-58.2379363411779,-32.2618528659683],[-58.2379318496608,-32.2618524787223]]},"properties":{"tension_kv":33,"tension_raw":"33","source":"ENERSA","dataset":"redes-distribucion-media-tension","clipped_to":"colon_ejido_secciones"}},{"type":"Feature","geometry":{"type":"LineString","coordinates":[[-58.2379318496608,-32.2618524787223],[-58.2368416079028,-32.2616970994463]]},"properties":{"tension_kv":33,"tension_raw":"33","source":"ENERSA","dataset":"redes-distribucion-media-tension","clipped_to":"colon_ejido_secciones"}},{"type":"Feature","geometry":{"type":"LineString","coordinates":[[-58.2378064431223,-32.2554499426906],[-58.2377826934988,-32.2554496113147]]},"properties":{"tension_kv":33,"tension_raw":"33","source":"ENERSA","dataset":"redes-distribucion-media-tension","clipped_to":"colon_ejido_secciones"}},{"type":"Feature","geometry":{"type":"LineString","coordinates":[[-58.2377826934988,-32.2554496113147],[-58.237771203239,-32.2554495862303]]},"properties":{"tension_kv":33,"tension_raw":"33","source":"ENERSA","dataset":"redes-distribucion-media-tension","clipped_to":"colon_ejido_secciones"}},{"type":"Feature","geometry":{"type":"LineString","coordinates":[[-58.237771203239,-32.2554495862303],[-58.2377366792672,-32.2554489692704]]},"properties":{"tension_kv":33,"tension_raw":"33","source":"ENERSA","dataset":"redes-distribucion-media-tension","clipped_to":"colon_ejido_secciones"}},{"type":"Feature","geometry":{"type":"LineString","coordinates":[[-58.2377366792672,-32.2554489692704],[-58.2371011966798,-32.2553963280301]]},"properties":{"tension_kv":33,"tension_raw":"33","source":"ENERSA","dataset":"redes-distribucion-media-tension","clipped_to":"colon_ejido_secciones"}},{"type":"Feature","geometry":{"type":"LineString","coordinates":[[-58.2368416079028,-32.2616970994463],[-58.2373843518053,-32.2601174428491]]},"properties":{"tension_kv":33,"tension_raw":"33","source":"ENERSA","dataset":"redes-distribucion-media-tension","clipped_to":"colon_ejido_secciones"}},{"type":"Feature","geometry":{"type":"LineString","coordinates":[[-58.2373843518053,-32.2601174428491],[-58.2373831111688,-32.2601141076586]]},"properties":{"tension_kv":33,"tension_raw":"33","source":"ENERSA","dataset":"redes-distribucion-media-tension","clipped_to":"colon_ejido_secciones"}},{"type":"Feature","geometry":{"type":"LineString","coordinates":[[-58.2373831111688,-32.2601141076586],[-58.2373741992416,-32.2600866108071]]},"properties":{"tension_kv":33,"tension_raw":"33","source":"ENERSA","dataset":"redes-distribucion-media-tension","clipped_to":"colon_ejido_secciones"}},{"type":"Feature","geometry":{"type":"LineString","coordinates":[[-58.2373741992416,-32.2600866108071],[-58.237362717459,-32.2600498908196]]},"properties":{"tension_kv":33,"tension_raw":"33","source":"ENERSA","dataset":"redes-distribucion-media-tension","clipped_to":"colon_ejido_secciones"}},{"type":"Feature","geometry":{"type":"LineString","coordinates":[[-58.237362717459,-32.2600498908196],[-58.2367139715921,-32.2579352552346]]},"properties":{"tension_kv":33,"tension_raw":"33","source":"ENERSA","dataset":"redes-distribucion-media-tension","clipped_to":"colon_ejido_secciones"}},{"type":"Feature","geometry":{"type":"LineString","coordinates":[[-58.2371011966798,-32.2553963280301],[-58.2365191530704,-32.2553730194166]]},"properties":{"tension_kv":33,"tension_raw":"33","source":"ENERSA","dataset":"redes-distribucion-media-tension","clipped_to":"colon_ejido_secciones"}},{"type":"Feature","geometry":{"type":"LineString","coordinates":[[-58.2367139715921,-32.2579352552346],[-58.2367050502109,-32.2579335078]]},"properties":{"tension_kv":33,"tension_raw":"33","source":"ENERSA","dataset":"redes-distribucion-media-tension","clipped_to":"colon_ejido_secciones"}},{"type":"Feature","geometry":{"type":"LineString","coordinates":[[-58.2367050502109,-32.2579335078],[-58.2366086178975,-32.2564901658437]]},"properties":{"tension_kv":33,"tension_raw":"33","source":"ENERSA","dataset":"redes-distribucion-media-tension","clipped_to":"colon_ejido_secciones"}},{"type":"Feature","geometry":{"type":"LineString","coordinates":[[-58.2366086178975,-32.2564901658437],[-58.2366087151657,-32.2564615415077]]},"properties":{"tension_kv":33,"tension_raw":"33","source":"ENERSA","dataset":"redes-distribucion-media-tension","clipped_to":"colon_ejido_secciones"}},{"type":"Feature","geometry":{"type":"LineString","coordinates":[[-58.2366087151657,-32.2564615415077],[-58.2365176962201,-32.255045070283]]},"properties":{"tension_kv":33,"tension_raw":"33","source":"ENERSA","dataset":"redes-distribucion-media-tension","clipped_to":"colon_ejido_secciones"}},{"type":"Feature","geometry":{"type":"LineString","coordinates":[[-58.2365191530704,-32.2553730194166],[-58.2365113576787,-32.2551753346467]]},"properties":{"tension_kv":33,"tension_raw":"33","source":"ENERSA","dataset":"redes-distribucion-media-tension","clipped_to":"colon_ejido_secciones"}},{"type":"Feature","geometry":{"type":"LineString","coordinates":[[-58.2365074979649,-32.255107724104],[-58.2365176962201,-32.255045070283]]},"properties":{"tension_kv":33,"tension_raw":"33","source":"ENERSA","dataset":"redes-distribucion-media-tension","clipped_to":"colon_ejido_secciones"}},{"type":"Feature","geometry":{"type":"LineString","coordinates":[[-58.2365176962201,-32.255045070283],[-58.2364479115759,-32.2531467301885]]},"properties":{"tension_kv":33,"tension_raw":"33","source":"ENERSA","dataset":"redes-distribucion-media-tension","clipped_to":"colon_ejido_secciones"}},{"type":"Feature","geometry":{"type":"LineString","coordinates":[[-58.2365113576787,-32.2551753346467],[-58.2365074979649,-32.255107724104]]},"properties":{"tension_kv":33,"tension_raw":"33","source":"ENERSA","dataset":"redes-distribucion-media-tension","clipped_to":"colon_ejido_secciones"}},{"type":"Feature","geometry":{"type":"LineString","coordinates":[[-58.2365045956535,-32.2551255802759],[-58.2365074979649,-32.255107724104]]},"properties":{"tension_kv":33,"tension_raw":"33","source":"ENERSA","dataset":"redes-distribucion-media-tension","clipped_to":"colon_ejido_secciones"}},{"type":"Feature","geometry":{"type":"LineString","coordinates":[[-58.2364479115759,-32.2531467301885],[-58.2363664890437,-32.2513564909003]]},"properties":{"tension_kv":33,"tension_raw":"33","source":"ENERSA","dataset":"redes-distribucion-media-tension","clipped_to":"colon_ejido_secciones"}},{"type":"Feature","geometry":{"type":"LineString","coordinates":[[-58.2363664890437,-32.2513564909003],[-58.2362434922534,-32.2495727030997]]},"properties":{"tension_kv":33,"tension_raw":"33","source":"ENERSA","dataset":"redes-distribucion-media-tension","clipped_to":"colon_ejido_secciones"}},{"type":"Feature","geometry":{"type":"LineString","coordinates":[[-58.2362434922534,-32.2495727030997],[-58.2358883484775,-32.2477927233153]]},"properties":{"tension_kv":33,"tension_raw":"33","source":"ENERSA","dataset":"redes-distribucion-media-tension","clipped_to":"colon_ejido_secciones"}},{"type":"Feature","geometry":{"type":"LineString","coordinates":[[-58.2358883484775,-32.2477927233153],[-58.2355931007422,-32.2460167887115]]},"properties":{"tension_kv":33,"tension_raw":"33","source":"ENERSA","dataset":"redes-distribucion-media-tension","clipped_to":"colon_ejido_secciones"}},{"type":"Feature","geometry":{"type":"LineString","coordinates":[[-58.2355931007422,-32.2460167887115],[-58.2353886364278,-32.2442312842208]]},"properties":{"tension_kv":33,"tension_raw":"33","source":"ENERSA","dataset":"redes-distribucion-media-tension","clipped_to":"colon_ejido_secciones"}},{"type":"Feature","geometry":{"type":"LineString","coordinates":[[-58.2353886364278,-32.2442312842208],[-58.2351841784298,-32.2424457792005]]},"properties":{"tension_kv":33,"tension_raw":"33","source":"ENERSA","dataset":"redes-distribucion-media-tension","clipped_to":"colon_ejido_secciones"}},{"type":"Feature","geometry":{"type":"LineString","coordinates":[[-58.2351841784298,-32.2424457792005],[-58.2350996875336,-32.2412114197608]]},"properties":{"tension_kv":33,"tension_raw":"33","source":"ENERSA","dataset":"redes-distribucion-media-tension","clipped_to":"colon_ejido_secciones"}},{"type":"Feature","geometry":{"type":"LineString","coordinates":[[-58.2350996875336,-32.2412114197608],[-58.235006404495,-32.2399764774413]]},"properties":{"tension_kv":33,"tension_raw":"33","source":"ENERSA","dataset":"redes-distribucion-media-tension","clipped_to":"colon_ejido_secciones"}},{"type":"Feature","geometry":{"type":"LineString","coordinates":[[-58.235006404495,-32.2399764774413],[-58.2347752813787,-32.2388747675714]]},"properties":{"tension_kv":33,"tension_raw":"33","source":"ENERSA","dataset":"redes-distribucion-media-tension","clipped_to":"colon_ejido_secciones"}},{"type":"Feature","geometry":{"type":"LineString","coordinates":[[-58.2347752813787,-32.2388747675714],[-58.2345708423236,-32.2370892609628]]},"properties":{"tension_kv":33,"tension_raw":"33","source":"ENERSA","dataset":"redes-distribucion-media-tension","clipped_to":"colon_ejido_secciones"}},{"type":"Feature","geometry":{"type":"LineString","coordinates":[[-58.2345708423236,-32.2370892609628],[-58.2343664095809,-32.2353037538249]]},"properties":{"tension_kv":33,"tension_raw":"33","source":"ENERSA","dataset":"redes-distribucion-media-tension","clipped_to":"colon_ejido_secciones"}},{"type":"Feature","geometry":{"type":"LineString","coordinates":[[-58.2343664095809,-32.2353037538249],[-58.2341705518582,-32.233516166017]]},"properties":{"tension_kv":33,"tension_raw":"33","source":"ENERSA","dataset":"redes-distribucion-media-tension","clipped_to":"colon_ejido_secciones"}},{"type":"Feature","geometry":{"type":"LineString","coordinates":[[-58.2341705518582,-32.233516166017],[-58.2341185311043,-32.2327025841816]]},"properties":{"tension_kv":33,"tension_raw":"33","source":"ENERSA","dataset":"redes-distribucion-media-tension","clipped_to":"colon_ejido_secciones"}},{"type":"Feature","geometry":{"type":"LineString","coordinates":[[-58.2341185311043,-32.2327025841816],[-58.2340364062818,-32.2318490283207]]},"properties":{"tension_kv":33,"tension_raw":"33","source":"ENERSA","dataset":"redes-distribucion-media-tension","clipped_to":"colon_ejido_secciones"}},{"type":"Feature","geometry":{"type":"LineString","coordinates":[[-58.2340364062818,-32.2318490283207],[-58.2339536107773,-32.2309885296609]]},"properties":{"tension_kv":33,"tension_raw":"33","source":"ENERSA","dataset":"redes-distribucion-media-tension","clipped_to":"colon_ejido_secciones"}},{"type":"Feature","geometry":{"type":"LineString","coordinates":[[-58.2339536107773,-32.2309885296609],[-58.2338785254198,-32.230133638404]]},"properties":{"tension_kv":33,"tension_raw":"33","source":"ENERSA","dataset":"redes-distribucion-media-tension","clipped_to":"colon_ejido_secciones"}},{"type":"Feature","geometry":{"type":"LineString","coordinates":[[-58.2338785254198,-32.230133638404],[-58.2337814367113,-32.2292812163797]]},"properties":{"tension_kv":33,"tension_raw":"33","source":"ENERSA","dataset":"redes-distribucion-media-tension","clipped_to":"colon_ejido_secciones"}},{"type":"Feature","geometry":{"type":"LineString","coordinates":[[-58.1611696710101,-32.2062410576141],[-58.161739822302,-32.2056815133944]]},"properties":{"tension_kv":33,"tension_raw":"33","source":"ENERSA","dataset":"redes-distribucion-media-tension","clipped_to":"colon_ejido_secciones"}},{"type":"Feature","geometry":{"type":"LineString","coordinates":[[-58.1606050623706,-32.2068030508931],[-58.1611696710101,-32.2062410576141]]},"properties":{"tension_kv":33,"tension_raw":"33","source":"ENERSA","dataset":"redes-distribucion-media-tension","clipped_to":"colon_ejido_secciones"}},{"type":"Feature","geometry":{"type":"LineString","coordinates":[[-58.1600425459627,-32.2073703281545],[-58.1606050623706,-32.2068030508931]]},"properties":{"tension_kv":33,"tension_raw":"33","source":"ENERSA","dataset":"redes-distribucion-media-tension","clipped_to":"colon_ejido_secciones"}},{"type":"Feature","geometry":{"type":"LineString","coordinates":[[-58.1594781219512,-32.207922455327],[-58.1600425459627,-32.2073703281545]]},"properties":{"tension_kv":33,"tension_raw":"33","source":"ENERSA","dataset":"redes-distribucion-media-tension","clipped_to":"colon_ejido_secciones"}},{"type":"Feature","geometry":{"type":"LineString","coordinates":[[-58.1589137016746,-32.2084745798353],[-58.1594781219512,-32.207922455327]]},"properties":{"tension_kv":33,"tension_raw":"33","source":"ENERSA","dataset":"redes-distribucion-media-tension","clipped_to":"colon_ejido_secciones"}},{"type":"Feature","geometry":{"type":"LineString","coordinates":[[-58.158359887369,-32.2090383874498],[-58.1589137016746,-32.2084745798353]]},"properties":{"tension_kv":33,"tension_raw":"33","source":"ENERSA","dataset":"redes-distribucion-media-tension","clipped_to":"colon_ejido_secciones"}},{"type":"Feature","geometry":{"type":"LineString","coordinates":[[-58.1578198936335,-32.2095885635541],[-58.158359887369,-32.2090383874498]]},"properties":{"tension_kv":33,"tension_raw":"33","source":"ENERSA","dataset":"redes-distribucion-media-tension","clipped_to":"colon_ejido_secciones"}},{"type":"Feature","geometry":{"type":"LineString","coordinates":[[-58.1572738250958,-32.2101709253537],[-58.1578198936335,-32.2095885635541]]},"properties":{"tension_kv":33,"tension_raw":"33","source":"ENERSA","dataset":"redes-distribucion-media-tension","clipped_to":"colon_ejido_secciones"}},{"type":"Feature","geometry":{"type":"LineString","coordinates":[[-58.1566593117325,-32.2107845721139],[-58.1572738250958,-32.2101709253537]]},"properties":{"tension_kv":33,"tension_raw":"33","source":"ENERSA","dataset":"redes-distribucion-media-tension","clipped_to":"colon_ejido_secciones"}},{"type":"Feature","geometry":{"type":"LineString","coordinates":[[-58.1561110370406,-32.2113415256774],[-58.1566593117325,-32.2107845721139]]},"properties":{"tension_kv":33,"tension_raw":"33","source":"ENERSA","dataset":"redes-distribucion-media-tension","clipped_to":"colon_ejido_secciones"}},{"type":"Feature","geometry":{"type":"LineString","coordinates":[[-58.1555599841988,-32.2119007531957],[-58.1561110370406,-32.2113415256774]]},"properties":{"tension_kv":33,"tension_raw":"33","source":"ENERSA","dataset":"redes-distribucion-media-tension","clipped_to":"colon_ejido_secciones"}},{"type":"Feature","geometry":{"type":"LineString","coordinates":[[-58.1550201534144,-32.2124416864972],[-58.1555599841988,-32.2119007531957]]},"properties":{"tension_kv":33,"tension_raw":"33","source":"ENERSA","dataset":"redes-distribucion-media-tension","clipped_to":"colon_ejido_secciones"}},{"type":"Feature","geometry":{"type":"LineString","coordinates":[[-58.1544720341298,-32.2129894204406],[-58.1550201534144,-32.2124416864972]]},"properties":{"tension_kv":33,"tension_raw":"33","source":"ENERSA","dataset":"redes-distribucion-media-tension","clipped_to":"colon_ejido_secciones"}},{"type":"Feature","geometry":{"type":"LineString","coordinates":[[-58.1539992214508,-32.2134344794504],[-58.1544720341298,-32.2129894204406]]},"properties":{"tension_kv":33,"tension_raw":"33","source":"ENERSA","dataset":"redes-distribucion-media-tension","clipped_to":"colon_ejido_secciones"}},{"type":"Feature","geometry":{"type":"LineString","coordinates":[[-58.1534878328119,-32.2139089506145],[-58.1539992214508,-32.2134344794504]]},"properties":{"tension_kv":33,"tension_raw":"33","source":"ENERSA","dataset":"redes-distribucion-media-tension","clipped_to":"colon_ejido_secciones"}},{"type":"Feature","geometry":{"type":"LineString","coordinates":[[-58.1528326351307,-32.2145196838094],[-58.1534878328119,-32.2139089506145]]},"properties":{"tension_kv":33,"tension_raw":"33","source":"ENERSA","dataset":"redes-distribucion-media-tension","clipped_to":"colon_ejido_secciones"}},{"type":"Feature","geometry":{"type":"LineString","coordinates":[[-58.1527278117914,-32.2148449037185],[-58.1528326351307,-32.2145196838094]]},"properties":{"tension_kv":33,"tension_raw":"33","source":"ENERSA","dataset":"redes-distribucion-media-tension","clipped_to":"colon_ejido_secciones"}},{"type":"Feature","geometry":{"type":"LineString","coordinates":[[-58.1525462190247,-32.2161944897501],[-58.1527278117914,-32.2148449037185]]},"properties":{"tension_kv":33,"tension_raw":"33","source":"ENERSA","dataset":"redes-distribucion-media-tension","clipped_to":"colon_ejido_secciones"}},{"type":"Feature","geometry":{"type":"LineString","coordinates":[[-58.1523654710978,-32.2175533738048],[-58.1525462190247,-32.2161944897501]]},"properties":{"tension_kv":33,"tension_raw":"33","source":"ENERSA","dataset":"redes-distribucion-media-tension","clipped_to":"colon_ejido_secciones"}}]}