{"type":"FeatureCollection","features":[{"type":"Feature","geometry":{"type":"LineString","coordinates":[[-58.3100009046406,-32.251546341331476],[-58.30093152733117,-32.27420477770554],[-58.30071116962673,-32.27457590547364],[-58.29716964071793,-32.283696161192275],[-58.29080991123247,-32.2841886473245],[-58.285566136254644,-32.28269350273921],[-58.27476503656509,-32.28401409522517],[-58.25788583977185,-32.2773258460566],[-58.2576191150491,-32.27736487666813],[-58.25725260136779,-32.27814232981508],[-58.257413950358185,-32.27999625113414],[-58.25800888050021,-32.28139646701064],[-58.2580773617572,-32.28176296076727],[-58.25801900594404,-32.282476722897606],[-58.25768291609478,-32.282940307790255],[-58.25736923621176,-32.283017077130545],[-58.25695843924941,-32.28354976793016],[-58.257203292406544,-32.28442306113579],[-58.25756627200595,-32.28528815629057],[-58.25759205183485,-32.28633785009116],[-58.25876885228506,-32.28750782299019],[-58.25873228665321,-32.28768587629922],[-58.25772959170355,-32.28823122758132],[-58.25762659286571,-32.28835558477949],[-58.25765657071466,-32.28850526461228],[-58.2581367338875,-32.28915703575574],[-58.259145608104326,-32.290057975026045],[-58.25852808640709,-32.29043929892576],[-58.25817546094196,-32.291146088496205],[-58.25831091281335,-32.29129742323661],[-58.25897182299305,-32.29143388109811],[-58.259282416089796,-32.291864028995086],[-58.26015000277358,-32.292279720373045],[-58.26006518572604,-32.292681161667055],[-58.25964448726928,-32.29358311390481],[-58.25975780880461,-32.293801343266104],[-58.25952498495609,-32.294056175799625],[-58.25920539290661,-32.29473291643924],[-58.25883241193495,-32.295207333688865],[-58.25802133210472,-32.29541678542449],[-58.257812719020215,-32.295592390634916],[-58.25719054064415,-32.29766642635319],[-58.25607639089201,-32.298817994517925],[-58.25567997369732,-32.29908021780403],[-58.25520664857986,-32.29926089331727],[-58.25417415718597,-32.2999137548139],[-58.25392556236978,-32.3003023807226],[-58.253599471655974,-32.30113648077503],[-58.253015283854765,-32.30172520939654],[-58.25230635732776,-32.30209145230529],[-58.24819060413842,-32.30123340682233],[-58.24794476133794,-32.30131641798236],[-58.24794386604456,-32.30154018247533],[-58.24970615843578,-32.30376340463819],[-58.24986283429992,-32.304066405950515],[-58.24962949785598,-32.304434198065906],[-58.24961511496551,-32.305311804378405],[-58.249523370927164,-32.30560260573666],[-58.249246789295306,-32.30584799407918],[-58.249021327332684,-32.30588700361929],[-58.24857741008998,-32.30613428997601],[-58.247488948149105,-32.30646468414104],[-58.24699697555246,-32.306840145755146],[-58.246910895189494,-32.3070083365724],[-58.246597141712826,-32.308393145575955],[-58.24617297249814,-32.30951029535575],[-58.24596733611212,-32.31121318666906],[-58.2459810414217,-32.31170753836549],[-58.246235997642565,-32.31223144915134],[-58.246533661310096,-32.31229872625224],[-58.24652762456115,-32.31251387847889],[-58.24668494751237,-32.31282661931582],[-58.246665088232604,-32.31301139547301],[-58.24644059420681,-32.313227170833734],[-58.24615374048064,-32.31335820775013],[-58.2457163251021,-32.31340693320553],[-58.245284302692006,-32.31331339709147],[-58.244866973865406,-32.31342777498204],[-58.24454040196978,-32.313681026518815],[-58.24448926843054,-32.313983185537836],[-58.24438448764474,-32.314109990704765],[-58.2439347793499,-32.3144074699608],[-58.242710842681824,-32.31477547923829],[-58.24138058190094,-32.315605944701645],[-58.24105988751763,-32.31618034779059],[-58.24094771688814,-32.31726050157236],[-58.240457660159166,-32.317969725930105],[-58.24007495600038,-32.31872008099904],[-58.239783097366754,-32.31910095953243],[-58.23942349871274,-32.319354981305956],[-58.238201600063,-32.31993063666461],[-58.23785215589725,-32.32043075163153],[-58.23685768990927,-32.321490183684006],[-58.23643352054079,-32.3226430002048],[-58.236334045740904,-32.32332228356173],[-58.23620278402403,-32.323651532312866],[-58.2358370371176,-32.32400069764476],[-58.23498688218193,-32.324097979928965],[-58.234523895026825,-32.32401492994393],[-58.233103148201415,-32.32405703582176],[-58.23285185553009,-32.32394627522167],[-58.23264166581242,-32.32401298765174],[-58.23184614252931,-32.32378320130643],[-58.23076125196176,-32.32327550375962],[-58.23030168167154,-32.323193135018705],[-58.22972006186425,-32.32331644693169],[-58.22928070903759,-32.32359291856781],[-58.22798406932474,-32.32523902928017],[-58.227763450386135,-32.32570831888707],[-58.227336176787,-32.32608015874113],[-58.22709527519002,-32.32645632288747],[-58.22703534330941,-32.32675628253365],[-58.227211655937005,-32.32724084146464],[-58.22747332422395,-32.327549550560384],[-58.227907556439085,-32.327835998030125],[-58.22805202647102,-32.32807098066881],[-58.228058554628795,-32.328249786856404],[-58.22753368347696,-32.32872176623353],[-58.227156267013704,-32.32892617372516],[-58.226516796921075,-32.32944558782119],[-58.22634944909903,-32.32989281944729],[-58.22629447787006,-32.330687437623595],[-58.22608022907551,-32.33080143048671],[-58.22571591116928,-32.33073775132177],[-58.225532884347714,-32.33016560999659],[-58.22536714164354,-32.33003354476304],[-58.22459341156979,-32.330001549526344],[-58.22347080695022,-32.32942706006311],[-58.22304019230125,-32.329125802842896],[-58.2227374806683,-32.3288488342918],[-58.22254084489457,-32.328534057105706],[-58.22265626637224,-32.327388075713166],[-58.22235796616745,-32.326661586399695],[-58.22169155094204,-32.32638097802707],[-58.21994847768696,-32.32504254700957],[-58.21967409737818,-32.32460053629159],[-58.21947817691693,-32.32401308190753],[-58.219177648607925,-32.323654148147654],[-58.21900414160048,-32.32357506838497],[-58.217885927532144,-32.32353396241909],[-58.21775438414984,-32.32340243109219],[-58.21764217721684,-32.32231020803533],[-58.21752204696976,-32.32198955485354],[-58.217231945929655,-32.3215939975789],[-58.216650713922405,-32.32109037376338],[-58.2164423880403,-32.32076571962757],[-58.21674249939212,-32.31952937346435],[-58.21664044687296,-32.318810694465874],[-58.21640440379552,-32.31841654694262],[-58.21602250473189,-32.31805936595567],[-58.21544566857324,-32.31785262555442],[-58.21508515053214,-32.317592981638484],[-58.214773360674464,-32.31683243646932],[-58.21471860528111,-32.316052015712515],[-58.21329763146894,-32.31438163466266],[-58.21267115567406,-32.31313056003182],[-58.21166064009581,-32.312589928086275],[-58.21068123361548,-32.312327950745335],[-58.209738862416486,-32.312277593501896],[-58.20834624436971,-32.31233663013637],[-58.2065439703196,-32.311959325016225],[-58.205977405090955,-32.31175389974834],[-58.20480599382431,-32.31110495825675],[-58.20454435945165,-32.31075208208307],[-58.20404199096999,-32.310432403080554],[-58.20349999883052,-32.30984877795091],[-58.20266262910252,-32.30975526777063],[-58.20203018503838,-32.30986489474807],[-58.20132969498095,-32.30979609823108],[-58.20010361863293,-32.30894149731323],[-58.199211380179094,-32.30860739771857],[-58.19885864587089,-32.30776644332335],[-58.19878299263361,-32.30739745357433],[-58.198455804696295,-32.306908832484226],[-58.19824580711959,-32.30679523058497],[-58.19759082994247,-32.30674357121313],[-58.19724450510048,-32.30653129759492],[-58.19689893761063,-32.30606910849512],[-58.19672733496698,-32.30602495335745],[-58.19547064567047,-32.30616244304036],[-58.192339379270734,-32.30500967415949],[-58.19241986135624,-32.30486466114587],[-58.192024298716824,-32.30438782406777],[-58.19170252427807,-32.30442804797197],[-58.19135782645731,-32.30426091487319],[-58.19074345403769,-32.30371415741219],[-58.19048810794243,-32.303635624548406],[-58.19014942939246,-32.303683294015045],[-58.18988362764878,-32.30334160751066],[-58.18941178787745,-32.30313026883286],[-58.189331538690325,-32.303053476524184],[-58.18927676859294,-32.30274875568202],[-58.18902230728264,-32.302444613009854],[-58.18897597682055,-32.3020707248184],[-58.188776247386976,-32.30198361972691],[-58.18857959241478,-32.30204649847757],[-58.187296190023815,-32.29897018010479],[-58.18734520621114,-32.2963700284834],[-58.178216,-32.295688],[-58.174422,-32.294881],[-58.170549,-32.293906],[-58.170102,-32.292205],[-58.169462,-32.289904],[-58.162771,-32.287032],[-58.163274,-32.288457],[-58.163262,-32.28846],[-58.15977353043242,-32.289056478202724],[-58.15717092304511,-32.28474283260606],[-58.15700325746238,-32.28471650209259],[-58.15255044054074,-32.285420290677145],[-58.1504517395112,-32.28182491346846],[-58.15019092121342,-32.28179532665668],[-58.14819868389462,-32.28262131191204],[-58.14472794950719,-32.276566488165884],[-58.14455540606086,-32.27645661410516],[-58.13824952200423,-32.278644309005514],[-58.1379460007276,-32.277753128468085],[-58.13775458557316,-32.27764573097393],[-58.13666147770934,-32.27778005681264],[-58.13505815241234,-32.27832905465784],[-58.134164724849825,-32.278506054757635],[-58.13076407264045,-32.27852257917132],[-58.12965878668415,-32.2783823753816],[-58.12874615314144,-32.27851683833902],[-58.127711217117806,-32.27896006059472],[-58.12717484649283,-32.2787594947212],[-58.125674426615525,-32.27844458862819],[-58.12473101951781,-32.278489727477044],[-58.12400330585958,-32.2778557838521],[-58.123292004354575,-32.277632741800424],[-58.12310622275946,-32.27764565729923],[-58.12286489479741,-32.27786401169894],[-58.122364016418246,-32.27799727611998],[-58.12218344428679,-32.277984685729066],[-58.121826686657016,-32.27779449820822],[-58.121657825310706,-32.27780339764378],[-58.12136988771209,-32.27807780373206],[-58.12130799450499,-32.27832797828827],[-58.12144698324066,-32.27858437037747],[-58.12190173303737,-32.27891904669567],[-58.1220383701621,-32.27918615942785],[-58.12196812793446,-32.27939332786836],[-58.12144451015325,-32.27962884337164],[-58.121266992464804,-32.28013759384851],[-58.12101485201168,-32.28034847057324],[-58.12059336072257,-32.28052921802712],[-58.12032242297763,-32.28043523079198],[-58.120350264387156,-32.2802366902495],[-58.12023471633446,-32.28009016472023],[-58.11969619421853,-32.279952901247405],[-58.11908517970416,-32.280017209308646],[-58.118851683760845,-32.28028794173457],[-58.11884834047072,-32.281115209996585],[-58.11913207988957,-32.28188891529729],[-58.11963483187835,-32.28270603854592],[-58.1196097611626,-32.282817463636725],[-58.11888139357872,-32.28294390825019],[-58.118350201977336,-32.282855013130266],[-58.11712140258251,-32.28333198701404],[-58.11690969744043,-32.28336131373602],[-58.11667106063897,-32.283283153822154],[-58.116635416704796,-32.28303268935093],[-58.11685353439559,-32.2829491047994],[-58.11693831112452,-32.28281649669051],[-58.11678459820471,-32.282062981561886],[-58.1167696245644,-32.281428487139884],[-58.116270083499316,-32.27950269976043],[-58.11604555618799,-32.27897721680242],[-58.11585523090507,-32.2786844670577],[-58.11571288068606,-32.27860713085198],[-58.114417706164225,-32.278578308091774],[-58.11371825134784,-32.277335815588934],[-58.11375214223353,-32.275471685451826],[-58.113427772388185,-32.27363495128849],[-58.11273155124338,-32.272391115594715],[-58.112764093291496,-32.27056263235384],[-58.111709597015675,-32.268978280006756],[-58.11105157244762,-32.26590517906072],[-58.111063393392,-32.265070523865525],[-58.110846289083895,-32.263819206332506],[-58.11026823356677,-32.2616956604548],[-58.10911016341357,-32.25857430178596],[-58.107924126451735,-32.25734913638745],[-58.10716619577151,-32.25475624774849],[-58.107448568111565,-32.25113259156293],[-58.108297570783456,-32.249092908972266],[-58.108919734595766,-32.248413988735074],[-58.11401467069156,-32.24660016070279],[-58.11685929189579,-32.24612476394972],[-58.11816156763862,-32.245759359127184],[-58.11827888052373,-32.24568626620612],[-58.1189012498434,-32.244733824909446],[-58.11912468472296,-32.24455947233923],[-58.119367798150215,-32.24390200875994],[-58.11990123722793,-32.24314702991346],[-58.12129380490902,-32.24054981378864],[-58.12164145587522,-32.23962849865422],[-58.122719594551214,-32.23733005047473],[-58.12382390393079,-32.235887231936694],[-58.1240560103371,-32.23575306585004],[-58.12429867753533,-32.23542767604056],[-58.12459355792366,-32.23522102887404],[-58.1246076004815,-32.23507128950949],[-58.124486349903925,-32.234951810620174],[-58.12505503714936,-32.23444659395517],[-58.12558603147145,-32.23370887214306],[-58.126118109094165,-32.232419746494955],[-58.12673499935043,-32.23136639424443],[-58.12746522984277,-32.23051689050361],[-58.12808380745019,-32.22954461189854],[-58.12810950796826,-32.229367418397125],[-58.12799854783148,-32.22893796469602],[-58.1277985250569,-32.22860778612874],[-58.12774265476616,-32.2282930533113],[-58.12791806663241,-32.22771365048493],[-58.12820738833827,-32.227321789233635],[-58.127991387885075,-32.226925576012455],[-58.12802199445371,-32.22670206331829],[-58.12812978306858,-32.226493953825475],[-58.128678782540696,-32.22607160614001],[-58.128860919671084,-32.225815282814246],[-58.12937142297888,-32.22544990476487],[-58.12953022632007,-32.2252128673731],[-58.1295325362496,-32.224968075106936],[-58.12992235811323,-32.22470657500225],[-58.13006854702879,-32.22428486685277],[-58.13058194829011,-32.22371862753806],[-58.13057091806152,-32.22343370329397],[-58.13094449876221,-32.22287299315166],[-58.13077602902392,-32.22258242004585],[-58.13125992807284,-32.22201760018181],[-58.131207116845154,-32.221872335294734],[-58.130980348520325,-32.221708481296666],[-58.130988437467124,-32.221383544370234],[-58.131118663940335,-32.220690201894],[-58.13139404975231,-32.219943950027776],[-58.13207238780544,-32.218589618547455],[-58.132645813900304,-32.21791815805609],[-58.1334360199014,-32.21671600865583],[-58.13361527833065,-32.2168179888707],[-58.13382667801022,-32.21678641703378],[-58.13441650495285,-32.21612768033719],[-58.1369415327911,-32.21453641520745],[-58.13705482112155,-32.21465638457652],[-58.1371317542998,-32.21514250327382],[-58.137337071306106,-32.21521999426425],[-58.137518468744545,-32.215140419892286],[-58.13769898112681,-32.214543516545824],[-58.13795259345772,-32.21425143860347],[-58.138137008374,-32.21378677846659],[-58.13896799894799,-32.213239401943405],[-58.141784799200586,-32.21012065606781],[-58.14261049012757,-32.20926877920529],[-58.143272411280115,-32.208698485233995],[-58.14359250954763,-32.20853633471025],[-58.1441988646353,-32.207810642380444],[-58.14473051647179,-32.20704251489856],[-58.144932270809484,-32.206422443104735],[-58.14600479839156,-32.2049690411199],[-58.14620320583845,-32.20455398569668],[-58.14658988740596,-32.204049034877485],[-58.14694544478041,-32.203315998348394],[-58.14732298511132,-32.20294402441947],[-58.148126537688064,-32.20161278762807],[-58.14874761690589,-32.20130409383971],[-58.15058776333138,-32.20120720603254],[-58.15165293334871,-32.2013644756642],[-58.15318097646459,-32.20136131523775],[-58.153858518258644,-32.20170190280356],[-58.15477398801953,-32.202426552828825],[-58.154804516193515,-32.20270047422322],[-58.154665680883284,-32.20304210699914],[-58.15481863427279,-32.20323124248676],[-58.161653083352626,-32.20548283068693],[-58.16188489387223,-32.20569823390204],[-58.18597861514638,-32.21355632297923],[-58.22257174078113,-32.22524324780814],[-58.22497055112055,-32.22587680121173],[-58.22893395180064,-32.2271360258305],[-58.23920793828715,-32.23040586566291],[-58.23953596414471,-32.23064233318888],[-58.255737068832204,-32.23572716314629],[-58.2562485712156,-32.23580541914509],[-58.27756935597131,-32.242057447753],[-58.27774953064052,-32.242048620109486],[-58.27786986326788,-32.24193485463645],[-58.27953833564446,-32.23792611666937],[-58.28246858492491,-32.23878818551898],[-58.28085222608545,-32.242847177672836],[-58.28086444442282,-32.243000550227066],[-58.28095918835774,-32.24308527331269],[-58.3100009046406,-32.251546341331476]]},"properties":{"tipo":"jurisdiccion_municipal","label":"Jurisdiccion Municipal","source_union":"seccion+grupo+manzana+barrios"}}]}