{"type":"FeatureCollection","features":[{"type":"Feature","properties":{},"geometry":{"type":"LineString","coordinates":[[-58.2178327,-32.2782129],[-58.2180901,-32.280279],[-58.218359,-32.2821788],[-58.21842,-32.2829965],[-58.2184204,-32.283373],[-58.2184116,-32.2835201],[-58.2183995,-32.2837234]]}},{"type":"Feature","properties":{},"geometry":{"type":"LineString","coordinates":[[-58.2229961,-32.2252602],[-58.2230763,-32.2262676],[-58.223077,-32.2262767],[-58.2230798,-32.226311],[-58.2230879,-32.2264128],[-58.2232554,-32.2286949],[-58.223388,-32.2305876],[-58.2233895,-32.23061],[-58.2233902,-32.2306195],[-58.2236059,-32.2335537],[-58.2237283,-32.2351626],[-58.223803,-32.2361451],[-58.2238859,-32.2373217],[-58.2239636,-32.2383512],[-58.2239938,-32.2387947],[-58.2239941,-32.2387987],[-58.2241446,-32.2410057],[-58.224297,-32.2429886],[-58.2242971,-32.2429901],[-58.2243345,-32.2434771],[-58.2244788,-32.2454502],[-58.2244788,-32.245451],[-58.2245118,-32.2459019],[-58.2245362,-32.2462027],[-58.2245404,-32.2462548],[-58.224618,-32.2472115],[-58.2246746,-32.2480775],[-58.2246758,-32.2481026],[-58.2246768,-32.2481276],[-58.2246778,-32.2481527],[-58.2246787,-32.2481777],[-58.2246796,-32.2482028],[-58.2246803,-32.2482278],[-58.224681,-32.2482529],[-58.2246815,-32.2482779],[-58.224682,-32.248303],[-58.2246824,-32.248328],[-58.2246827,-32.2483531],[-58.224683,-32.2483782],[-58.2246831,-32.2484032],[-58.2246832,-32.2484283],[-58.2246832,-32.2484533],[-58.2246831,-32.2484784],[-58.2246829,-32.2485035],[-58.2246826,-32.2485285],[-58.2246823,-32.2485536],[-58.2246818,-32.2485786],[-58.2246813,-32.2486037],[-58.2246807,-32.2486287],[-58.22468,-32.2486538],[-58.2246793,-32.2486788],[-58.2246784,-32.2487039],[-58.2246775,-32.2487289],[-58.2246767,-32.2487463],[-58.2246764,-32.248754],[-58.2246753,-32.248779],[-58.2246741,-32.2488041],[-58.2246728,-32.2488291],[-58.2246715,-32.2488541],[-58.22467,-32.2488792],[-58.2246685,-32.2489042],[-58.2246669,-32.2489292],[-58.2246652,-32.2489542],[-58.2246634,-32.2489793],[-58.2246615,-32.2490043],[-58.2246596,-32.2490293],[-58.2246575,-32.2490543],[-58.2246554,-32.2490793],[-58.2246532,-32.2491043],[-58.2246509,-32.2491292],[-58.2246486,-32.2491542],[-58.2246461,-32.2491792],[-58.2246436,-32.2492042],[-58.2246409,-32.2492291],[-58.2246382,-32.2492541],[-58.2246354,-32.249279],[-58.2246326,-32.249304],[-58.2246296,-32.2493289],[-58.2246266,-32.2493538],[-58.2246234,-32.2493787],[-58.2246202,-32.2494036],[-58.2246169,-32.2494286],[-58.2246135,-32.2494535],[-58.2246101,-32.2494783],[-58.2246065,-32.2495032],[-58.2246029,-32.2495281],[-58.2245992,-32.2495529],[-58.2245954,-32.2495778],[-58.2245915,-32.2496026],[-58.2245876,-32.2496275],[-58.2245835,-32.2496523],[-58.2245794,-32.2496771],[-58.2245752,-32.2497019],[-58.2245709,-32.2497267],[-58.2245665,-32.2497515],[-58.224562,-32.2497763],[-58.2245575,-32.249801],[-58.2245529,-32.2498258],[-58.2245481,-32.2498505],[-58.2245433,-32.2498752],[-58.2245385,-32.2498999],[-58.2245335,-32.2499247],[-58.2245285,-32.2499493],[-58.2245233,-32.249974],[-58.2245181,-32.2499987],[-58.2245128,-32.2500233],[-58.2245074,-32.250048],[-58.224502,-32.2500726],[-58.2244965,-32.2500972],[-58.2244908,-32.2501218],[-58.2244851,-32.2501464],[-58.2244793,-32.250171],[-58.2244735,-32.2501955],[-58.2244675,-32.2502201],[-58.2244615,-32.2502446],[-58.2244553,-32.2502691],[-58.2244491,-32.2502936],[-58.2244429,-32.2503181],[-58.2244365,-32.2503426],[-58.22443,-32.250367],[-58.2244235,-32.2503915],[-58.2244169,-32.2504159],[-58.2244102,-32.2504403],[-58.2244034,-32.2504647],[-58.2243966,-32.2504891],[-58.2243896,-32.2505134],[-58.2243826,-32.2505378],[-58.2243755,-32.2505621],[-58.2243683,-32.2505864],[-58.224361,-32.2506107],[-58.2243537,-32.2506349],[-58.2243465,-32.25066],[-58.2243392,-32.250685],[-58.2243318,-32.25071],[-58.2243243,-32.250735],[-58.2243168,-32.2507599],[-58.2243091,-32.2507849],[-58.2243014,-32.2508098],[-58.2242936,-32.2508347],[-58.2242857,-32.2508596],[-58.2242778,-32.2508845],[-58.2242697,-32.2509093],[-58.2242616,-32.2509341],[-58.2242534,-32.250959],[-58.2242451,-32.2509838],[-58.2242367,-32.2510085],[-58.2242282,-32.2510333],[-58.2242197,-32.251058],[-58.224211,-32.2510827],[-58.2242023,-32.2511074],[-58.2241935,-32.2511321],[-58.2241847,-32.2511567],[-58.2241757,-32.2511813],[-58.2241667,-32.2512059],[-58.2241575,-32.2512305],[-58.2241483,-32.2512551],[-58.2241391,-32.2512796],[-58.2241297,-32.2513041],[-58.2241202,-32.2513286],[-58.2241107,-32.2513531],[-58.2237834,-32.2521226],[-58.2232663,-32.2533519],[-58.2228663,-32.2542975]]}},{"type":"Feature","properties":{},"geometry":{"type":"LineString","coordinates":[[-58.2229583,-32.2540805],[-58.2223227,-32.2555796],[-58.2222887,-32.2556599],[-58.2222799,-32.2556737]]}},{"type":"Feature","properties":{},"geometry":{"type":"LineString","coordinates":[[-58.2222486,-32.2557601],[-58.221108,-32.25845],[-58.2203263,-32.2602859],[-58.2193591,-32.262573],[-58.2185263,-32.2645435],[-58.2183687,-32.2649143],[-58.217411,-32.2671672],[-58.2173549,-32.2673047],[-58.2173453,-32.2673297],[-58.2173358,-32.2673547],[-58.2173263,-32.2673798],[-58.217317,-32.2674048],[-58.2173077,-32.2674299],[-58.2172985,-32.267455],[-58.2172894,-32.2674801],[-58.2172804,-32.2675052],[-58.2172714,-32.2675304],[-58.2172626,-32.2675556],[-58.2172538,-32.2675808],[-58.2172451,-32.267606],[-58.2172365,-32.2676313],[-58.2172279,-32.2676565],[-58.2172195,-32.2676818],[-58.2172111,-32.2677071],[-58.2172028,-32.2677324],[-58.2171946,-32.2677578],[-58.2171865,-32.2677831],[-58.2171784,-32.2678085],[-58.2171704,-32.2678339],[-58.2171626,-32.2678593],[-58.2171548,-32.2678848],[-58.2171471,-32.2679102],[-58.2171394,-32.2679357],[-58.2171319,-32.2679612],[-58.2171244,-32.2679867],[-58.217117,-32.2680122],[-58.2171097,-32.2680377],[-58.2171025,-32.2680633],[-58.2170954,-32.2680889],[-58.2170883,-32.2681145],[-58.2170814,-32.2681401],[-58.2170745,-32.2681657],[-58.2170677,-32.2681913],[-58.217061,-32.268217],[-58.2170543,-32.2682427],[-58.2170478,-32.2682684],[-58.2170413,-32.2682941],[-58.2170349,-32.2683198],[-58.2170286,-32.2683455],[-58.2170224,-32.2683713],[-58.2170163,-32.268397],[-58.2170102,-32.2684228],[-58.2170043,-32.2684486],[-58.2169984,-32.2684744],[-58.2169926,-32.2685002],[-58.2169869,-32.268526],[-58.2169812,-32.2685519],[-58.2169757,-32.2685777],[-58.2169702,-32.2686036],[-58.2169649,-32.2686295],[-58.2169596,-32.2686554],[-58.2169544,-32.2686813],[-58.2169492,-32.2687072],[-58.2169442,-32.2687332],[-58.2169392,-32.2687591],[-58.2169344,-32.2687851],[-58.2169296,-32.268811],[-58.2169249,-32.268837],[-58.2169203,-32.268863],[-58.2169157,-32.268889],[-58.2169113,-32.268915],[-58.2169069,-32.268941],[-58.2169026,-32.2689671],[-58.2168984,-32.2689931],[-58.2168943,-32.2690192],[-58.2168903,-32.2690452],[-58.2168864,-32.2690713],[-58.2168825,-32.2690974],[-58.2168787,-32.2691235],[-58.216875,-32.2691495],[-58.2168714,-32.2691757],[-58.2168679,-32.2692018],[-58.2168645,-32.2692279],[-58.2168611,-32.269254],[-58.2168579,-32.2692802],[-58.2168547,-32.2693063],[-58.2168516,-32.2693324],[-58.2168486,-32.2693586],[-58.2168457,-32.2693848],[-58.2168429,-32.269411],[-58.2168401,-32.2694371],[-58.2168374,-32.2694633],[-58.2168349,-32.2694895],[-58.2168324,-32.2695157],[-58.2168299,-32.2695419],[-58.2168276,-32.2695681],[-58.2168254,-32.2695943],[-58.2168232,-32.2696206],[-58.2168212,-32.2696468],[-58.2168192,-32.269673],[-58.2168173,-32.2696992],[-58.2168155,-32.2697255],[-58.2168137,-32.2697517],[-58.2168121,-32.269778],[-58.2168105,-32.2698042],[-58.2168091,-32.2698305],[-58.2168077,-32.2698567],[-58.2168064,-32.269883],[-58.2168051,-32.2699093],[-58.216804,-32.2699355],[-58.216803,-32.2699618],[-58.216802,-32.2699881],[-58.2168011,-32.2700143],[-58.2168003,-32.2700406],[-58.2167996,-32.2700669],[-58.216799,-32.2700932],[-58.2167985,-32.2701194],[-58.216798,-32.2701457],[-58.2167977,-32.270172],[-58.2167974,-32.2701983],[-58.2167972,-32.2702246],[-58.2167971,-32.2702509],[-58.2167971,-32.2702771],[-58.2167971,-32.2703034],[-58.2167973,-32.2703297],[-58.2167975,-32.270356],[-58.2167979,-32.2703823],[-58.2167982,-32.2704086],[-58.2167987,-32.2704348],[-58.2167993,-32.2704611],[-58.2168,-32.2704874],[-58.2168007,-32.2705137],[-58.2168016,-32.2705399],[-58.2168025,-32.2705662],[-58.2168035,-32.2705925],[-58.2168046,-32.2706188],[-58.2168058,-32.270645],[-58.216807,-32.2706713],[-58.2168084,-32.2706975],[-58.2170286,-32.2724176],[-58.2174114,-32.2751054],[-58.2176853,-32.2770803],[-58.2178339,-32.2782114]]}},{"type":"Feature","properties":{},"geometry":{"type":"LineString","coordinates":[[-58.2184002,-32.2837116],[-58.2183713,-32.2841509],[-58.218275,-32.2847086],[-58.2175945,-32.2876453],[-58.2171,-32.2898193],[-58.2170867,-32.2898779],[-58.2170691,-32.2899553],[-58.2162866,-32.293396],[-58.2159393,-32.294966],[-58.2158308,-32.2955445],[-58.2157437,-32.2964085],[-58.2157378,-32.2986481],[-58.215731,-32.301046],[-58.2157473,-32.3036808],[-58.215755,-32.3062089],[-58.2157646,-32.3091942],[-58.2157136,-32.3101459],[-58.2155251,-32.3112407],[-58.2149878,-32.3131124],[-58.2144266,-32.3151843],[-58.2143859,-32.3154562],[-58.214382,-32.3154817],[-58.2143781,-32.3155071],[-58.2143742,-32.3155326],[-58.2143705,-32.315558],[-58.2143669,-32.3155835],[-58.2143633,-32.315609],[-58.2143599,-32.3156345],[-58.2143565,-32.31566],[-58.2143532,-32.3156855],[-58.2143499,-32.315711],[-58.2143468,-32.3157365],[-58.2143438,-32.315762],[-58.2143408,-32.3157876],[-58.2143379,-32.3158131],[-58.2143351,-32.3158387],[-58.2143324,-32.3158642],[-58.2143298,-32.3158898],[-58.2143272,-32.3159154],[-58.2143248,-32.3159409],[-58.2143224,-32.3159665],[-58.2143201,-32.3159921],[-58.2143179,-32.3160177],[-58.2143158,-32.3160433],[-58.2143138,-32.3160689],[-58.2143119,-32.3160945],[-58.21431,-32.3161201],[-58.2143082,-32.3161457],[-58.2143065,-32.3161713],[-58.2143049,-32.316197],[-58.2143034,-32.3162226],[-58.214302,-32.3162482],[-58.2143006,-32.3162738],[-58.2142994,-32.3162995],[-58.2142982,-32.3163251],[-58.2142971,-32.3163508],[-58.2142961,-32.3163764],[-58.2142952,-32.3164021],[-58.2142943,-32.3164277],[-58.2142936,-32.3164534],[-58.2142929,-32.316479],[-58.2142923,-32.3165047],[-58.2142919,-32.3165303],[-58.2142914,-32.316556],[-58.2142911,-32.3165816],[-58.2142909,-32.3166073],[-58.2142907,-32.3166329],[-58.2142907,-32.3166586],[-58.2142907,-32.3166843],[-58.2142908,-32.3167099],[-58.214291,-32.3167356],[-58.2142912,-32.3167612],[-58.2142916,-32.3167869],[-58.214292,-32.3168125],[-58.2142926,-32.3168382],[-58.2142932,-32.3168639],[-58.2142939,-32.3168895],[-58.2142947,-32.3169152],[-58.2142955,-32.3169408],[-58.2142965,-32.3169665],[-58.2142975,-32.3169921],[-58.2142986,-32.3170177],[-58.2142999,-32.3170434],[-58.2143012,-32.317069],[-58.2143025,-32.3170946],[-58.214304,-32.3171203],[-58.2143055,-32.3171459],[-58.2143072,-32.3171715],[-58.2143089,-32.3171971],[-58.2143107,-32.3172227],[-58.2143126,-32.3172484],[-58.2143146,-32.317274],[-58.2143166,-32.3172996],[-58.2143188,-32.3173252],[-58.214321,-32.3173507],[-58.2143233,-32.3173763],[-58.2143258,-32.3174019],[-58.2143282,-32.3174275],[-58.2143308,-32.317453],[-58.2143335,-32.3174786],[-58.2143362,-32.3175041],[-58.214339,-32.3175297],[-58.2143419,-32.3175552],[-58.2143449,-32.3175808],[-58.214348,-32.3176063],[-58.2143512,-32.3176318],[-58.2143544,-32.3176573],[-58.2143578,-32.3176828],[-58.2143612,-32.3177083],[-58.2143647,-32.3177338],[-58.2143678,-32.3177555]]}},{"type":"Feature","properties":{},"geometry":{"type":"LineString","coordinates":[[-58.2157802,-32.3212487],[-58.2164422,-32.3221439],[-58.2174077,-32.3233059],[-58.2187811,-32.3249667],[-58.2195127,-32.3258607],[-58.2206052,-32.3271951],[-58.2210414,-32.3277988],[-58.2210564,-32.327821],[-58.2210712,-32.3278432],[-58.221086,-32.3278655],[-58.2211008,-32.3278878],[-58.2211154,-32.3279101],[-58.22113,-32.3279325],[-58.2211445,-32.3279549],[-58.2211589,-32.3279773],[-58.2211733,-32.3279998],[-58.2211876,-32.3280223],[-58.2212018,-32.3280448],[-58.2212159,-32.3280674],[-58.22123,-32.32809],[-58.221244,-32.3281127],[-58.2212579,-32.3281353],[-58.2212717,-32.328158],[-58.2212854,-32.3281808],[-58.2212991,-32.3282036],[-58.2213127,-32.3282264],[-58.2213262,-32.3282492],[-58.2213397,-32.3282721],[-58.2213531,-32.328295],[-58.2213664,-32.3283179],[-58.2213796,-32.3283409],[-58.2213927,-32.3283639],[-58.2214058,-32.3283869],[-58.2214188,-32.32841],[-58.2214317,-32.3284331],[-58.2214445,-32.3284562],[-58.2214573,-32.3284794],[-58.2214699,-32.3285026],[-58.2214826,-32.3285258],[-58.2214951,-32.328549],[-58.2215075,-32.3285723],[-58.2215199,-32.3285956],[-58.2215322,-32.328619],[-58.2215444,-32.3286423],[-58.2215565,-32.3286657],[-58.2215686,-32.3286891],[-58.2215806,-32.3287126],[-58.2215925,-32.3287361],[-58.2216043,-32.3287596],[-58.221616,-32.3287831],[-58.2216277,-32.3288067],[-58.2216393,-32.3288303],[-58.2216508,-32.3288539],[-58.2216622,-32.3288776],[-58.2216736,-32.3289013],[-58.2216848,-32.328925],[-58.221696,-32.3289487],[-58.2217072,-32.3289725],[-58.2217182,-32.3289962],[-58.2217291,-32.3290201],[-58.22174,-32.3290439],[-58.2217508,-32.3290678],[-58.2217615,-32.3290917],[-58.2217722,-32.3291156],[-58.2217827,-32.3291395],[-58.2217932,-32.3291635],[-58.2218036,-32.3291875],[-58.2218139,-32.3292115],[-58.2218241,-32.3292355],[-58.2218343,-32.3292596],[-58.2218444,-32.3292837],[-58.2218544,-32.3293078],[-58.2218643,-32.3293319],[-58.2218741,-32.3293561],[-58.2218839,-32.3293803],[-58.2218935,-32.3294045],[-58.2219031,-32.3294287],[-58.2219126,-32.329453],[-58.2219221,-32.3294773],[-58.2219314,-32.3295016],[-58.2219407,-32.3295259],[-58.2219499,-32.3295502],[-58.221959,-32.3295746],[-58.221968,-32.329599],[-58.2219769,-32.3296234],[-58.2219858,-32.3296479],[-58.2219946,-32.3296723],[-58.2220033,-32.3296968],[-58.2220119,-32.3297213],[-58.2220204,-32.3297458],[-58.2220289,-32.3297703],[-58.2220373,-32.3297949],[-58.2220455,-32.3298195],[-58.2220537,-32.3298441],[-58.2220619,-32.3298687],[-58.2220699,-32.3298933],[-58.2220779,-32.329918],[-58.2220858,-32.3299426],[-58.2220935,-32.3299673],[-58.2221013,-32.3299921],[-58.2221089,-32.3300168],[-58.2221164,-32.3300415],[-58.2221239,-32.3300663],[-58.2221313,-32.3300911],[-58.2221386,-32.3301159],[-58.2221458,-32.3301407],[-58.2221529,-32.3301655],[-58.22216,-32.3301904],[-58.222167,-32.3302153],[-58.2221738,-32.3302402],[-58.2221806,-32.3302651],[-58.2221874,-32.33029],[-58.222194,-32.3303149],[-58.2222006,-32.3303399],[-58.222207,-32.3303648],[-58.2222134,-32.3303898],[-58.2222197,-32.3304148],[-58.222226,-32.3304404],[-58.2222321,-32.3304659],[-58.2222382,-32.3304914],[-58.2222442,-32.330517],[-58.2222501,-32.3305426],[-58.222256,-32.3305682],[-58.2222617,-32.3305938],[-58.2222674,-32.3306194],[-58.222273,-32.3306451],[-58.2222785,-32.3306707],[-58.2222839,-32.3306964],[-58.2222892,-32.3307221],[-58.2222945,-32.3307477],[-58.2222996,-32.3307734],[-58.2223047,-32.3307992],[-58.2223097,-32.3308249],[-58.2223147,-32.3308506],[-58.2223195,-32.3308764],[-58.2223242,-32.3309021],[-58.2223289,-32.3309279],[-58.2223335,-32.3309537],[-58.222338,-32.3309795],[-58.2223424,-32.3310053],[-58.2223467,-32.3310311],[-58.222351,-32.3310569],[-58.2223552,-32.3310827],[-58.2223592,-32.3311086],[-58.2223632,-32.3311344],[-58.2223671,-32.3311603],[-58.222371,-32.3311862],[-58.2223747,-32.331212],[-58.2223784,-32.3312379],[-58.222382,-32.3312638],[-58.2223855,-32.3312897],[-58.2223889,-32.3313156],[-58.2223922,-32.3313415],[-58.2223954,-32.3313675],[-58.2223986,-32.3313934],[-58.2224017,-32.3314193],[-58.2224047,-32.3314453],[-58.2224076,-32.3314712],[-58.2224104,-32.3314972],[-58.2224131,-32.3315232],[-58.2224158,-32.3315492],[-58.2224183,-32.3315751],[-58.2224208,-32.3316011],[-58.2224232,-32.3316271],[-58.2224255,-32.3316531],[-58.2224278,-32.3316791],[-58.2224299,-32.3317051],[-58.222432,-32.3317311],[-58.222434,-32.3317572],[-58.2224358,-32.3317832],[-58.2224377,-32.3318092],[-58.2224394,-32.3318352],[-58.2224402,-32.3318482],[-58.222441,-32.3318613],[-58.2224426,-32.3318873],[-58.2224439,-32.3319118],[-58.222444,-32.3319134],[-58.2224454,-32.3319394],[-58.2224467,-32.3319654],[-58.2224479,-32.3319915],[-58.2224491,-32.3320176],[-58.2224501,-32.3320436],[-58.2224511,-32.3320697],[-58.2224512,-32.3320743]]}}]}