{"type":"FeatureCollection","features":[{"type":"Feature","geometry":{"type":"LineString","coordinates":[[-58.13371146515254,-32.22095396325619],[-58.1329991888595,-32.22168706416469]]},"properties":{"ZONA_TRIB":"ZONA_1_EJE","TIPO":"EJE_CALLE","CALLE":"J. J. PASO","FUENTE_NORMA":"Art. 225","OBS":"Eje vial tributario de referencia legal"}},{"type":"Feature","geometry":{"type":"LineString","coordinates":[[-58.14999021460114,-32.217187191365454],[-58.150720404292706,-32.216443473549695]]},"properties":{"ZONA_TRIB":"ZONA_1_EJE","TIPO":"EJE_CALLE","CALLE":"PRESIDENTE PERON","FUENTE_NORMA":"Art. 225","OBS":"Eje vial tributario de referencia legal"}},{"type":"Feature","geometry":{"type":"LineString","coordinates":[[-58.14861103983595,-32.218708320495466],[-58.1486100351666,-32.218757878455314],[-58.14792945288662,-32.21944946922644],[-58.14785637203993,-32.21945829669344]]},"properties":{"ZONA_TRIB":"ZONA_1_EJE","TIPO":"EJE_CALLE","CALLE":"PRESIDENTE PERON","FUENTE_NORMA":"Art. 225","OBS":"Eje vial tributario de referencia legal"}},{"type":"Feature","geometry":{"type":"LineString","coordinates":[[-58.14498565961709,-32.22236205050889],[-58.144987095548515,-32.22227966880879],[-58.14560344676776,-32.221669904209215],[-58.14569626408784,-32.221645588064455]]},"properties":{"ZONA_TRIB":"ZONA_1_EJE","TIPO":"EJE_CALLE","CALLE":"PRESIDENTE PERON","FUENTE_NORMA":"Art. 225","OBS":"Eje vial tributario de referencia legal"}},{"type":"Feature","geometry":{"type":"LineString","coordinates":[[-58.15187467700782,-32.22981897865856],[-58.15188952838464,-32.229901471716936],[-58.15261366447999,-32.23042035956571],[-58.152731041508964,-32.23042543919383]]},"properties":{"ZONA_TRIB":"ZONA_1_EJE","TIPO":"EJE_CALLE","CALLE":"SAN MARTIN","FUENTE_NORMA":"Art. 225","OBS":"Eje vial tributario de referencia legal"}},{"type":"Feature","geometry":{"type":"LineString","coordinates":[[-58.152731041508964,-32.23042543919383],[-58.15273559998309,-32.23051328525133],[-58.1534964546997,-32.23105373792738],[-58.15358871914001,-32.23105508631093]]},"properties":{"ZONA_TRIB":"ZONA_1_EJE","TIPO":"EJE_CALLE","CALLE":"SAN MARTIN","FUENTE_NORMA":"Art. 225","OBS":"Eje vial tributario de referencia legal"}},{"type":"Feature","geometry":{"type":"LineString","coordinates":[[-58.15616509026689,-32.232909774012484],[-58.15607423524309,-32.232938130246005],[-58.15532649922626,-32.23238318289186],[-58.15530368035553,-32.23231001843819]]},"properties":{"ZONA_TRIB":"ZONA_1_EJE","TIPO":"EJE_CALLE","CALLE":"SAN MARTIN","FUENTE_NORMA":"Art. 225","OBS":"Eje vial tributario de referencia legal"}},{"type":"Feature","geometry":{"type":"LineString","coordinates":[[-58.15706394751334,-32.23355511970353],[-58.15693406063675,-32.23354042580811],[-58.15614335787712,-32.232980284524096],[-58.15616509026689,-32.232909774012484]]},"properties":{"ZONA_TRIB":"ZONA_1_EJE","TIPO":"EJE_CALLE","CALLE":"SAN MARTIN","FUENTE_NORMA":"Art. 225","OBS":"Eje vial tributario de referencia legal"}},{"type":"Feature","geometry":{"type":"LineString","coordinates":[[-58.15359780567084,-32.23104607367304],[-58.153632864980516,-32.23114868491366],[-58.15436363549668,-32.23167492528116],[-58.15445630762207,-32.231676279000034]]},"properties":{"ZONA_TRIB":"ZONA_1_EJE","TIPO":"EJE_CALLE","CALLE":"SAN MARTIN","FUENTE_NORMA":"Art. 225","OBS":"Eje vial tributario de referencia legal"}},{"type":"Feature","geometry":{"type":"LineString","coordinates":[[-58.15100313799115,-32.22918559708253],[-58.15100158297745,-32.22926237026531],[-58.151774671868644,-32.22984267154492],[-58.15187467700782,-32.22981897865856]]},"properties":{"ZONA_TRIB":"ZONA_1_EJE","TIPO":"EJE_CALLE","CALLE":"SAN MARTIN","FUENTE_NORMA":"Art. 225","OBS":"Eje vial tributario de referencia legal"}},{"type":"Feature","geometry":{"type":"LineString","coordinates":[[-58.15100313799115,-32.22918559708253],[-58.15009915470746,-32.228616768275685]]},"properties":{"ZONA_TRIB":"ZONA_1_EJE","TIPO":"EJE_CALLE","CALLE":"SAN MARTIN","FUENTE_NORMA":"Art. 225","OBS":"Eje vial tributario de referencia legal"}},{"type":"Feature","geometry":{"type":"LineString","coordinates":[[-58.15155720240188,-32.21580111089581],[-58.15085801682807,-32.21649369836135]]},"properties":{"ZONA_TRIB":"ZONA_1_EJE","TIPO":"EJE_CALLE","CALLE":"PRESIDENTE PERON","FUENTE_NORMA":"Art. 225","OBS":"Eje vial tributario de referencia legal"}},{"type":"Feature","geometry":{"type":"LineString","coordinates":[[-58.15315314754164,-32.214173259544324],[-58.15155720240188,-32.21580111089581]]},"properties":{"ZONA_TRIB":"ZONA_1_EJE","TIPO":"EJE_CALLE","CALLE":"PRESIDENTE PERON","FUENTE_NORMA":"Art. 225","OBS":"Eje vial tributario de referencia legal"}},{"type":"Feature","geometry":{"type":"LineString","coordinates":[[-58.152163727662106,-32.215145471092036],[-58.151419940315265,-32.21587254798094]]},"properties":{"ZONA_TRIB":"ZONA_1_EJE","TIPO":"EJE_CALLE","CALLE":"PRESIDENTE PERON","FUENTE_NORMA":"Art. 225","OBS":"Eje vial tributario de referencia legal"}},{"type":"Feature","geometry":{"type":"LineString","coordinates":[[-58.151419940315265,-32.21587254798094],[-58.15080012638961,-32.21650004050982]]},"properties":{"ZONA_TRIB":"ZONA_1_EJE","TIPO":"EJE_CALLE","CALLE":"PRESIDENTE PERON","FUENTE_NORMA":"Art. 225","OBS":"Eje vial tributario de referencia legal"}},{"type":"Feature","geometry":{"type":"LineString","coordinates":[[-58.149234583074524,-32.2279706441434],[-58.14835938984706,-32.22732942052814]]},"properties":{"ZONA_TRIB":"ZONA_1_EJE","TIPO":"EJE_CALLE","CALLE":"SAN MARTIN","FUENTE_NORMA":"Art. 225","OBS":"Eje vial tributario de referencia legal"}},{"type":"Feature","geometry":{"type":"LineString","coordinates":[[-58.14999021460114,-32.217187191365454],[-58.14927131850946,-32.21792824637001]]},"properties":{"ZONA_TRIB":"ZONA_1_EJE","TIPO":"EJE_CALLE","CALLE":"PRESIDENTE PERON","FUENTE_NORMA":"Art. 225","OBS":"Eje vial tributario de referencia legal"}},{"type":"Feature","geometry":{"type":"LineString","coordinates":[[-58.157643108130934,-32.23402539778381],[-58.158632161906574,-32.23456240595274]]},"properties":{"ZONA_TRIB":"ZONA_1_EJE","TIPO":"EJE_CALLE","CALLE":"SAN MARTIN","FUENTE_NORMA":"Art. 225","OBS":"Eje vial tributario de referencia legal"}},{"type":"Feature","geometry":{"type":"LineString","coordinates":[[-58.13197762039385,-32.22414193465113],[-58.13195343488532,-32.22439311371234],[-58.131998354901604,-32.22458220805614],[-58.13250297096712,-32.225079438724016]]},"properties":{"ZONA_TRIB":"ZONA_1_EJE","TIPO":"EJE_CALLE","CALLE":"AVDA. QUIROS   SUR","FUENTE_NORMA":"Art. 225","OBS":"Eje vial tributario de referencia legal"}},{"type":"Feature","geometry":{"type":"LineString","coordinates":[[-58.132142314179255,-32.2224554446175],[-58.132072448114634,-32.22349498127169]]},"properties":{"ZONA_TRIB":"ZONA_1_EJE","TIPO":"EJE_CALLE","CALLE":"AVDA. QUIROS   SUR","FUENTE_NORMA":"Art. 225","OBS":"Eje vial tributario de referencia legal"}},{"type":"Feature","geometry":{"type":"LineString","coordinates":[[-58.132142314179255,-32.2224554446175],[-58.13153376044572,-32.22314569417473]]},"properties":{"ZONA_TRIB":"ZONA_1_EJE","TIPO":"EJE_CALLE","CALLE":"J. J. PASO","FUENTE_NORMA":"Art. 225","OBS":"Eje vial tributario de referencia legal"}},{"type":"Feature","geometry":{"type":"LineString","coordinates":[[-58.13370538420438,-32.21796402480594],[-58.13321212847189,-32.21848090723146]]},"properties":{"ZONA_TRIB":"ZONA_1_EJE","TIPO":"EJE_CALLE","CALLE":"AVDA. QUIROS   SUR","FUENTE_NORMA":"Art. 225","OBS":"Eje vial tributario de referencia legal"}},{"type":"Feature","geometry":{"type":"LineString","coordinates":[[-58.157643108130934,-32.23402539778381],[-58.15734569324739,-32.23375836430101],[-58.15706394751334,-32.23355511970353]]},"properties":{"ZONA_TRIB":"ZONA_1_EJE","TIPO":"EJE_CALLE","CALLE":"SAN MARTIN","FUENTE_NORMA":"Art. 225","OBS":"Eje vial tributario de referencia legal"}},{"type":"Feature","geometry":{"type":"LineString","coordinates":[[-58.15706394751334,-32.23355511970353],[-58.15668493200986,-32.23328170466627],[-58.15616509026689,-32.232909774012484]]},"properties":{"ZONA_TRIB":"ZONA_1_EJE","TIPO":"EJE_CALLE","CALLE":"SAN MARTIN","FUENTE_NORMA":"Art. 225","OBS":"Eje vial tributario de referencia legal"}},{"type":"Feature","geometry":{"type":"LineString","coordinates":[[-58.15616509026689,-32.232909774012484],[-58.15593626819528,-32.2327460573092],[-58.15531603636253,-32.23229759699412]]},"properties":{"ZONA_TRIB":"ZONA_1_EJE","TIPO":"EJE_CALLE","CALLE":"SAN MARTIN","FUENTE_NORMA":"Art. 225","OBS":"Eje vial tributario de referencia legal"}},{"type":"Feature","geometry":{"type":"LineString","coordinates":[[-58.15531603636253,-32.23229759699412],[-58.154934729273556,-32.23202188824627],[-58.15445745770842,-32.231677109821476]]},"properties":{"ZONA_TRIB":"ZONA_1_EJE","TIPO":"EJE_CALLE","CALLE":"SAN MARTIN","FUENTE_NORMA":"Art. 225","OBS":"Eje vial tributario de referencia legal"}},{"type":"Feature","geometry":{"type":"LineString","coordinates":[[-58.15445745770842,-32.231677109821476],[-58.15370424264323,-32.23113298251521],[-58.153592263022574,-32.23105157124801]]},"properties":{"ZONA_TRIB":"ZONA_1_EJE","TIPO":"EJE_CALLE","CALLE":"SAN MARTIN","FUENTE_NORMA":"Art. 225","OBS":"Eje vial tributario de referencia legal"}},{"type":"Feature","geometry":{"type":"LineString","coordinates":[[-58.153592263022574,-32.23105157124801],[-58.152731041508964,-32.23042543919383]]},"properties":{"ZONA_TRIB":"ZONA_1_EJE","TIPO":"EJE_CALLE","CALLE":"SAN MARTIN","FUENTE_NORMA":"Art. 225","OBS":"Eje vial tributario de referencia legal"}},{"type":"Feature","geometry":{"type":"LineString","coordinates":[[-58.152731041508964,-32.23042543919383],[-58.151875652769526,-32.22981968777483],[-58.15187467700782,-32.22981897865856]]},"properties":{"ZONA_TRIB":"ZONA_1_EJE","TIPO":"EJE_CALLE","CALLE":"SAN MARTIN","FUENTE_NORMA":"Art. 225","OBS":"Eje vial tributario de referencia legal"}},{"type":"Feature","geometry":{"type":"LineString","coordinates":[[-58.13197762039385,-32.22414193465113],[-58.132072448114634,-32.22349498127169]]},"properties":{"ZONA_TRIB":"ZONA_1_EJE","TIPO":"EJE_CALLE","CALLE":"AVDA. QUIROS   SUR","FUENTE_NORMA":"Art. 225","OBS":"Eje vial tributario de referencia legal"}},{"type":"Feature","geometry":{"type":"LineString","coordinates":[[-58.13321212847189,-32.21848090723146],[-58.13306878362773,-32.21864037458179],[-58.13294477814188,-32.21887015803419],[-58.132855449946966,-32.21909713015129]]},"properties":{"ZONA_TRIB":"ZONA_1_EJE","TIPO":"EJE_CALLE","CALLE":"AVDA. QUIROS   SUR","FUENTE_NORMA":"Art. 225","OBS":"Eje vial tributario de referencia legal"}},{"type":"Feature","geometry":{"type":"LineString","coordinates":[[-58.14569608367504,-32.22164576996652],[-58.14498565961709,-32.22236205050889],[-58.1449854170325,-32.2223622926449]]},"properties":{"ZONA_TRIB":"ZONA_1_EJE","TIPO":"EJE_CALLE","CALLE":"PRESIDENTE PERON","FUENTE_NORMA":"Art. 225","OBS":"Eje vial tributario de referencia legal"}},{"type":"Feature","geometry":{"type":"LineString","coordinates":[[-58.1449855469595,-32.222362162958134],[-58.14425523156974,-32.223091119467966]]},"properties":{"ZONA_TRIB":"ZONA_1_EJE","TIPO":"EJE_CALLE","CALLE":"PRESIDENTE PERON","FUENTE_NORMA":"Art. 225","OBS":"Eje vial tributario de referencia legal"}},{"type":"Feature","geometry":{"type":"LineString","coordinates":[[-58.14425523156974,-32.223091119467966],[-58.143539811213955,-32.22380519269826],[-58.14352803872457,-32.223816942888064]]},"properties":{"ZONA_TRIB":"ZONA_1_EJE","TIPO":"EJE_CALLE","CALLE":"PRESIDENTE PERON","FUENTE_NORMA":"Art. 225","OBS":"Eje vial tributario de referencia legal"}},{"type":"Feature","geometry":{"type":"LineString","coordinates":[[-58.14352803872457,-32.223816942888064],[-58.14352714244684,-32.22381783746784],[-58.14281316287435,-32.22453791037249]]},"properties":{"ZONA_TRIB":"ZONA_1_EJE","TIPO":"EJE_CALLE","CALLE":"PRESIDENTE PERON","FUENTE_NORMA":"Art. 225","OBS":"Eje vial tributario de referencia legal"}},{"type":"Feature","geometry":{"type":"LineString","coordinates":[[-58.146406241123024,-32.22092974242865],[-58.14569608367504,-32.22164576996652]]},"properties":{"ZONA_TRIB":"ZONA_1_EJE","TIPO":"EJE_CALLE","CALLE":"PRESIDENTE PERON","FUENTE_NORMA":"Art. 225","OBS":"Eje vial tributario de referencia legal"}},{"type":"Feature","geometry":{"type":"LineString","coordinates":[[-58.14785637203993,-32.21945829669344],[-58.1471190794246,-32.22021528204783],[-58.147118902888664,-32.22021545897738]]},"properties":{"ZONA_TRIB":"ZONA_1_EJE","TIPO":"EJE_CALLE","CALLE":"PRESIDENTE PERON","FUENTE_NORMA":"Art. 225","OBS":"Eje vial tributario de referencia legal"}},{"type":"Feature","geometry":{"type":"LineString","coordinates":[[-58.14711897979188,-32.22021538190273],[-58.14641289952685,-32.220923028912345],[-58.146406241123024,-32.22092974242865]]},"properties":{"ZONA_TRIB":"ZONA_1_EJE","TIPO":"EJE_CALLE","CALLE":"PRESIDENTE PERON","FUENTE_NORMA":"Art. 225","OBS":"Eje vial tributario de referencia legal"}},{"type":"Feature","geometry":{"type":"LineString","coordinates":[[-58.134396124717206,-32.217274156325125],[-58.133771420728145,-32.21684528428799]]},"properties":{"ZONA_TRIB":"ZONA_1_EJE","TIPO":"EJE_CALLE","CALLE":"SAN MARTIN","FUENTE_NORMA":"Art. 225","OBS":"Eje vial tributario de referencia legal"}},{"type":"Feature","geometry":{"type":"LineString","coordinates":[[-58.13593668054767,-32.215718781119975],[-58.135126525347395,-32.2165444474698]]},"properties":{"ZONA_TRIB":"ZONA_1_EJE","TIPO":"EJE_CALLE","CALLE":"AVDA. QUIROS (N)","FUENTE_NORMA":"Art. 225","OBS":"Eje vial tributario de referencia legal"}},{"type":"Feature","geometry":{"type":"LineString","coordinates":[[-58.135126525347395,-32.2165444474698],[-58.135116001248214,-32.21655517292488],[-58.134396124717206,-32.217274156325125]]},"properties":{"ZONA_TRIB":"ZONA_1_EJE","TIPO":"EJE_CALLE","CALLE":"AVDA. QUIROS (N)","FUENTE_NORMA":"Art. 225","OBS":"Eje vial tributario de referencia legal"}},{"type":"Feature","geometry":{"type":"LineString","coordinates":[[-58.134396124717206,-32.217274156325125],[-58.13370538420438,-32.21796402480594]]},"properties":{"ZONA_TRIB":"ZONA_1_EJE","TIPO":"EJE_CALLE","CALLE":"AVDA. QUIROS (N)","FUENTE_NORMA":"Art. 225","OBS":"Eje vial tributario de referencia legal"}},{"type":"Feature","geometry":{"type":"LineString","coordinates":[[-58.135436757907925,-32.21920185646779],[-58.134930690282104,-32.21971256276693]]},"properties":{"ZONA_TRIB":"ZONA_1_EJE","TIPO":"EJE_CALLE","CALLE":"J. J. PASO","FUENTE_NORMA":"Art. 225","OBS":"Eje vial tributario de referencia legal"}},{"type":"Feature","geometry":{"type":"LineString","coordinates":[[-58.134930690282104,-32.21971256276693],[-58.134421481812865,-32.22022643058839],[-58.134415063887836,-32.22023300676499]]},"properties":{"ZONA_TRIB":"ZONA_1_EJE","TIPO":"EJE_CALLE","CALLE":"J. J. PASO","FUENTE_NORMA":"Art. 225","OBS":"Eje vial tributario de referencia legal"}},{"type":"Feature","geometry":{"type":"LineString","coordinates":[[-58.1329991888595,-32.22168706416469],[-58.13298635594665,-32.221700272119286],[-58.132142314179255,-32.2224554446175]]},"properties":{"ZONA_TRIB":"ZONA_1_EJE","TIPO":"EJE_CALLE","CALLE":"J. J. PASO","FUENTE_NORMA":"Art. 225","OBS":"Eje vial tributario de referencia legal"}},{"type":"Feature","geometry":{"type":"LineString","coordinates":[[-58.13170243361097,-32.22075352833109],[-58.131656336640056,-32.22098587127638],[-58.1316277217693,-32.22113153818543],[-58.131609982512714,-32.221373748136934],[-58.13166232557556,-32.221556641089734]]},"properties":{"ZONA_TRIB":"ZONA_1_EJE","TIPO":"EJE_CALLE","CALLE":"AVDA. QUIROS   SUR","FUENTE_NORMA":"Art. 225","OBS":"Eje vial tributario de referencia legal"}},{"type":"Feature","geometry":{"type":"LineString","coordinates":[[-58.13166232557556,-32.221556641089734],[-58.13192055526287,-32.22202251990671],[-58.13202320048708,-32.22221401698811],[-58.13211840500102,-32.222394945576944],[-58.132142314179255,-32.2224554446175]]},"properties":{"ZONA_TRIB":"ZONA_1_EJE","TIPO":"EJE_CALLE","CALLE":"AVDA. QUIROS   SUR","FUENTE_NORMA":"Art. 225","OBS":"Eje vial tributario de referencia legal"}},{"type":"Feature","geometry":{"type":"LineString","coordinates":[[-58.13610777896739,-32.21852466303689],[-58.13526406350062,-32.21790826528078]]},"properties":{"ZONA_TRIB":"ZONA_1_EJE","TIPO":"EJE_CALLE","CALLE":"SAN MARTIN","FUENTE_NORMA":"Art. 225","OBS":"Eje vial tributario de referencia legal"}},{"type":"Feature","geometry":{"type":"LineString","coordinates":[[-58.13526406350062,-32.21790826528078],[-58.134396124717206,-32.217274156325125]]},"properties":{"ZONA_TRIB":"ZONA_1_EJE","TIPO":"EJE_CALLE","CALLE":"SAN MARTIN","FUENTE_NORMA":"Art. 225","OBS":"Eje vial tributario de referencia legal"}},{"type":"Feature","geometry":{"type":"LineString","coordinates":[[-58.144050578407615,-32.20913124024088],[-58.143327797987666,-32.20981838984109]]},"properties":{"ZONA_TRIB":"ZONA_1_EJE","TIPO":"EJE_CALLE","CALLE":"A. PEYRET","FUENTE_NORMA":"Art. 225","OBS":"Eje vial tributario de referencia legal"}},{"type":"Feature","geometry":{"type":"LineString","coordinates":[[-58.14249681692336,-32.21059800814436],[-58.14177818141145,-32.211283827127396]]},"properties":{"ZONA_TRIB":"ZONA_1_EJE","TIPO":"EJE_CALLE","CALLE":"A. PEYRET","FUENTE_NORMA":"Art. 225","OBS":"Eje vial tributario de referencia legal"}},{"type":"Feature","geometry":{"type":"LineString","coordinates":[[-58.139588798890586,-32.21353628396431],[-58.13888289851671,-32.21424657144276]]},"properties":{"ZONA_TRIB":"ZONA_1_EJE","TIPO":"EJE_CALLE","CALLE":"A. PEYRET","FUENTE_NORMA":"Art. 225","OBS":"Eje vial tributario de referencia legal"}},{"type":"Feature","geometry":{"type":"LineString","coordinates":[[-58.13815032471922,-32.21498373875534],[-58.13814816587658,-32.21498591110993],[-58.13742425068446,-32.215715682026094]]},"properties":{"ZONA_TRIB":"ZONA_1_EJE","TIPO":"EJE_CALLE","CALLE":"A. PEYRET","FUENTE_NORMA":"Art. 225","OBS":"Eje vial tributario de referencia legal"}},{"type":"Feature","geometry":{"type":"LineString","coordinates":[[-58.13742425068446,-32.215715682026094],[-58.136803757117484,-32.21634118167973],[-58.13678978691819,-32.21635540073694]]},"properties":{"ZONA_TRIB":"ZONA_1_EJE","TIPO":"EJE_CALLE","CALLE":"A. PEYRET","FUENTE_NORMA":"Art. 225","OBS":"Eje vial tributario de referencia legal"}},{"type":"Feature","geometry":{"type":"LineString","coordinates":[[-58.13678978691819,-32.21635540073694],[-58.13599356951695,-32.21716579129518]]},"properties":{"ZONA_TRIB":"ZONA_1_EJE","TIPO":"EJE_CALLE","CALLE":"A. PEYRET","FUENTE_NORMA":"Art. 225","OBS":"Eje vial tributario de referencia legal"}},{"type":"Feature","geometry":{"type":"LineString","coordinates":[[-58.13599356951695,-32.21716579129518],[-58.13526406350062,-32.21790826528078]]},"properties":{"ZONA_TRIB":"ZONA_1_EJE","TIPO":"EJE_CALLE","CALLE":"A. PEYRET","FUENTE_NORMA":"Art. 225","OBS":"Eje vial tributario de referencia legal"}},{"type":"Feature","geometry":{"type":"LineString","coordinates":[[-58.13526406350062,-32.21790826528078],[-58.135247189718044,-32.217925438817836],[-58.13458743498392,-32.21859464689683]]},"properties":{"ZONA_TRIB":"ZONA_1_EJE","TIPO":"EJE_CALLE","CALLE":"A. PEYRET","FUENTE_NORMA":"Art. 225","OBS":"Eje vial tributario de referencia legal"}},{"type":"Feature","geometry":{"type":"LineString","coordinates":[[-58.13696782230992,-32.21913391372625],[-58.13610777896739,-32.21852466303689]]},"properties":{"ZONA_TRIB":"ZONA_1_EJE","TIPO":"EJE_CALLE","CALLE":"SAN MARTIN","FUENTE_NORMA":"Art. 225","OBS":"Eje vial tributario de referencia legal"}},{"type":"Feature","geometry":{"type":"LineString","coordinates":[[-58.13866972946061,-32.22034595828933],[-58.13781485512564,-32.21973393444683]]},"properties":{"ZONA_TRIB":"ZONA_1_EJE","TIPO":"EJE_CALLE","CALLE":"SAN MARTIN","FUENTE_NORMA":"Art. 225","OBS":"Eje vial tributario de referencia legal"}},{"type":"Feature","geometry":{"type":"LineString","coordinates":[[-58.13781485512564,-32.21973393444683],[-58.13696782230992,-32.21913391372625]]},"properties":{"ZONA_TRIB":"ZONA_1_EJE","TIPO":"EJE_CALLE","CALLE":"SAN MARTIN","FUENTE_NORMA":"Art. 225","OBS":"Eje vial tributario de referencia legal"}},{"type":"Feature","geometry":{"type":"LineString","coordinates":[[-58.13951135105437,-32.22094848082794],[-58.13866972946061,-32.22034595828933]]},"properties":{"ZONA_TRIB":"ZONA_1_EJE","TIPO":"EJE_CALLE","CALLE":"SAN MARTIN","FUENTE_NORMA":"Art. 225","OBS":"Eje vial tributario de referencia legal"}},{"type":"Feature","geometry":{"type":"LineString","coordinates":[[-58.14206758114986,-32.22277489488065],[-58.141218593773026,-32.22216890191098]]},"properties":{"ZONA_TRIB":"ZONA_1_EJE","TIPO":"EJE_CALLE","CALLE":"SAN MARTIN","FUENTE_NORMA":"Art. 225","OBS":"Eje vial tributario de referencia legal"}},{"type":"Feature","geometry":{"type":"LineString","coordinates":[[-58.141218593773026,-32.22216890191098],[-58.1403684362151,-32.22156206020679]]},"properties":{"ZONA_TRIB":"ZONA_1_EJE","TIPO":"EJE_CALLE","CALLE":"SAN MARTIN","FUENTE_NORMA":"Art. 225","OBS":"Eje vial tributario de referencia legal"}},{"type":"Feature","geometry":{"type":"LineString","coordinates":[[-58.1403684362151,-32.22156206020679],[-58.13951135105437,-32.22094848082794]]},"properties":{"ZONA_TRIB":"ZONA_1_EJE","TIPO":"EJE_CALLE","CALLE":"SAN MARTIN","FUENTE_NORMA":"Art. 225","OBS":"Eje vial tributario de referencia legal"}},{"type":"Feature","geometry":{"type":"LineString","coordinates":[[-58.143527822189746,-32.22381715901267],[-58.14292624020052,-32.223387777647325]]},"properties":{"ZONA_TRIB":"ZONA_1_EJE","TIPO":"EJE_CALLE","CALLE":"SAN MARTIN","FUENTE_NORMA":"Art. 225","OBS":"Eje vial tributario de referencia legal"}},{"type":"Feature","geometry":{"type":"LineString","coordinates":[[-58.14292624020052,-32.223387777647325],[-58.14206758114986,-32.22277489488065]]},"properties":{"ZONA_TRIB":"ZONA_1_EJE","TIPO":"EJE_CALLE","CALLE":"SAN MARTIN","FUENTE_NORMA":"Art. 225","OBS":"Eje vial tributario de referencia legal"}},{"type":"Feature","geometry":{"type":"LineString","coordinates":[[-58.15080012638961,-32.21650004050982],[-58.15007562328692,-32.21722483798183],[-58.15006197888917,-32.21723861794225]]},"properties":{"ZONA_TRIB":"ZONA_1_EJE","TIPO":"EJE_CALLE","CALLE":"PRESIDENTE PERON","FUENTE_NORMA":"Art. 225","OBS":"Eje vial tributario de referencia legal"}},{"type":"Feature","geometry":{"type":"LineString","coordinates":[[-58.15006197888917,-32.21723861794225],[-58.149334556481406,-32.217973259124385]]},"properties":{"ZONA_TRIB":"ZONA_1_EJE","TIPO":"EJE_CALLE","CALLE":"PRESIDENTE PERON","FUENTE_NORMA":"Art. 225","OBS":"Eje vial tributario de referencia legal"}},{"type":"Feature","geometry":{"type":"LineString","coordinates":[[-58.14414084234003,-32.22425469746012],[-58.143527822189704,-32.223817159012704]]},"properties":{"ZONA_TRIB":"ZONA_1_EJE","TIPO":"EJE_CALLE","CALLE":"SAN MARTIN","FUENTE_NORMA":"Art. 225","OBS":"Eje vial tributario de referencia legal"}},{"type":"Feature","geometry":{"type":"LineString","coordinates":[[-58.14582009766446,-32.22545726771972],[-58.14497998694154,-32.22485361913601]]},"properties":{"ZONA_TRIB":"ZONA_1_EJE","TIPO":"EJE_CALLE","CALLE":"SAN MARTIN","FUENTE_NORMA":"Art. 225","OBS":"Eje vial tributario de referencia legal"}},{"type":"Feature","geometry":{"type":"LineString","coordinates":[[-58.14497998694154,-32.22485361913601],[-58.14414084234003,-32.22425469746012]]},"properties":{"ZONA_TRIB":"ZONA_1_EJE","TIPO":"EJE_CALLE","CALLE":"SAN MARTIN","FUENTE_NORMA":"Art. 225","OBS":"Eje vial tributario de referencia legal"}},{"type":"Feature","geometry":{"type":"LineString","coordinates":[[-58.14756900783527,-32.22671387752741],[-58.14670226547609,-32.22609112148673]]},"properties":{"ZONA_TRIB":"ZONA_1_EJE","TIPO":"EJE_CALLE","CALLE":"SAN MARTIN","FUENTE_NORMA":"Art. 225","OBS":"Eje vial tributario de referencia legal"}},{"type":"Feature","geometry":{"type":"LineString","coordinates":[[-58.14670226547609,-32.22609112148673],[-58.14582009766446,-32.22545726771972]]},"properties":{"ZONA_TRIB":"ZONA_1_EJE","TIPO":"EJE_CALLE","CALLE":"SAN MARTIN","FUENTE_NORMA":"Art. 225","OBS":"Eje vial tributario de referencia legal"}},{"type":"Feature","geometry":{"type":"LineString","coordinates":[[-58.15014752538746,-32.22856829756264],[-58.149272439595855,-32.227933806144414]]},"properties":{"ZONA_TRIB":"ZONA_1_EJE","TIPO":"EJE_CALLE","CALLE":"SAN MARTIN","FUENTE_NORMA":"Art. 225","OBS":"Eje vial tributario de referencia legal"}},{"type":"Feature","geometry":{"type":"LineString","coordinates":[[-58.15187467700782,-32.22981897865856],[-58.15100313799115,-32.22918559708253]]},"properties":{"ZONA_TRIB":"ZONA_1_EJE","TIPO":"EJE_CALLE","CALLE":"SAN MARTIN","FUENTE_NORMA":"Art. 225","OBS":"Eje vial tributario de referencia legal"}},{"type":"Feature","geometry":{"type":"LineString","coordinates":[[-58.15100313799115,-32.22918559708253],[-58.15079062711082,-32.22903115489747],[-58.15014872915633,-32.22856916365881],[-58.15014752538746,-32.22856829756264]]},"properties":{"ZONA_TRIB":"ZONA_1_EJE","TIPO":"EJE_CALLE","CALLE":"SAN MARTIN","FUENTE_NORMA":"Art. 225","OBS":"Eje vial tributario de referencia legal"}},{"type":"Feature","geometry":{"type":"LineString","coordinates":[[-58.14101855758809,-32.211978440028275],[-58.14101783100568,-32.211977910254184],[-58.14034030836976,-32.21278340663295]]},"properties":{"ZONA_TRIB":"ZONA_1_EJE","TIPO":"EJE_CALLE","CALLE":"A. PEYRET","FUENTE_NORMA":"Art. 225","OBS":"Eje vial tributario de referencia legal"}},{"type":"Feature","geometry":{"type":"LineString","coordinates":[[-58.14034030836976,-32.21278340663295],[-58.139588798890586,-32.21353628396431]]},"properties":{"ZONA_TRIB":"ZONA_1_EJE","TIPO":"EJE_CALLE","CALLE":"A. PEYRET","FUENTE_NORMA":"Art. 225","OBS":"Eje vial tributario de referencia legal"}},{"type":"Feature","geometry":{"type":"LineString","coordinates":[[-58.149334556481406,-32.217973259124385],[-58.14933194043425,-32.21797590110254],[-58.14861103983595,-32.218708320495466]]},"properties":{"ZONA_TRIB":"ZONA_1_EJE","TIPO":"EJE_CALLE","CALLE":"PRESIDENTE PERON","FUENTE_NORMA":"Art. 225","OBS":"Eje vial tributario de referencia legal"}},{"type":"Feature","geometry":{"type":"LineString","coordinates":[[-58.14861103983595,-32.218708320495466],[-58.14785637203993,-32.21945829669344]]},"properties":{"ZONA_TRIB":"ZONA_1_EJE","TIPO":"EJE_CALLE","CALLE":"PRESIDENTE PERON","FUENTE_NORMA":"Art. 225","OBS":"Eje vial tributario de referencia legal"}},{"type":"Feature","geometry":{"type":"LineString","coordinates":[[-58.149272439595855,-32.227933806144414],[-58.148387359718996,-32.22730185195058]]},"properties":{"ZONA_TRIB":"ZONA_1_EJE","TIPO":"EJE_CALLE","CALLE":"SAN MARTIN","FUENTE_NORMA":"Art. 225","OBS":"Eje vial tributario de referencia legal"}},{"type":"Feature","geometry":{"type":"LineString","coordinates":[[-58.148387359718996,-32.22730185195058],[-58.14756900783527,-32.22671387752741]]},"properties":{"ZONA_TRIB":"ZONA_1_EJE","TIPO":"EJE_CALLE","CALLE":"SAN MARTIN","FUENTE_NORMA":"Art. 225","OBS":"Eje vial tributario de referencia legal"}},{"type":"Feature","geometry":{"type":"LineString","coordinates":[[-58.15971861841847,-32.23507999296687],[-58.16165496731728,-32.23573250217619],[-58.162944010063306,-32.2361820586322]]},"properties":{"ZONA_TRIB":"ZONA_1_EJE","TIPO":"EJE_CALLE","CALLE":"SAN MARTIN","FUENTE_NORMA":"Art. 225","OBS":"Eje vial tributario de referencia legal"}},{"type":"Feature","geometry":{"type":"LineString","coordinates":[[-58.162944010063306,-32.2361820586322],[-58.165170093466735,-32.23695836920795],[-58.16741776222456,-32.237574317858275]]},"properties":{"ZONA_TRIB":"ZONA_1_EJE","TIPO":"EJE_CALLE","CALLE":"SAN MARTIN","FUENTE_NORMA":"Art. 225","OBS":"Eje vial tributario de referencia legal"}},{"type":"Feature","geometry":{"type":"LineString","coordinates":[[-58.132855449946966,-32.21909713015129],[-58.132841404785246,-32.219132817088365],[-58.13272473379131,-32.219420612417316],[-58.13257861775346,-32.219655404141506],[-58.132456015167485,-32.219816446896786],[-58.13229769383188,-32.21993296471791]]},"properties":{"ZONA_TRIB":"ZONA_1_EJE","TIPO":"EJE_CALLE","CALLE":"AVDA. QUIROS   SUR","FUENTE_NORMA":"Art. 225","OBS":"Eje vial tributario de referencia legal"}},{"type":"Feature","geometry":{"type":"LineString","coordinates":[[-58.13229769383188,-32.21993296471791],[-58.132287294717315,-32.21994061800957],[-58.132044405965885,-32.22013752678762],[-58.131904244581506,-32.22032364233658],[-58.13179860516481,-32.22048855410061],[-58.131708598004,-32.22072245778603],[-58.13170243361097,-32.22075352833109]]},"properties":{"ZONA_TRIB":"ZONA_1_EJE","TIPO":"EJE_CALLE","CALLE":"AVDA. QUIROS   SUR","FUENTE_NORMA":"Art. 225","OBS":"Eje vial tributario de referencia legal"}},{"type":"Feature","geometry":{"type":"LineString","coordinates":[[-58.134415063887836,-32.22023300676499],[-58.13371506554293,-32.22095025756055],[-58.13371146515254,-32.22095396325619]]},"properties":{"ZONA_TRIB":"ZONA_1_EJE","TIPO":"EJE_CALLE","CALLE":"J. J. PASO","FUENTE_NORMA":"Art. 225","OBS":"Eje vial tributario de referencia legal"}},{"type":"Feature","geometry":{"type":"LineString","coordinates":[[-58.13888289851671,-32.21424657144276],[-58.13815032471922,-32.21498373875534]]},"properties":{"ZONA_TRIB":"ZONA_1_EJE","TIPO":"EJE_CALLE","CALLE":"A. PEYRET","FUENTE_NORMA":"Art. 225","OBS":"Eje vial tributario de referencia legal"}},{"type":"Feature","geometry":{"type":"LineString","coordinates":[[-58.14177818141145,-32.211283827127396],[-58.14101855758809,-32.211978440028275]]},"properties":{"ZONA_TRIB":"ZONA_1_EJE","TIPO":"EJE_CALLE","CALLE":"A. PEYRET","FUENTE_NORMA":"Art. 225","OBS":"Eje vial tributario de referencia legal"}},{"type":"Feature","geometry":{"type":"LineString","coordinates":[[-58.143327797987666,-32.20981838984109],[-58.14249681692336,-32.21059800814436]]},"properties":{"ZONA_TRIB":"ZONA_1_EJE","TIPO":"EJE_CALLE","CALLE":"A. PEYRET","FUENTE_NORMA":"Art. 225","OBS":"Eje vial tributario de referencia legal"}},{"type":"Feature","geometry":{"type":"LineString","coordinates":[[-58.158632161906574,-32.23456240595274],[-58.15936759410132,-32.23496170096809],[-58.15971861841847,-32.23507999296687]]},"properties":{"ZONA_TRIB":"ZONA_1_EJE","TIPO":"EJE_CALLE","CALLE":"SAN MARTIN","FUENTE_NORMA":"Art. 225","OBS":"Eje vial tributario de referencia legal"}},{"type":"Feature","geometry":{"type":"LineString","coordinates":[[-58.239792849117286,-32.29875298283325],[-58.23958305067668,-32.29956449681371],[-58.23964455901207,-32.299660399738315]]},"properties":{"ZONA_TRIB":"ZONA_1_EJE","TIPO":"EJE_CALLE","CALLE":"URQUIZA COL.H","FUENTE_NORMA":"Art. 225","OBS":"Eje vial tributario de referencia legal"}},{"type":"Feature","geometry":{"type":"LineString","coordinates":[[-58.161114164394675,-32.22641229605667],[-58.16022651459228,-32.22582707906652]]},"properties":{"ZONA_TRIB":"ZONA_1_EJE","TIPO":"EJE_CALLE","CALLE":"AVDA. PAYSANDU","FUENTE_NORMA":"Art. 225","OBS":"Eje vial tributario de referencia legal"}},{"type":"Feature","geometry":{"type":"LineString","coordinates":[[-58.1568999997643,-32.23549098424098],[-58.15584909746659,-32.234749036631875]]},"properties":{"ZONA_TRIB":"ZONA_1_EJE","TIPO":"EJE_CALLE","CALLE":"AVDA. GRAL. URQUIZA","FUENTE_NORMA":"Art. 225","OBS":"Eje vial tributario de referencia legal"}},{"type":"Feature","geometry":{"type":"LineString","coordinates":[[-58.15584909746659,-32.234749036631875],[-58.154971295835956,-32.23411234995976]]},"properties":{"ZONA_TRIB":"ZONA_1_EJE","TIPO":"EJE_CALLE","CALLE":"AVDA. GRAL. URQUIZA","FUENTE_NORMA":"Art. 225","OBS":"Eje vial tributario de referencia legal"}},{"type":"Feature","geometry":{"type":"LineString","coordinates":[[-58.154971295835956,-32.23411234995976],[-58.15468452770054,-32.233904348251976],[-58.1546829891457,-32.233903234991715]]},"properties":{"ZONA_TRIB":"ZONA_1_EJE","TIPO":"EJE_CALLE","CALLE":"AVDA. GRAL. URQUIZA","FUENTE_NORMA":"Art. 225","OBS":"Eje vial tributario de referencia legal"}},{"type":"Feature","geometry":{"type":"LineString","coordinates":[[-58.1546829891457,-32.233903234991715],[-58.15412626141863,-32.23350039763617],[-58.15412231111267,-32.23349762218051]]},"properties":{"ZONA_TRIB":"ZONA_1_EJE","TIPO":"EJE_CALLE","CALLE":"AVDA. GRAL. URQUIZA","FUENTE_NORMA":"Art. 225","OBS":"Eje vial tributario de referencia legal"}},{"type":"Feature","geometry":{"type":"LineString","coordinates":[[-58.15412231111267,-32.23349762218051],[-58.15325663202408,-32.23288939558211]]},"properties":{"ZONA_TRIB":"ZONA_1_EJE","TIPO":"EJE_CALLE","CALLE":"AVDA. GRAL. URQUIZA","FUENTE_NORMA":"Art. 225","OBS":"Eje vial tributario de referencia legal"}},{"type":"Feature","geometry":{"type":"LineString","coordinates":[[-58.15325663202408,-32.23288939558211],[-58.15238251152836,-32.23227522410436]]},"properties":{"ZONA_TRIB":"ZONA_1_EJE","TIPO":"EJE_CALLE","CALLE":"AVDA. GRAL. URQUIZA","FUENTE_NORMA":"Art. 225","OBS":"Eje vial tributario de referencia legal"}},{"type":"Feature","geometry":{"type":"LineString","coordinates":[[-58.15238251152836,-32.23227522410436],[-58.152375489715816,-32.23227029040634],[-58.15153207973472,-32.23164848315205],[-58.15152672794013,-32.23164463231566]]},"properties":{"ZONA_TRIB":"ZONA_1_EJE","TIPO":"EJE_CALLE","CALLE":"AVDA. GRAL. URQUIZA","FUENTE_NORMA":"Art. 225","OBS":"Eje vial tributario de referencia legal"}},{"type":"Feature","geometry":{"type":"LineString","coordinates":[[-58.14979485081313,-32.23039844710276],[-58.14979137928125,-32.23039594907919],[-58.1489328108975,-32.22977248846109]]},"properties":{"ZONA_TRIB":"ZONA_1_EJE","TIPO":"EJE_CALLE","CALLE":"AVDA. GRAL. URQUIZA","FUENTE_NORMA":"Art. 225","OBS":"Eje vial tributario de referencia legal"}},{"type":"Feature","geometry":{"type":"LineString","coordinates":[[-58.1489328108975,-32.22977248846109],[-58.14806071056708,-32.2291391870707]]},"properties":{"ZONA_TRIB":"ZONA_1_EJE","TIPO":"EJE_CALLE","CALLE":"AVDA. GRAL. URQUIZA","FUENTE_NORMA":"Art. 225","OBS":"Eje vial tributario de referencia legal"}},{"type":"Feature","geometry":{"type":"LineString","coordinates":[[-58.14806071056708,-32.2291391870707],[-58.148047820132334,-32.22912982619246],[-58.14717359781627,-32.22850551547243]]},"properties":{"ZONA_TRIB":"ZONA_1_EJE","TIPO":"EJE_CALLE","CALLE":"AVDA. GRAL. URQUIZA","FUENTE_NORMA":"Art. 225","OBS":"Eje vial tributario de referencia legal"}},{"type":"Feature","geometry":{"type":"LineString","coordinates":[[-58.13916807023628,-32.22275798163255],[-58.13916511616059,-32.222755863729944],[-58.13832905340443,-32.22214228358551]]},"properties":{"ZONA_TRIB":"ZONA_1_EJE","TIPO":"EJE_CALLE","CALLE":"AVDA. GRAL. URQUIZA","FUENTE_NORMA":"Art. 225","OBS":"Eje vial tributario de referencia legal"}},{"type":"Feature","geometry":{"type":"LineString","coordinates":[[-58.13832905340443,-32.22214228358551],[-58.13832391400439,-32.22213851177697],[-58.13748612362425,-32.22153924655767]]},"properties":{"ZONA_TRIB":"ZONA_1_EJE","TIPO":"EJE_CALLE","CALLE":"AVDA. GRAL. URQUIZA","FUENTE_NORMA":"Art. 225","OBS":"Eje vial tributario de referencia legal"}},{"type":"Feature","geometry":{"type":"LineString","coordinates":[[-58.13748612362425,-32.22153924655767],[-58.13663673284101,-32.22093167025284],[-58.136628977992586,-32.22092612889993]]},"properties":{"ZONA_TRIB":"ZONA_1_EJE","TIPO":"EJE_CALLE","CALLE":"AVDA. GRAL. URQUIZA","FUENTE_NORMA":"Art. 225","OBS":"Eje vial tributario de referencia legal"}},{"type":"Feature","geometry":{"type":"LineString","coordinates":[[-58.136628977992586,-32.22092612889993],[-58.13577557654971,-32.22031631017276]]},"properties":{"ZONA_TRIB":"ZONA_1_EJE","TIPO":"EJE_CALLE","CALLE":"AVDA. GRAL. URQUIZA","FUENTE_NORMA":"Art. 225","OBS":"Eje vial tributario de referencia legal"}},{"type":"Feature","geometry":{"type":"LineString","coordinates":[[-58.15644555458959,-32.23413271657313],[-58.156441858196786,-32.234130155304584],[-58.155590864531426,-32.23351276094019]]},"properties":{"ZONA_TRIB":"ZONA_1_EJE","TIPO":"EJE_CALLE","CALLE":"12 DE ABRIL","FUENTE_NORMA":"Art. 225","OBS":"Eje vial tributario de referencia legal"}},{"type":"Feature","geometry":{"type":"LineString","coordinates":[[-58.15529796295055,-32.233300258185395],[-58.15479951781728,-32.23293862796513],[-58.15469779502574,-32.23291910667612]]},"properties":{"ZONA_TRIB":"ZONA_1_EJE","TIPO":"EJE_CALLE","CALLE":"12 DE ABRIL","FUENTE_NORMA":"Art. 225","OBS":"Eje vial tributario de referencia legal"}},{"type":"Feature","geometry":{"type":"LineString","coordinates":[[-58.15469779502574,-32.23291910667612],[-58.154555436255734,-32.232891786918834],[-58.15380063358563,-32.232355823527335]]},"properties":{"ZONA_TRIB":"ZONA_1_EJE","TIPO":"EJE_CALLE","CALLE":"12 DE ABRIL","FUENTE_NORMA":"Art. 225","OBS":"Eje vial tributario de referencia legal"}},{"type":"Feature","geometry":{"type":"LineString","coordinates":[[-58.15380063358563,-32.232355823527335],[-58.15291681943567,-32.23172823940333],[-58.15291278048913,-32.23172552105491]]},"properties":{"ZONA_TRIB":"ZONA_1_EJE","TIPO":"EJE_CALLE","CALLE":"12 DE ABRIL","FUENTE_NORMA":"Art. 225","OBS":"Eje vial tributario de referencia legal"}},{"type":"Feature","geometry":{"type":"LineString","coordinates":[[-58.15291278048913,-32.23172552105491],[-58.152033610167834,-32.231133802736906],[-58.15203064897359,-32.23113251874954]]},"properties":{"ZONA_TRIB":"ZONA_1_EJE","TIPO":"EJE_CALLE","CALLE":"12 DE ABRIL","FUENTE_NORMA":"Art. 225","OBS":"Eje vial tributario de referencia legal"}},{"type":"Feature","geometry":{"type":"LineString","coordinates":[[-58.15114319062689,-32.23052933716587],[-58.15028553011228,-32.22991046022472]]},"properties":{"ZONA_TRIB":"ZONA_1_EJE","TIPO":"EJE_CALLE","CALLE":"12 DE ABRIL","FUENTE_NORMA":"Art. 225","OBS":"Eje vial tributario de referencia legal"}},{"type":"Feature","geometry":{"type":"LineString","coordinates":[[-58.15028553011228,-32.22991046022472],[-58.14942663081452,-32.22929067545644]]},"properties":{"ZONA_TRIB":"ZONA_1_EJE","TIPO":"EJE_CALLE","CALLE":"12 DE ABRIL","FUENTE_NORMA":"Art. 225","OBS":"Eje vial tributario de referencia legal"}},{"type":"Feature","geometry":{"type":"LineString","coordinates":[[-58.14942663081452,-32.22929067545644],[-58.148537024391175,-32.228647749922374]]},"properties":{"ZONA_TRIB":"ZONA_1_EJE","TIPO":"EJE_CALLE","CALLE":"12 DE ABRIL","FUENTE_NORMA":"Art. 225","OBS":"Eje vial tributario de referencia legal"}},{"type":"Feature","geometry":{"type":"LineString","coordinates":[[-58.13881725614549,-32.2216470940259],[-58.13797573366709,-32.22105002868776]]},"properties":{"ZONA_TRIB":"ZONA_1_EJE","TIPO":"EJE_CALLE","CALLE":"12 DE ABRIL","FUENTE_NORMA":"Art. 225","OBS":"Eje vial tributario de referencia legal"}},{"type":"Feature","geometry":{"type":"LineString","coordinates":[[-58.13577557654971,-32.22031631017276],[-58.134930690282104,-32.21971256276693]]},"properties":{"ZONA_TRIB":"ZONA_1_EJE","TIPO":"EJE_CALLE","CALLE":"AVDA. GRAL. URQUIZA","FUENTE_NORMA":"Art. 225","OBS":"Eje vial tributario de referencia legal"}},{"type":"Feature","geometry":{"type":"LineString","coordinates":[[-58.134930690282104,-32.21971256276693],[-58.1340823670285,-32.21910459502697]]},"properties":{"ZONA_TRIB":"ZONA_1_EJE","TIPO":"EJE_CALLE","CALLE":"AVDA. GRAL. URQUIZA","FUENTE_NORMA":"Art. 225","OBS":"Eje vial tributario de referencia legal"}},{"type":"Feature","geometry":{"type":"LineString","coordinates":[[-58.1340823670285,-32.21910459502697],[-58.13321212847189,-32.21848090723146]]},"properties":{"ZONA_TRIB":"ZONA_1_EJE","TIPO":"EJE_CALLE","CALLE":"AVDA. GRAL. URQUIZA","FUENTE_NORMA":"Art. 225","OBS":"Eje vial tributario de referencia legal"}},{"type":"Feature","geometry":{"type":"LineString","coordinates":[[-58.135436757907925,-32.21920185646779],[-58.13458743498392,-32.21859464689683]]},"properties":{"ZONA_TRIB":"ZONA_1_EJE","TIPO":"EJE_CALLE","CALLE":"12 DE ABRIL","FUENTE_NORMA":"Art. 225","OBS":"Eje vial tributario de referencia legal"}},{"type":"Feature","geometry":{"type":"LineString","coordinates":[[-58.13458743498392,-32.21859464689683],[-58.13370538420438,-32.21796402480594]]},"properties":{"ZONA_TRIB":"ZONA_1_EJE","TIPO":"EJE_CALLE","CALLE":"12 DE ABRIL","FUENTE_NORMA":"Art. 225","OBS":"Eje vial tributario de referencia legal"}},{"type":"Feature","geometry":{"type":"MultiLineString","coordinates":[]},"properties":{"ZONA_TRIB":"ZONA_1_EJE","TIPO":"EJE_CALLE","CALLE":"AVDA. PAYSANDU","FUENTE_NORMA":"Art. 225","OBS":"Eje vial tributario de referencia legal"}},{"type":"Feature","geometry":{"type":"MultiLineString","coordinates":[]},"properties":{"ZONA_TRIB":"ZONA_1_EJE","TIPO":"EJE_CALLE","CALLE":"AVDA. PAYSANDU","FUENTE_NORMA":"Art. 225","OBS":"Eje vial tributario de referencia legal"}},{"type":"Feature","geometry":{"type":"LineString","coordinates":[[-58.13712412937507,-32.220438129905105],[-58.136276325832014,-32.21981970294497]]},"properties":{"ZONA_TRIB":"ZONA_1_EJE","TIPO":"EJE_CALLE","CALLE":"12 DE ABRIL","FUENTE_NORMA":"Art. 225","OBS":"Eje vial tributario de referencia legal"}},{"type":"Feature","geometry":{"type":"LineString","coordinates":[[-58.136276325832014,-32.21981970294497],[-58.13625389600681,-32.219803341410376],[-58.135436757907925,-32.21920185646779]]},"properties":{"ZONA_TRIB":"ZONA_1_EJE","TIPO":"EJE_CALLE","CALLE":"12 DE ABRIL","FUENTE_NORMA":"Art. 225","OBS":"Eje vial tributario de referencia legal"}},{"type":"Feature","geometry":{"type":"MultiLineString","coordinates":[]},"properties":{"ZONA_TRIB":"ZONA_1_EJE","TIPO":"EJE_CALLE","CALLE":"AVDA. PAYSANDU","FUENTE_NORMA":"Art. 225","OBS":"Eje vial tributario de referencia legal"}},{"type":"Feature","geometry":{"type":"MultiLineString","coordinates":[]},"properties":{"ZONA_TRIB":"ZONA_1_EJE","TIPO":"EJE_CALLE","CALLE":"AVDA. PAYSANDU","FUENTE_NORMA":"Art. 225","OBS":"Eje vial tributario de referencia legal"}},{"type":"Feature","geometry":{"type":"LineString","coordinates":[[-58.13797573366709,-32.22105002868776],[-58.13797175665237,-32.221047206940305],[-58.13712412937507,-32.220438129905105]]},"properties":{"ZONA_TRIB":"ZONA_1_EJE","TIPO":"EJE_CALLE","CALLE":"12 DE ABRIL","FUENTE_NORMA":"Art. 225","OBS":"Eje vial tributario de referencia legal"}},{"type":"Feature","geometry":{"type":"MultiLineString","coordinates":[]},"properties":{"ZONA_TRIB":"ZONA_1_EJE","TIPO":"EJE_CALLE","CALLE":"AVDA. PAYSANDU","FUENTE_NORMA":"Art. 225","OBS":"Eje vial tributario de referencia legal"}},{"type":"Feature","geometry":{"type":"LineString","coordinates":[[-58.141352992720314,-32.2234856158292],[-58.140511840724955,-32.22287637000623]]},"properties":{"ZONA_TRIB":"ZONA_1_EJE","TIPO":"EJE_CALLE","CALLE":"12 DE ABRIL","FUENTE_NORMA":"Art. 225","OBS":"Eje vial tributario de referencia legal"}},{"type":"Feature","geometry":{"type":"LineString","coordinates":[[-58.140511840724955,-32.22287637000623],[-58.13966669034735,-32.22226607407351]]},"properties":{"ZONA_TRIB":"ZONA_1_EJE","TIPO":"EJE_CALLE","CALLE":"12 DE ABRIL","FUENTE_NORMA":"Art. 225","OBS":"Eje vial tributario de referencia legal"}},{"type":"Feature","geometry":{"type":"LineString","coordinates":[[-58.140861392121316,-32.22397594039033],[-58.140020205430716,-32.223368906780486]]},"properties":{"ZONA_TRIB":"ZONA_1_EJE","TIPO":"EJE_CALLE","CALLE":"AVDA. GRAL. URQUIZA","FUENTE_NORMA":"Art. 225","OBS":"Eje vial tributario de referencia legal"}},{"type":"Feature","geometry":{"type":"LineString","coordinates":[[-58.140020205430716,-32.223368906780486],[-58.13916807023628,-32.22275798163255]]},"properties":{"ZONA_TRIB":"ZONA_1_EJE","TIPO":"EJE_CALLE","CALLE":"AVDA. GRAL. URQUIZA","FUENTE_NORMA":"Art. 225","OBS":"Eje vial tributario de referencia legal"}},{"type":"Feature","geometry":{"type":"LineString","coordinates":[[-58.147870662959015,-32.216932116774714],[-58.14701907579552,-32.21632488292924]]},"properties":{"ZONA_TRIB":"ZONA_1_EJE","TIPO":"EJE_CALLE","CALLE":"AVDA. PAYSANDU","FUENTE_NORMA":"Art. 225","OBS":"Eje vial tributario de referencia legal"}},{"type":"Feature","geometry":{"type":"LineString","coordinates":[[-58.14701907579552,-32.21632488292924],[-58.14617771194348,-32.21572492565756],[-58.14617369423138,-32.21572207609521]]},"properties":{"ZONA_TRIB":"ZONA_1_EJE","TIPO":"EJE_CALLE","CALLE":"AVDA. PAYSANDU","FUENTE_NORMA":"Art. 225","OBS":"Eje vial tributario de referencia legal"}},{"type":"Feature","geometry":{"type":"LineString","coordinates":[[-58.14617369423138,-32.21572207609521],[-58.14616904856711,-32.215718781119975]]},"properties":{"ZONA_TRIB":"ZONA_1_EJE","TIPO":"EJE_CALLE","CALLE":"AVDA. PAYSANDU","FUENTE_NORMA":"Art. 225","OBS":"Eje vial tributario de referencia legal"}},{"type":"Feature","geometry":{"type":"LineString","coordinates":[[-58.14281316287435,-32.224537910372504],[-58.142211040365616,-32.224103081970455],[-58.14221104036551,-32.22410308197036]]},"properties":{"ZONA_TRIB":"ZONA_1_EJE","TIPO":"EJE_CALLE","CALLE":"12 DE ABRIL","FUENTE_NORMA":"Art. 225","OBS":"Eje vial tributario de referencia legal"}},{"type":"Feature","geometry":{"type":"LineString","coordinates":[[-58.14221104036551,-32.22410308197036],[-58.14135381509241,-32.22348621146615],[-58.141352992720314,-32.2234856158292]]},"properties":{"ZONA_TRIB":"ZONA_1_EJE","TIPO":"EJE_CALLE","CALLE":"12 DE ABRIL","FUENTE_NORMA":"Art. 225","OBS":"Eje vial tributario de referencia legal"}},{"type":"Feature","geometry":{"type":"LineString","coordinates":[[-58.14171955901639,-32.2245952138059],[-58.140861392121316,-32.22397594039033]]},"properties":{"ZONA_TRIB":"ZONA_1_EJE","TIPO":"EJE_CALLE","CALLE":"AVDA. GRAL. URQUIZA","FUENTE_NORMA":"Art. 225","OBS":"Eje vial tributario de referencia legal"}},{"type":"Feature","geometry":{"type":"LineString","coordinates":[[-58.14871730610082,-32.2175342452427],[-58.1484720897348,-32.21735985107411]]},"properties":{"ZONA_TRIB":"ZONA_1_EJE","TIPO":"EJE_CALLE","CALLE":"AVDA. PAYSANDU","FUENTE_NORMA":"Art. 225","OBS":"Eje vial tributario de referencia legal"}},{"type":"Feature","geometry":{"type":"LineString","coordinates":[[-58.1484720897348,-32.21735985107411],[-58.14787279053318,-32.21693363384855],[-58.147870662959015,-32.216932116774714]]},"properties":{"ZONA_TRIB":"ZONA_1_EJE","TIPO":"EJE_CALLE","CALLE":"AVDA. PAYSANDU","FUENTE_NORMA":"Art. 225","OBS":"Eje vial tributario de referencia legal"}},{"type":"Feature","geometry":{"type":"LineString","coordinates":[[-58.149334556481406,-32.217973259124385],[-58.1493311616781,-32.217970805140254],[-58.14871730610082,-32.2175342452427]]},"properties":{"ZONA_TRIB":"ZONA_1_EJE","TIPO":"EJE_CALLE","CALLE":"AVDA. PAYSANDU","FUENTE_NORMA":"Art. 225","OBS":"Eje vial tributario de referencia legal"}},{"type":"Feature","geometry":{"type":"LineString","coordinates":[[-58.143421832251214,-32.22497745968564],[-58.14281316287436,-32.22453791037249]]},"properties":{"ZONA_TRIB":"ZONA_1_EJE","TIPO":"EJE_CALLE","CALLE":"12 DE ABRIL","FUENTE_NORMA":"Art. 225","OBS":"Eje vial tributario de referencia legal"}},{"type":"Feature","geometry":{"type":"LineString","coordinates":[[-58.142939106249536,-32.22546641583851],[-58.14172010410937,-32.22459560715334],[-58.14171955901639,-32.2245952138059]]},"properties":{"ZONA_TRIB":"ZONA_1_EJE","TIPO":"EJE_CALLE","CALLE":"AVDA. GRAL. URQUIZA","FUENTE_NORMA":"Art. 225","OBS":"Eje vial tributario de referencia legal"}},{"type":"Feature","geometry":{"type":"LineString","coordinates":[[-58.1499491821038,-32.21841754680523],[-58.149334556481406,-32.217973259124385]]},"properties":{"ZONA_TRIB":"ZONA_1_EJE","TIPO":"EJE_CALLE","CALLE":"AVDA. PAYSANDU","FUENTE_NORMA":"Art. 225","OBS":"Eje vial tributario de referencia legal"}},{"type":"Feature","geometry":{"type":"LineString","coordinates":[[-58.14510271344862,-32.22618316757698],[-58.14426030059128,-32.225571459403014]]},"properties":{"ZONA_TRIB":"ZONA_1_EJE","TIPO":"EJE_CALLE","CALLE":"12 DE ABRIL","FUENTE_NORMA":"Art. 225","OBS":"Eje vial tributario de referencia legal"}},{"type":"Feature","geometry":{"type":"LineString","coordinates":[[-58.14426030059128,-32.225571459403014],[-58.143421832251214,-32.22497745968564]]},"properties":{"ZONA_TRIB":"ZONA_1_EJE","TIPO":"EJE_CALLE","CALLE":"12 DE ABRIL","FUENTE_NORMA":"Art. 225","OBS":"Eje vial tributario de referencia legal"}},{"type":"Feature","geometry":{"type":"LineString","coordinates":[[-58.14460968678969,-32.22666330367685],[-58.143772509183385,-32.22606175116508]]},"properties":{"ZONA_TRIB":"ZONA_1_EJE","TIPO":"EJE_CALLE","CALLE":"AVDA. GRAL. URQUIZA","FUENTE_NORMA":"Art. 225","OBS":"Eje vial tributario de referencia legal"}},{"type":"Feature","geometry":{"type":"LineString","coordinates":[[-58.143772509183385,-32.22606175116508],[-58.142939106249536,-32.22546641583851]]},"properties":{"ZONA_TRIB":"ZONA_1_EJE","TIPO":"EJE_CALLE","CALLE":"AVDA. GRAL. URQUIZA","FUENTE_NORMA":"Art. 225","OBS":"Eje vial tributario de referencia legal"}},{"type":"Feature","geometry":{"type":"LineString","coordinates":[[-58.15164142356329,-32.21963781179833],[-58.150835963427575,-32.2190585520852],[-58.15080617080329,-32.219037016883114]]},"properties":{"ZONA_TRIB":"ZONA_1_EJE","TIPO":"EJE_CALLE","CALLE":"AVDA. PAYSANDU","FUENTE_NORMA":"Art. 225","OBS":"Eje vial tributario de referencia legal"}},{"type":"Feature","geometry":{"type":"LineString","coordinates":[[-58.15080617080329,-32.219037016883114],[-58.1499491821038,-32.21841754680523]]},"properties":{"ZONA_TRIB":"ZONA_1_EJE","TIPO":"EJE_CALLE","CALLE":"AVDA. PAYSANDU","FUENTE_NORMA":"Art. 225","OBS":"Eje vial tributario de referencia legal"}},{"type":"Feature","geometry":{"type":"LineString","coordinates":[[-58.14549289833054,-32.22729791950208],[-58.14460968678969,-32.22666330367685]]},"properties":{"ZONA_TRIB":"ZONA_1_EJE","TIPO":"EJE_CALLE","CALLE":"AVDA. GRAL. URQUIZA","FUENTE_NORMA":"Art. 225","OBS":"Eje vial tributario de referencia legal"}},{"type":"Feature","geometry":{"type":"LineString","coordinates":[[-58.146844649509376,-32.22743765860058],[-58.1459890187123,-32.22680428888174]]},"properties":{"ZONA_TRIB":"ZONA_1_EJE","TIPO":"EJE_CALLE","CALLE":"12 DE ABRIL","FUENTE_NORMA":"Art. 225","OBS":"Eje vial tributario de referencia legal"}},{"type":"Feature","geometry":{"type":"LineString","coordinates":[[-58.1459890187123,-32.22680428888174],[-58.14510271344862,-32.22618316757698]]},"properties":{"ZONA_TRIB":"ZONA_1_EJE","TIPO":"EJE_CALLE","CALLE":"12 DE ABRIL","FUENTE_NORMA":"Art. 225","OBS":"Eje vial tributario de referencia legal"}},{"type":"Feature","geometry":{"type":"LineString","coordinates":[[-58.15247214160491,-32.22023521827663],[-58.15247156853484,-32.220234811230654],[-58.15164142356329,-32.21963781179833]]},"properties":{"ZONA_TRIB":"ZONA_1_EJE","TIPO":"EJE_CALLE","CALLE":"AVDA. PAYSANDU","FUENTE_NORMA":"Art. 225","OBS":"Eje vial tributario de referencia legal"}},{"type":"Feature","geometry":{"type":"LineString","coordinates":[[-58.14717359781627,-32.22850551547243],[-58.146365280520854,-32.227924739687765]]},"properties":{"ZONA_TRIB":"ZONA_1_EJE","TIPO":"EJE_CALLE","CALLE":"AVDA. GRAL. URQUIZA","FUENTE_NORMA":"Art. 225","OBS":"Eje vial tributario de referencia legal"}},{"type":"Feature","geometry":{"type":"LineString","coordinates":[[-58.146365280520854,-32.227924739687765],[-58.14549289833054,-32.22729791950208]]},"properties":{"ZONA_TRIB":"ZONA_1_EJE","TIPO":"EJE_CALLE","CALLE":"AVDA. GRAL. URQUIZA","FUENTE_NORMA":"Art. 225","OBS":"Eje vial tributario de referencia legal"}},{"type":"Feature","geometry":{"type":"LineString","coordinates":[[-58.15338498670672,-32.22088359539509],[-58.15247214160491,-32.22023521827663]]},"properties":{"ZONA_TRIB":"ZONA_1_EJE","TIPO":"EJE_CALLE","CALLE":"AVDA. PAYSANDU","FUENTE_NORMA":"Art. 225","OBS":"Eje vial tributario de referencia legal"}},{"type":"Feature","geometry":{"type":"LineString","coordinates":[[-58.155940731734574,-32.22272253320885],[-58.15511067282632,-32.2221222255949]]},"properties":{"ZONA_TRIB":"ZONA_1_EJE","TIPO":"EJE_CALLE","CALLE":"AVDA. PAYSANDU","FUENTE_NORMA":"Art. 225","OBS":"Eje vial tributario de referencia legal"}},{"type":"Feature","geometry":{"type":"LineString","coordinates":[[-58.148537024391175,-32.228647749922374],[-58.1476628479932,-32.22801596118799]]},"properties":{"ZONA_TRIB":"ZONA_1_EJE","TIPO":"EJE_CALLE","CALLE":"12 DE ABRIL","FUENTE_NORMA":"Art. 225","OBS":"Eje vial tributario de referencia legal"}},{"type":"Feature","geometry":{"type":"LineString","coordinates":[[-58.1476628479932,-32.22801596118799],[-58.146844649509376,-32.22743765860058]]},"properties":{"ZONA_TRIB":"ZONA_1_EJE","TIPO":"EJE_CALLE","CALLE":"12 DE ABRIL","FUENTE_NORMA":"Art. 225","OBS":"Eje vial tributario de referencia legal"}},{"type":"Feature","geometry":{"type":"LineString","coordinates":[[-58.15511067282632,-32.2221222255949],[-58.15506296445648,-32.22208772198714],[-58.15419662299658,-32.22146601849447]]},"properties":{"ZONA_TRIB":"ZONA_1_EJE","TIPO":"EJE_CALLE","CALLE":"AVDA. PAYSANDU","FUENTE_NORMA":"Art. 225","OBS":"Eje vial tributario de referencia legal"}},{"type":"Feature","geometry":{"type":"LineString","coordinates":[[-58.15419662299658,-32.22146601849447],[-58.15338982919498,-32.220887034884335],[-58.15338498670672,-32.22088359539509]]},"properties":{"ZONA_TRIB":"ZONA_1_EJE","TIPO":"EJE_CALLE","CALLE":"AVDA. PAYSANDU","FUENTE_NORMA":"Art. 225","OBS":"Eje vial tributario de referencia legal"}},{"type":"Feature","geometry":{"type":"LineString","coordinates":[[-58.15152672794013,-32.23164463231566],[-58.15066152844332,-32.23102207857539]]},"properties":{"ZONA_TRIB":"ZONA_1_EJE","TIPO":"EJE_CALLE","CALLE":"AVDA. GRAL. URQUIZA","FUENTE_NORMA":"Art. 225","OBS":"Eje vial tributario de referencia legal"}},{"type":"Feature","geometry":{"type":"LineString","coordinates":[[-58.15066152844332,-32.23102207857539],[-58.14979485081313,-32.23039844710276]]},"properties":{"ZONA_TRIB":"ZONA_1_EJE","TIPO":"EJE_CALLE","CALLE":"AVDA. GRAL. URQUIZA","FUENTE_NORMA":"Art. 225","OBS":"Eje vial tributario de referencia legal"}},{"type":"Feature","geometry":{"type":"LineString","coordinates":[[-58.15203064897359,-32.23113251874954],[-58.151941080133945,-32.23109368122682],[-58.151143190624914,-32.23052933716446]]},"properties":{"ZONA_TRIB":"ZONA_1_EJE","TIPO":"EJE_CALLE","CALLE":"12 DE ABRIL","FUENTE_NORMA":"Art. 225","OBS":"Eje vial tributario de referencia legal"}},{"type":"Feature","geometry":{"type":"LineString","coordinates":[[-58.15763796538656,-32.22399926061931],[-58.15677800539552,-32.223352521476386]]},"properties":{"ZONA_TRIB":"ZONA_1_EJE","TIPO":"EJE_CALLE","CALLE":"AVDA. PAYSANDU","FUENTE_NORMA":"Art. 225","OBS":"Eje vial tributario de referencia legal"}},{"type":"Feature","geometry":{"type":"LineString","coordinates":[[-58.15677800539552,-32.223352521476386],[-58.155940731734574,-32.22272253320885]]},"properties":{"ZONA_TRIB":"ZONA_1_EJE","TIPO":"EJE_CALLE","CALLE":"AVDA. PAYSANDU","FUENTE_NORMA":"Art. 225","OBS":"Eje vial tributario de referencia legal"}},{"type":"Feature","geometry":{"type":"LineString","coordinates":[[-58.15938971298169,-32.225217786768866],[-58.1585245522941,-32.22460135422754]]},"properties":{"ZONA_TRIB":"ZONA_1_EJE","TIPO":"EJE_CALLE","CALLE":"AVDA. PAYSANDU","FUENTE_NORMA":"Art. 225","OBS":"Eje vial tributario de referencia legal"}},{"type":"Feature","geometry":{"type":"LineString","coordinates":[[-58.1585245522941,-32.22460135422754],[-58.15763796538656,-32.22399926061931]]},"properties":{"ZONA_TRIB":"ZONA_1_EJE","TIPO":"EJE_CALLE","CALLE":"AVDA. PAYSANDU","FUENTE_NORMA":"Art. 225","OBS":"Eje vial tributario de referencia legal"}},{"type":"Feature","geometry":{"type":"LineString","coordinates":[[-58.16022651459228,-32.22582707906652],[-58.15938971298169,-32.225217786768866]]},"properties":{"ZONA_TRIB":"ZONA_1_EJE","TIPO":"EJE_CALLE","CALLE":"AVDA. PAYSANDU","FUENTE_NORMA":"Art. 225","OBS":"Eje vial tributario de referencia legal"}},{"type":"Feature","geometry":{"type":"LineString","coordinates":[[-58.15730080678965,-32.23472532298263],[-58.15644555458959,-32.23413271657313]]},"properties":{"ZONA_TRIB":"ZONA_1_EJE","TIPO":"EJE_CALLE","CALLE":"12 DE ABRIL","FUENTE_NORMA":"Art. 225","OBS":"Eje vial tributario de referencia legal"}},{"type":"Feature","geometry":{"type":"LineString","coordinates":[[-58.13966669034735,-32.22226607407351],[-58.13965172545068,-32.22225549498354],[-58.13881926311521,-32.221648740294334],[-58.13881725614549,-32.2216470940259]]},"properties":{"ZONA_TRIB":"ZONA_1_EJE","TIPO":"EJE_CALLE","CALLE":"12 DE ABRIL","FUENTE_NORMA":"Art. 225","OBS":"Eje vial tributario de referencia legal"}},{"type":"Feature","geometry":{"type":"MultiLineString","coordinates":[]},"properties":{"ZONA_TRIB":"ZONA_1_EJE","TIPO":"EJE_CALLE","CALLE":"AVDA. PAYSANDU","FUENTE_NORMA":"Art. 225","OBS":"Eje vial tributario de referencia legal"}},{"type":"Feature","geometry":{"type":"LineString","coordinates":[[-58.155590864531426,-32.23351276094019],[-58.15529796295055,-32.233300258185395]]},"properties":{"ZONA_TRIB":"ZONA_1_EJE","TIPO":"EJE_CALLE","CALLE":"12 DE ABRIL","FUENTE_NORMA":"Art. 225","OBS":"Eje vial tributario de referencia legal"}},{"type":"Feature","geometry":{"type":"LineString","coordinates":[[-58.23302587540289,-32.29837405277522],[-58.23194327927298,-32.298163613070365]]},"properties":{"ZONA_TRIB":"ZONA_1_EJE","TIPO":"EJE_CALLE","CALLE":"URQUIZA COL.H","FUENTE_NORMA":"Art. 225","OBS":"Eje vial tributario de referencia legal"}},{"type":"Feature","geometry":{"type":"LineString","coordinates":[[-58.23194327927298,-32.298163613070365],[-58.23086983596896,-32.29795034086089]]},"properties":{"ZONA_TRIB":"ZONA_1_EJE","TIPO":"EJE_CALLE","CALLE":"URQUIZA COL.H","FUENTE_NORMA":"Art. 225","OBS":"Eje vial tributario de referencia legal"}},{"type":"Feature","geometry":{"type":"LineString","coordinates":[[-58.23086983596896,-32.29795034086089],[-58.229796268136866,-32.29774623768106]]},"properties":{"ZONA_TRIB":"ZONA_1_EJE","TIPO":"EJE_CALLE","CALLE":"URQUIZA COL.H","FUENTE_NORMA":"Art. 225","OBS":"Eje vial tributario de referencia legal"}},{"type":"Feature","geometry":{"type":"LineString","coordinates":[[-58.229796268136866,-32.29774623768106],[-58.228747882299466,-32.29754241867574]]},"properties":{"ZONA_TRIB":"ZONA_1_EJE","TIPO":"EJE_CALLE","CALLE":"URQUIZA COL.H","FUENTE_NORMA":"Art. 225","OBS":"Eje vial tributario de referencia legal"}},{"type":"Feature","geometry":{"type":"LineString","coordinates":[[-58.23409492733539,-32.29858184971387],[-58.23302587540289,-32.29837405277522]]},"properties":{"ZONA_TRIB":"ZONA_1_EJE","TIPO":"EJE_CALLE","CALLE":"URQUIZA COL.H","FUENTE_NORMA":"Art. 225","OBS":"Eje vial tributario de referencia legal"}},{"type":"Feature","geometry":{"type":"LineString","coordinates":[[-58.23964455900695,-32.299660399737306],[-58.238405648221665,-32.299419645276984]]},"properties":{"ZONA_TRIB":"ZONA_1_EJE","TIPO":"EJE_CALLE","CALLE":"URQUIZA COL.H","FUENTE_NORMA":"Art. 225","OBS":"Eje vial tributario de referencia legal"}},{"type":"Feature","geometry":{"type":"LineString","coordinates":[[-58.238405648221665,-32.299419645276984],[-58.23734140833594,-32.29921282353764]]},"properties":{"ZONA_TRIB":"ZONA_1_EJE","TIPO":"EJE_CALLE","CALLE":"URQUIZA COL.H","FUENTE_NORMA":"Art. 225","OBS":"Eje vial tributario de referencia legal"}},{"type":"Feature","geometry":{"type":"LineString","coordinates":[[-58.23734140833594,-32.29921282353764],[-58.23624690599246,-32.299000110409146]]},"properties":{"ZONA_TRIB":"ZONA_1_EJE","TIPO":"EJE_CALLE","CALLE":"URQUIZA COL.H","FUENTE_NORMA":"Art. 225","OBS":"Eje vial tributario de referencia legal"}},{"type":"Feature","geometry":{"type":"LineString","coordinates":[[-58.23624690599246,-32.299000110409146],[-58.23517940418956,-32.29879263473157]]},"properties":{"ZONA_TRIB":"ZONA_1_EJE","TIPO":"EJE_CALLE","CALLE":"URQUIZA COL.H","FUENTE_NORMA":"Art. 225","OBS":"Eje vial tributario de referencia legal"}},{"type":"Feature","geometry":{"type":"LineString","coordinates":[[-58.23517940418956,-32.29879263473157],[-58.23409492733539,-32.29858184971387]]},"properties":{"ZONA_TRIB":"ZONA_1_EJE","TIPO":"EJE_CALLE","CALLE":"URQUIZA COL.H","FUENTE_NORMA":"Art. 225","OBS":"Eje vial tributario de referencia legal"}}]}