{"type":"FeatureCollection","features":[{"type":"Feature","properties":{"ZONA":"CENTRO","color":"255,0,0,255"},"geometry":{"type":"LineString","coordinates":[[-58.1353161,-32.216642],[-58.1431136,-32.2220811],[-58.1479429,-32.2169803],[-58.1495025,-32.2180681],[-58.1446129,-32.2231832],[-58.1489713,-32.2262399],[-58.1456005,-32.2298491],[-58.1319927,-32.2201923],[-58.1353161,-32.216642]]}},{"type":"Feature","properties":{"ZONA":"PERIURBANA-AMP SERVICIOS","color":"255,0,0,255"},"geometry":{"type":"LineString","coordinates":[[-58.1758149,-32.2300663],[-58.1767066,-32.2278286],[-58.1805166,-32.2291603],[-58.177651,-32.2357309],[-58.1755561,-32.23506],[-58.1738893,-32.2345007],[-58.1747231,-32.232498],[-58.1734973,-32.232145],[-58.1745267,-32.229668],[-58.1758149,-32.2300663]]}},{"type":"Feature","properties":{"ZONA":"AREA PROTEGIDA SUR","color":"38,153,0,255"},"geometry":{"type":"LineString","coordinates":[[-58.1231375,-32.261072],[-58.1234117,-32.2613517],[-58.1218646,-32.2607977],[-58.1209454,-32.2605164],[-58.1205533,-32.2602134],[-58.120057,-32.2604527],[-58.1200489,-32.2608922],[-58.1198891,-32.2611331],[-58.1198525,-32.2611967],[-58.1196699,-32.2613693],[-58.1194096,-32.2616738],[-58.1191135,-32.2623845],[-58.1190087,-32.2627457],[-58.1188889,-32.2632099],[-58.1186453,-32.2637066],[-58.1184819,-32.2640924],[-58.1190311,-32.264308],[-58.1186059,-32.2646785],[-58.117787,-32.2646938],[-58.1111466,-32.26456],[-58.1096874,-32.2610417],[-58.104892,-32.2611788],[-58.104,-32.2559643],[-58.1054554,-32.2532965],[-58.1083661,-32.2513562],[-58.1108073,-32.2501031],[-58.1151733,-32.2486883],[-58.1170046,-32.2458352],[-58.120017,-32.2429792],[-58.1223756,-32.2370988],[-58.1241957,-32.2354621],[-58.1257452,-32.2361003],[-58.1255421,-32.2367897],[-58.1247453,-32.2380365],[-58.1246496,-32.2402732],[-58.1251937,-32.2416956],[-58.1254177,-32.2428665],[-58.1249905,-32.2436405],[-58.1250198,-32.2437156],[-58.1248907,-32.2439701],[-58.12481,-32.2441679],[-58.1247334,-32.2445003],[-58.1247167,-32.2446095],[-58.1246654,-32.2449209],[-58.1245206,-32.2450461],[-58.1243868,-32.2451506],[-58.1242686,-32.2452517],[-58.1241115,-32.2454681],[-58.1239277,-32.245761],[-58.1237421,-32.2459812],[-58.1236348,-32.2461106],[-58.1235883,-32.2462266],[-58.1235103,-32.2464648],[-58.1234356,-32.2466714],[-58.123204,-32.2470718],[-58.123046,-32.247218],[-58.1229755,-32.2473255],[-58.1232297,-32.2474207],[-58.1231603,-32.2475194],[-58.1229953,-32.2475535],[-58.1228266,-32.2475696],[-58.1227925,-32.2477312],[-58.1228873,-32.2479761],[-58.1228161,-32.2481686],[-58.1228972,-32.2483692],[-58.1230156,-32.2485087],[-58.1230504,-32.2487689],[-58.1230187,-32.2488194],[-58.1230328,-32.2490741],[-58.1229107,-32.2493952],[-58.1227262,-32.2495185],[-58.1225254,-32.2496109],[-58.1224441,-32.2498712],[-58.1223588,-32.2501009],[-58.122422,-32.2502397],[-58.1226982,-32.2504069],[-58.1228121,-32.2507297],[-58.1226129,-32.25098],[-58.122423,-32.251223],[-58.1224178,-32.2516284],[-58.1223713,-32.2517444],[-58.1222833,-32.2521002],[-58.1219623,-32.2522014],[-58.1216582,-32.2526023],[-58.1215764,-32.25284],[-58.1217175,-32.2530847],[-58.1218826,-32.2533132],[-58.1220507,-32.2536085],[-58.1219051,-32.2539581],[-58.1218624,-32.2541015],[-58.1216024,-32.2547229],[-58.1214323,-32.2555864],[-58.1212847,-32.2558811],[-58.1209829,-32.2564212],[-58.1212881,-32.2569232],[-58.1210876,-32.257477],[-58.1210922,-32.2580837],[-58.1210544,-32.2586685],[-58.120808,-32.2593753],[-58.1207964,-32.2594819],[-58.1212166,-32.2597978],[-58.1216656,-32.2602836],[-58.122053,-32.2604935],[-58.1231375,-32.261072]]}},{"type":"Feature","properties":{"ZONA":"PERIURBANA-COL HUGHES","color":"255,0,0,255"},"geometry":{"type":"LineString","coordinates":[[-58.2308776,-32.2924214],[-58.2415661,-32.2944424],[-58.2403919,-32.2989595],[-58.229717,-32.296996],[-58.2308776,-32.2924214]]}},{"type":"Feature","properties":{"ZONA":"QUINTAS","color":"255,127,223,255"},"geometry":{"type":"LineString","coordinates":[[-58.2014843,-32.2175162],[-58.197834,-32.2264282],[-58.1958852,-32.2311799],[-58.1921333,-32.2402963],[-58.1902435,-32.2449175],[-58.1828209,-32.2612433],[-58.1834289,-32.2618656],[-58.1857505,-32.2627245],[-58.1882755,-32.2639582],[-58.189219,-32.2648906],[-58.1926812,-32.2683125],[-58.1974399,-32.2706045],[-58.2003,-32.2710603],[-58.2022625,-32.2710156],[-58.2033891,-32.2714469],[-58.2034874,-32.2712878],[-58.2090134,-32.273328],[-58.2132801,-32.2624033],[-58.2237166,-32.2655474],[-58.2256399,-32.2610063],[-58.2257911,-32.2610182],[-58.2317498,-32.2628539],[-58.235037,-32.2538713],[-58.2293674,-32.2521313],[-58.2294192,-32.2520011],[-58.233378,-32.242523],[-58.2280067,-32.2409433],[-58.2316476,-32.2319607],[-58.2262538,-32.2303201],[-58.2282409,-32.2255755],[-58.2014843,-32.2175162]]}},{"type":"Feature","properties":{"ZONA":"AMORTIGUACION AMBIENTAL II","color":"0,0,255,255"},"geometry":{"type":"LineString","coordinates":[[-58.2284745,-32.2256474],[-58.2264377,-32.2302486],[-58.2318401,-32.2319049],[-58.2317962,-32.2320047],[-58.2281508,-32.2408612],[-58.2336293,-32.2425484],[-58.2295387,-32.2520425],[-58.2323066,-32.2529314],[-58.2352013,-32.2538125],[-58.235159,-32.2539142],[-58.2319311,-32.2629133],[-58.2375586,-32.2646829],[-58.2375094,-32.2647911],[-58.2364738,-32.2676201],[-58.240535,-32.2689126],[-58.2407142,-32.2689701],[-58.2369189,-32.2542473],[-58.233454,-32.2272093],[-58.2284745,-32.2256474]]}},{"type":"Feature","properties":{"ZONA":"INDUSTRIAL","color":"255,255,0,255"},"geometry":{"type":"LineString","coordinates":[[-58.2341986,-32.2275585],[-58.2346233,-32.2276673],[-58.2549538,-32.2339181],[-58.2418757,-32.2688229],[-58.2394138,-32.2613273],[-58.2377842,-32.254827],[-58.2371308,-32.2493017],[-58.2353524,-32.238305],[-58.2341986,-32.2275585]]}},{"type":"Feature","properties":{"ZONA":"AMORTIGUACION AMBIENTAL II","color":"0,0,255,255"},"geometry":{"type":"LineString","coordinates":[[-58.2526509,-32.2739161],[-58.2578086,-32.2604147],[-58.2666275,-32.2370294],[-58.2559437,-32.2340476],[-58.242181,-32.2698797]]}},{"type":"Feature","properties":{"ZONA":"MIXTA COMPLEMENTO AREA INDUSTR","color":"0,0,255,255"},"geometry":{"type":"LineString","coordinates":[[-58.242181,-32.2698797],[-58.2500018,-32.3006001],[-58.2511986,-32.3009008],[-58.2532819,-32.3013008],[-58.254405,-32.3004961],[-58.2546598,-32.3001001],[-58.2550791,-32.29907],[-58.2556716,-32.2986971],[-58.256285,-32.2983252],[-58.2569845,-32.2979391],[-58.2575615,-32.2972819],[-58.2581727,-32.2965323],[-58.2582119,-32.2963111],[-58.258408,-32.2957852],[-58.2584281,-32.2953913],[-58.2585752,-32.2948292],[-58.2587987,-32.2944828],[-58.2591433,-32.2943857],[-58.259817,-32.2940606],[-58.260105,-32.2936073],[-58.2602642,-32.2931651],[-58.2605431,-32.2927467],[-58.2603682,-32.2927467],[-58.2609324,-32.2912433],[-58.2598864,-32.290615],[-58.2597385,-32.290402],[-58.258834,-32.2902328],[-58.2592811,-32.2893823],[-58.2598866,-32.2890058],[-58.258241,-32.2872845],[-58.2594475,-32.2868264],[-58.2594608,-32.2864256],[-58.258247,-32.2852613],[-58.2582226,-32.2842108],[-58.2577704,-32.2830801],[-58.257554,-32.2823814],[-58.2580014,-32.2818565],[-58.2582883,-32.281812],[-58.2584211,-32.2816585],[-58.2585841,-32.2814251],[-58.2586486,-32.2809147],[-58.2586612,-32.2806222],[-58.2585506,-32.2801644],[-58.2581766,-32.2794342],[-58.2579554,-32.2788105],[-58.2577609,-32.2769064],[-58.2581554,-32.2760291],[-58.242181,-32.2698797]]}},{"type":"Feature","properties":{"ZONA":"RURAL","color":"204,0,204,255"},"geometry":{"type":"LineString","coordinates":[[-58.266804,-32.2370799],[-58.2776357,-32.2401624],[-58.2782493,-32.2385334],[-58.2812359,-32.2393688],[-58.2814349,-32.2388407],[-58.2850983,-32.2398688],[-58.284297,-32.2420463],[-58.31,-32.2492403],[-58.2977703,-32.2820176],[-58.2921787,-32.2804462],[-58.2914167,-32.2826185],[-58.2860362,-32.2810684],[-58.2856049,-32.2821799],[-58.2753818,-32.2826342],[-58.2528431,-32.2738803],[-58.266804,-32.2370799]]}},{"type":"Feature","properties":{"ZONA":"PERIURBANA-AMP SERVICIOS","color":"255,0,0,255"},"geometry":{"type":"LineString","coordinates":[[-58.1570444,-32.2182763],[-58.1571407,-32.218375],[-58.157341,-32.2185799],[-58.1574024,-32.218664],[-58.1575959,-32.2187897],[-58.1577235,-32.2188924],[-58.1577523,-32.2188843],[-58.15818,-32.2190337],[-58.1582704,-32.2190841],[-58.1580973,-32.2192412],[-58.158261,-32.2192868],[-58.1586064,-32.2193815],[-58.1586728,-32.2193625],[-58.1589492,-32.2194173],[-58.1590607,-32.2194562],[-58.1593985,-32.2195208],[-58.1597238,-32.2196508],[-58.1599606,-32.219687],[-58.1620137,-32.2148836],[-58.1653318,-32.2154841],[-58.1686428,-32.216531],[-58.1703251,-32.2127891],[-58.1737613,-32.2138619],[-58.1756131,-32.2094743],[-58.1742556,-32.2090531],[-58.1722761,-32.2083904],[-58.1722569,-32.2084355],[-58.1713662,-32.2106473],[-58.1590002,-32.2068299],[-58.1524942,-32.2136137],[-58.152632,-32.2137004],[-58.1532143,-32.2147007],[-58.1542737,-32.2151055],[-58.1544566,-32.2152284],[-58.1555981,-32.2155351],[-58.1560234,-32.2159394],[-58.1562984,-32.2161778],[-58.1563456,-32.2163926],[-58.1563372,-32.2166171],[-58.1564089,-32.2168035],[-58.1564577,-32.2170447],[-58.1564653,-32.2171214],[-58.1565048,-32.2173221],[-58.1565156,-32.2176294],[-58.1565886,-32.2177763],[-58.1567717,-32.2179516],[-58.156918,-32.2181675],[-58.1570444,-32.2182763]]}},{"type":"Feature","properties":{"ZONA":"CHACRAS","color":"0,255,191,255"},"geometry":{"type":"LineString","coordinates":[[-58.1231392,-32.2610712],[-58.1217244,-32.2601992],[-58.120883,-32.2594391],[-58.121102,-32.2587132],[-58.1211312,-32.2574819],[-58.1213045,-32.2569276],[-58.121012,-32.2564214],[-58.1214848,-32.2556124],[-58.1216669,-32.25474],[-58.122172,-32.2536232],[-58.1216772,-32.2528206],[-58.1220214,-32.2522738],[-58.1222978,-32.2521903],[-58.1224921,-32.2516487],[-58.1224786,-32.2512374],[-58.1228832,-32.2507738],[-58.1227838,-32.2504015],[-58.122507,-32.2500957],[-58.1225592,-32.2496441],[-58.1229672,-32.2494513],[-58.1231145,-32.2490714],[-58.1230611,-32.2485042],[-58.1228718,-32.2481656],[-58.1229171,-32.2479946],[-58.1228545,-32.2476154],[-58.1231762,-32.2475727],[-58.1232995,-32.2473966],[-58.1230296,-32.2473129],[-58.1232406,-32.2471049],[-58.1235001,-32.2466568],[-58.1236651,-32.2461016],[-58.1239785,-32.2457829],[-58.1242909,-32.2452917],[-58.12471,-32.2449626],[-58.125068,-32.2437136],[-58.1368236,-32.24676],[-58.1379271,-32.2558426],[-58.1318398,-32.2615621],[-58.131433,-32.2618021],[-58.1309319,-32.2615667],[-58.1263609,-32.2632087],[-58.1264554,-32.2637817],[-58.1289835,-32.2639807],[-58.13448,-32.2656145],[-58.1524797,-32.2649737],[-58.1520191,-32.2690779],[-58.1616894,-32.27022],[-58.1621649,-32.2726806],[-58.1760615,-32.2710949],[-58.1785915,-32.2719489],[-58.1787316,-32.2718104],[-58.1794954,-32.268865],[-58.1828042,-32.2612801],[-58.1834018,-32.2619027],[-58.1856565,-32.2627679],[-58.1882326,-32.2640125],[-58.1926143,-32.2684513],[-58.1971562,-32.2706507],[-58.2001371,-32.2712707],[-58.2022865,-32.2710716],[-58.2033786,-32.2715163],[-58.2035258,-32.2713804],[-58.2090788,-32.2734286],[-58.2091252,-32.273442],[-58.2133596,-32.2625733],[-58.2237325,-32.2656847],[-58.2257589,-32.2610914],[-58.2373827,-32.2647305],[-58.2362819,-32.2677423],[-58.2407238,-32.2690556],[-58.2487534,-32.300606],[-58.2509185,-32.3032818],[-58.2506727,-32.3036519],[-58.2506095,-32.3040378],[-58.2506391,-32.3042251],[-58.2506539,-32.3046508],[-58.2503942,-32.3050698],[-58.2499592,-32.3052484],[-58.2492568,-32.3055844],[-58.2489892,-32.3056635],[-58.248419,-32.3059402],[-58.2479679,-32.306538],[-58.2479089,-32.3069293],[-58.2476716,-32.3078738],[-58.2472888,-32.3089778],[-58.2471707,-32.3102626],[-58.2471256,-32.310809],[-58.2472003,-32.3112403],[-58.2472991,-32.3120049],[-58.2474827,-32.3124087],[-58.2474869,-32.31282],[-58.2468331,-32.3128704],[-58.2458302,-32.3130671],[-58.245252,-32.3138299],[-58.2452587,-32.3139545],[-58.2442676,-32.3141584],[-58.2432615,-32.3147067],[-58.2427161,-32.3150801],[-58.2423246,-32.3156957],[-58.2423073,-32.3163671],[-58.2420122,-32.3171584],[-58.241716,-32.3176365],[-58.2406739,-32.3190249],[-58.2399147,-32.3193439],[-58.238838,-32.3204941],[-58.2381695,-32.3212498],[-58.2379109,-32.3221422],[-58.2376711,-32.3232156],[-58.2370642,-32.3240426],[-58.2362864,-32.3238325],[-58.2358376,-32.3236212],[-58.2349566,-32.323601],[-58.2345458,-32.3235733],[-58.2342935,-32.3236797],[-58.2339774,-32.3249943],[-58.23095,-32.3241808],[-58.2306188,-32.3243261],[-58.2304283,-32.3243175],[-58.2301836,-32.3245299],[-58.230065,-32.3248123],[-58.229573,-32.3253597],[-58.2290881,-32.3257056],[-58.2286274,-32.3262686],[-58.2285608,-32.3267992],[-58.2287001,-32.3271667],[-58.2292917,-32.3276267],[-58.2294887,-32.328246],[-58.2291665,-32.3285529],[-58.228645,-32.3288822],[-58.2282644,-32.3291874],[-58.2278998,-32.3297904],[-58.2278931,-32.3302815],[-58.2277162,-32.3309385],[-58.2274019,-32.331],[-58.2271521,-32.3304205],[-58.2268697,-32.3299791],[-58.225988,-32.329927],[-58.2252593,-32.3297581],[-58.224881,-32.3293369],[-58.2241351,-32.3286676],[-58.2238451,-32.328049],[-58.2239676,-32.327323],[-58.2239914,-32.3269115],[-58.2236963,-32.3265193],[-58.2230028,-32.3262436],[-58.2222061,-32.3256499],[-58.2217246,-32.3253118],[-58.2212892,-32.3248884],[-58.2207441,-32.3241084],[-58.2206442,-32.3236704],[-58.2204323,-32.3235451],[-58.2201554,-32.3235801],[-58.219845,-32.3235762],[-58.2193464,-32.3235392],[-58.2191742,-32.3234019],[-58.2191239,-32.3231774],[-58.2191056,-32.3229454],[-58.2190631,-32.3224923],[-58.218918,-32.3219855],[-58.2187453,-32.321695],[-58.2181436,-32.3212402],[-58.2178203,-32.3210839],[-58.2176102,-32.3205844],[-58.2176102,-32.3203691],[-58.2179411,-32.3200719],[-58.218014,-32.3197212],[-58.2180478,-32.3191637],[-58.2178879,-32.3185992],[-58.2172898,-32.3182291],[-58.2171561,-32.3179208],[-58.216936,-32.317855],[-58.2163673,-32.3174528],[-58.216306,-32.3170181],[-58.2160228,-32.3163554],[-58.2160153,-32.3160441],[-58.215768,-32.3157204],[-58.2154558,-32.3153586],[-58.2149049,-32.3146982],[-58.2142328,-32.3140666],[-58.2141141,-32.3134042],[-58.2139071,-32.3130606],[-58.2133624,-32.3126629],[-58.2126082,-32.3124157],[-58.2117599,-32.3122602],[-58.210966,-32.31223],[-58.2100634,-32.3123011],[-58.208383,-32.3120486],[-58.2075081,-32.3118639],[-58.2067973,-32.3115294],[-58.2061274,-32.3111799],[-58.2052058,-32.3104271],[-58.2048781,-32.3100245],[-58.2036977,-32.3097952],[-58.2028494,-32.3097788],[-58.202194,-32.309578],[-58.2015589,-32.3093224],[-58.2006729,-32.3087706],[-58.2002927,-32.3085073],[-58.2001,-32.3081128],[-58.1999321,-32.3075463],[-58.1995771,-32.3069595],[-58.1988409,-32.3068321],[-58.1980647,-32.3065096],[-58.1973073,-32.3061287],[-58.1966321,-32.3061935],[-58.1876945,-32.3131484],[-58.1856596,-32.3111583],[-58.1931889,-32.3054417],[-58.1940518,-32.3047865],[-58.192378,-32.3040686],[-58.1918657,-32.3038728],[-58.1910111,-32.3035471],[-58.1900236,-32.3022046],[-58.1889435,-32.3006673],[-58.1875349,-32.297716],[-58.1882081,-32.2959639],[-58.1881316,-32.2946465],[-58.1871376,-32.2946894],[-58.1840658,-32.2962351],[-58.1822006,-32.2977289],[-58.1791281,-32.2958676],[-58.17143,-32.2941764],[-58.1697853,-32.2875984],[-58.1605639,-32.2894203],[-58.1578828,-32.2850302],[-58.1532722,-32.2858412],[-58.1510521,-32.2821079],[-58.1488665,-32.2830686],[-58.1452373,-32.2769171],[-58.1388422,-32.2791854],[-58.1381835,-32.2781851],[-58.1347241,-32.2791107],[-58.1303913,-32.2790513],[-58.1291446,-32.2792812],[-58.1267978,-32.2792842],[-58.1243119,-32.2785251],[-58.1229522,-32.2787683],[-58.1219237,-32.2786885],[-58.121766,-32.278729],[-58.1225276,-32.2802221],[-58.1219349,-32.2806912],[-58.1217717,-32.2811112],[-58.1209723,-32.2813019],[-58.1195971,-32.2809221],[-58.1194835,-32.2811549],[-58.1197318,-32.2826159],[-58.1195638,-32.2836933],[-58.1195685,-32.2838349],[-58.1188212,-32.2838115],[-58.1178377,-32.2841476],[-58.1173423,-32.28412],[-58.1174994,-32.2831104],[-58.117443,-32.2824291],[-58.1159846,-32.280542],[-58.1146599,-32.278852],[-58.1132171,-32.276125],[-58.1132171,-32.274785],[-58.1132085,-32.2722924],[-58.1126642,-32.2705744],[-58.1117571,-32.2682317],[-58.1113942,-32.2666699],[-58.1113075,-32.2658496],[-58.1191585,-32.2647233],[-58.1194967,-32.2640827],[-58.1190773,-32.26371],[-58.119411,-32.2616747],[-58.1198525,-32.2612132],[-58.1203224,-32.2607221],[-58.1210666,-32.2608502],[-58.1235483,-32.2614923],[-58.1234983,-32.261366],[-58.1231392,-32.2610712]]}},{"type":"Feature","properties":{"ZONA":"AREA PROTEGIDA NORTE","color":"38,153,0,255"},"geometry":{"type":"LineString","coordinates":[[-58.151129,-32.2073463],[-58.150723,-32.2070333],[-58.1501458,-32.2068409],[-58.1496285,-32.2066605],[-58.149547,-32.2063565],[-58.1495243,-32.2061407],[-58.1496149,-32.2058662],[-58.1498624,-32.2054819],[-58.1511016,-32.205025],[-58.1515182,-32.2046139],[-58.1517646,-32.2043758],[-58.1519431,-32.2032236],[-58.1531162,-32.2024265],[-58.1536058,-32.2020867],[-58.1537601,-32.2018825],[-58.1537836,-32.2017639],[-58.1537237,-32.2013773],[-58.1531301,-32.2008891],[-58.1525366,-32.200401],[-58.1521758,-32.2002952],[-58.1515369,-32.2002023],[-58.1511185,-32.2001083],[-58.1493849,-32.2],[-58.1485046,-32.2],[-58.1476797,-32.2002337],[-58.1466273,-32.2009433],[-58.1427073,-32.2079894],[-58.1434583,-32.2086582],[-58.1455139,-32.2072151],[-58.1463664,-32.20687],[-58.1473198,-32.2069332],[-58.1467881,-32.2077745],[-58.1471367,-32.2086954],[-58.1508098,-32.211194],[-58.1509811,-32.2103304],[-58.1508953,-32.2092795],[-58.151129,-32.2073463]]}},{"type":"Feature","properties":{"ZONA":"PERIURBANA","color":"127,255,0,255"},"geometry":{"type":"LineString","coordinates":[[-58.1570444,-32.2182763],[-58.1571282,-32.2183923],[-58.157223,-32.2184791],[-58.1573354,-32.218583],[-58.1573996,-32.2186657],[-58.1574842,-32.2187336],[-58.1575933,-32.2187925],[-58.1577228,-32.2188979],[-58.1577553,-32.2188931],[-58.1577774,-32.2188995],[-58.1579068,-32.2189507],[-58.1581727,-32.2190392],[-58.1582473,-32.2190887],[-58.1580573,-32.2192429],[-58.1581511,-32.2193137],[-58.1582497,-32.2193027],[-58.1586078,-32.2193913],[-58.1586697,-32.219372],[-58.158939,-32.2194309],[-58.1590415,-32.2194761],[-58.1593937,-32.2195417],[-58.1597054,-32.219673],[-58.1600354,-32.2197257],[-58.1603093,-32.2198073],[-58.1608067,-32.2194753],[-58.1609669,-32.2192942],[-58.1615261,-32.2195064],[-58.1620071,-32.2196058],[-58.162254,-32.2195933],[-58.1622146,-32.2196909],[-58.1633947,-32.2201106],[-58.1610945,-32.2254126],[-58.1665472,-32.2270771],[-58.1645834,-32.2315701],[-58.1624206,-32.2365735],[-58.1603832,-32.2368608],[-58.1581288,-32.2374759],[-58.154651,-32.2390898],[-58.1535239,-32.2398407],[-58.1491246,-32.2443396],[-58.1487738,-32.2435491],[-58.1480634,-32.2427973],[-58.1479064,-32.2426592],[-58.1475048,-32.2423924],[-58.146527,-32.2420904],[-58.1461347,-32.2419727],[-58.1460037,-32.2419069],[-58.1458554,-32.2418253],[-58.1456052,-32.2417134],[-58.1453171,-32.2415744],[-58.1452755,-32.2414846],[-58.145192,-32.2412588],[-58.1450479,-32.2410894],[-58.1447177,-32.2409024],[-58.1445563,-32.2409156],[-58.144169,-32.2408399],[-58.1438568,-32.2407176],[-58.1437078,-32.2406883],[-58.1433212,-32.2405775],[-58.1428161,-32.2404256],[-58.142479,-32.2402691],[-58.1422768,-32.2400847],[-58.1421039,-32.2398777],[-58.142005,-32.23967],[-58.1418754,-32.2395184],[-58.1416326,-32.2390483],[-58.1415926,-32.2390183],[-58.1415552,-32.2389687],[-58.1415382,-32.2389252],[-58.1415297,-32.2388924],[-58.1414376,-32.2387752],[-58.1413813,-32.2386903],[-58.1413424,-32.2386239],[-58.1412523,-32.2385103],[-58.1411233,-32.238374],[-58.1410634,-32.2383078],[-58.1410287,-32.2382864],[-58.1409931,-32.2382641],[-58.1409572,-32.2382307],[-58.1409164,-32.2382028],[-58.1408486,-32.2381732],[-58.1408153,-32.2381551],[-58.140708,-32.2380893],[-58.1404627,-32.2380138],[-58.1404122,-32.2380115],[-58.140313,-32.2379877],[-58.140221,-32.2379696],[-58.1401132,-32.2379922],[-58.1400126,-32.2379971],[-58.1399491,-32.2379501],[-58.1398015,-32.2379643],[-58.1396903,-32.2380022],[-58.1395173,-32.2380763],[-58.1393647,-32.2381012],[-58.1391644,-32.2381037],[-58.1387928,-32.2380953],[-58.1386477,-32.2382039],[-58.1385067,-32.2382439],[-58.138279,-32.238148],[-58.1381343,-32.238007],[-58.1378484,-32.2377738],[-58.1375732,-32.2375944],[-58.1373348,-32.237468],[-58.1371872,-32.2373645],[-58.137156,-32.2373127],[-58.1370826,-32.2372751],[-58.1369285,-32.2373106],[-58.1368544,-32.2373083],[-58.1368271,-32.2372687],[-58.1368213,-32.237246],[-58.1367031,-32.2372241],[-58.1362891,-32.2373683],[-58.1359667,-32.2376156],[-58.1357417,-32.2377848],[-58.1367439,-32.2461257],[-58.1369556,-32.24664],[-58.1370633,-32.247585],[-58.1380079,-32.2550295],[-58.1382188,-32.2564028],[-58.1324908,-32.2621422],[-58.1315855,-32.2618422],[-58.1308525,-32.2616636],[-58.1265261,-32.2632983],[-58.1265657,-32.2637237],[-58.1291625,-32.2639288],[-58.1297971,-32.2641537],[-58.1345479,-32.2654263],[-58.139246,-32.2652499],[-58.143489,-32.2652212],[-58.1526701,-32.2648947],[-58.1526716,-32.2650259],[-58.1521907,-32.2688646],[-58.1618069,-32.2701118],[-58.1622495,-32.2725626],[-58.1728598,-32.2712582],[-58.1761315,-32.2708923],[-58.1762295,-32.2709286],[-58.1786105,-32.2718099],[-58.1792178,-32.268865],[-58.1827255,-32.2611377],[-58.1919553,-32.2401699],[-58.1957616,-32.231139],[-58.2013241,-32.2174895],[-58.1722761,-32.2083902],[-58.1532383,-32.2024265],[-58.1520991,-32.2032161],[-58.1519481,-32.2038114],[-58.151797,-32.2044068],[-58.1516557,-32.2045628],[-58.1511016,-32.205025],[-58.1504379,-32.2052957],[-58.1499112,-32.2055207],[-58.1496555,-32.205882],[-58.1495568,-32.2063136],[-58.1496557,-32.2065595],[-58.1499872,-32.2067615],[-58.1503825,-32.2069057],[-58.1508106,-32.2070128],[-58.151129,-32.2073463],[-58.1511327,-32.2078675],[-58.150951,-32.2093385],[-58.1510488,-32.2103487],[-58.1509116,-32.2110408],[-58.1508222,-32.2114784],[-58.1507816,-32.2116941],[-58.1509544,-32.212146],[-58.1512252,-32.2123941],[-58.1515295,-32.2126008],[-58.1518967,-32.2129613],[-58.1522938,-32.2135202],[-58.1526107,-32.2137244],[-58.1529448,-32.2143743],[-58.1531868,-32.2147295],[-58.1535333,-32.2148512],[-58.1538622,-32.2149943],[-58.1542688,-32.2151252],[-58.1544487,-32.2152481],[-58.1551187,-32.2154224],[-58.1552617,-32.2154668],[-58.1555094,-32.215541],[-58.1556345,-32.2156073],[-58.1557544,-32.2157065],[-58.1559112,-32.2158682],[-58.1561832,-32.2160963],[-58.1562406,-32.2161473],[-58.1562734,-32.2161869]]}},{"type":"Feature","properties":{"ZONA":"URBANA","color":"255,63,0,255"},"geometry":{"type":"LineString","coordinates":[[-58.1582497,-32.2193027],[-58.1585172,-32.2194091],[-58.1586595,-32.2194313],[-58.1588427,-32.2194495],[-58.1589752,-32.2194787],[-58.1591811,-32.2195477],[-58.1592613,-32.219566],[-58.1593855,-32.2195868],[-58.1595157,-32.2196207],[-58.1596186,-32.2197002],[-58.159817,-32.2197367],[-58.1600335,-32.2197562],[-58.1603073,-32.219849],[-58.1608341,-32.2195023],[-58.1609577,-32.2193437],[-58.1612194,-32.21944],[-58.1615138,-32.2195364],[-58.1619992,-32.2196147],[-58.1622193,-32.2195963],[-58.1621794,-32.2196975],[-58.1632419,-32.2200947],[-58.1609169,-32.2254159],[-58.1664196,-32.2270826],[-58.162251,-32.2365486],[-58.1602857,-32.2367906],[-58.1581181,-32.2374532],[-58.1569258,-32.2379784],[-58.1547085,-32.2390285],[-58.1534777,-32.2397943],[-58.1491438,-32.2442391],[-58.1487738,-32.2434055],[-58.1480634,-32.2426537],[-58.1479064,-32.2425156],[-58.1475048,-32.2422488],[-58.146527,-32.2419468],[-58.1461347,-32.2418291],[-58.1460037,-32.2417632],[-58.1458554,-32.2416817],[-58.1456052,-32.2415697],[-58.1453171,-32.2414308],[-58.1452755,-32.2413409],[-58.145192,-32.2411151],[-58.1450479,-32.2409458],[-58.1447177,-32.2407587],[-58.1445563,-32.2407719],[-58.144169,-32.2406963],[-58.1438568,-32.240574],[-58.1437078,-32.2405447],[-58.1433212,-32.2404339],[-58.1428161,-32.240282],[-58.142479,-32.2401255],[-58.1422768,-32.2399411],[-58.1421039,-32.2397341],[-58.142005,-32.2395264],[-58.1418754,-32.2393748],[-58.1416326,-32.2389046],[-58.1415926,-32.2388747],[-58.1415552,-32.238825],[-58.1415382,-32.2387815],[-58.1415297,-32.2387487],[-58.1414376,-32.2386316],[-58.1413813,-32.2385466],[-58.1413424,-32.2384803],[-58.1412523,-32.2383667],[-58.1411233,-32.2382304],[-58.1410634,-32.2381642],[-58.1410287,-32.2381428],[-58.1409931,-32.2381205],[-58.1409572,-32.2380871],[-58.1409164,-32.2380592],[-58.1408486,-32.2380296],[-58.1408153,-32.2380115],[-58.140708,-32.2379457],[-58.1404627,-32.2378702],[-58.1404122,-32.2378679],[-58.140313,-32.2378441],[-58.140221,-32.237826],[-58.1401132,-32.2378485],[-58.1400126,-32.2378534],[-58.1399491,-32.2378065],[-58.1398015,-32.2378207],[-58.1396903,-32.2378586],[-58.1395173,-32.2379327],[-58.1393647,-32.2379576],[-58.1391644,-32.2379601],[-58.1387928,-32.2379516],[-58.1386477,-32.2380603],[-58.1385067,-32.2381003],[-58.138279,-32.2380044],[-58.1381343,-32.2378634],[-58.1378484,-32.2376302],[-58.1375732,-32.2374508],[-58.1373348,-32.2373243],[-58.1371872,-32.2372209],[-58.137156,-32.2371691],[-58.1370826,-32.2371315],[-58.1369285,-32.237167],[-58.1368544,-32.2371647],[-58.1368271,-32.2371251],[-58.1368213,-32.2371024],[-58.1367031,-32.2370805],[-58.1362891,-32.2372247],[-58.1359667,-32.237472],[-58.1356934,-32.2376775],[-58.1367133,-32.2460908],[-58.1367439,-32.2461257],[-58.1368177,-32.2467118],[-58.1250696,-32.2436722],[-58.1254507,-32.2432884],[-58.125589,-32.2430816],[-58.125717,-32.2427388],[-58.1255696,-32.2425016],[-58.1255212,-32.2420225],[-58.1254827,-32.2416314],[-58.1252343,-32.2411253],[-58.1249992,-32.240714],[-58.1248271,-32.2402703],[-58.1248429,-32.2394912],[-58.1248664,-32.2386332],[-58.1248866,-32.2380193],[-58.1255857,-32.2368456],[-58.1257361,-32.2363324],[-58.1258516,-32.2360344],[-58.1244071,-32.2353439],[-58.1245909,-32.2352251],[-58.1247801,-32.2349697],[-58.1251773,-32.234673],[-58.1255507,-32.2342404],[-58.1257346,-32.2337367],[-58.1258551,-32.2333673],[-58.126042,-32.2328709],[-58.1267221,-32.2315869],[-58.1266935,-32.2308208],[-58.1272989,-32.2292331],[-58.127165,-32.2282779],[-58.1274096,-32.2274883],[-58.1273974,-32.2266776],[-58.128182,-32.2257577],[-58.1288547,-32.2249891],[-58.1304096,-32.2226533],[-58.1300845,-32.2224233],[-58.1305017,-32.2218819],[-58.1304101,-32.2215758],[-58.1302885,-32.2205391],[-58.1309688,-32.2189885],[-58.1327443,-32.2165143],[-58.1348797,-32.2148872],[-58.1365041,-32.2142274],[-58.142579,-32.2079401],[-58.1427375,-32.2080695],[-58.1434583,-32.2086582],[-58.1434798,-32.2086757],[-58.1455195,-32.2072621],[-58.1463487,-32.2069171],[-58.1472616,-32.2069654],[-58.1467233,-32.2077631],[-58.1470829,-32.2087275],[-58.1508041,-32.2112617],[-58.1507276,-32.2116519],[-58.1508671,-32.2121575],[-58.1510801,-32.2123796],[-58.1513667,-32.2125946],[-58.1518546,-32.2130263],[-58.1522726,-32.2135426],[-58.1525804,-32.2137592],[-58.1528586,-32.2143651],[-58.1531868,-32.2147295],[-58.1538586,-32.2150191],[-58.1542627,-32.2151353],[-58.1544415,-32.2152547],[-58.1550359,-32.2154109],[-58.1555082,-32.2155561],[-58.1556317,-32.2156132],[-58.1557023,-32.2156796],[-58.1557598,-32.2157335],[-58.1559374,-32.2158928],[-58.1561684,-32.2161024],[-58.1562734,-32.2161869],[-58.1562932,-32.2162809],[-58.1563161,-32.2164055],[-58.1563024,-32.2165061],[-58.1562978,-32.2166098],[-58.156324,-32.2167463],[-58.1564017,-32.2168947],[-58.1564403,-32.2170391],[-58.156441,-32.2171256],[-58.1564796,-32.2173244],[-58.1564796,-32.2174183],[-58.156492,-32.2176328],[-58.156573,-32.217779],[-58.1567384,-32.2179605],[-58.1568986,-32.2181758],[-58.1570311,-32.2182803],[-58.1571162,-32.2183976],[-58.1573271,-32.2185983],[-58.1574305,-32.2187209],[-58.1575801,-32.2188069],[-58.1577211,-32.2189103],[-58.1577611,-32.218919],[-58.1581179,-32.2190565],[-58.1582045,-32.2190942],[-58.1580204,-32.2192339],[-58.1580454,-32.2192561],[-58.1581629,-32.2193348],[-58.1582497,-32.2193027]]}}]}