{"type":"FeatureCollection","features":[{"type":"Feature","properties":{},"geometry":{"type":"Point","coordinates":[5675240.822,6433967.63]}},{"type":"Feature","properties":{},"geometry":{"type":"Point","coordinates":[5675164.151,6434040.82]}},{"type":"Feature","properties":{},"geometry":{"type":"Point","coordinates":[5675093.77,6434125.523]}},{"type":"Feature","properties":{},"geometry":{"type":"Point","coordinates":[5675030.075,6434202.281]}},{"type":"Feature","properties":{},"geometry":{"type":"Point","coordinates":[5674801.087,6434150.667]}},{"type":"Feature","properties":{},"geometry":{"type":"Point","coordinates":[5674685.667,6434055.189]}},{"type":"Feature","properties":{},"geometry":{"type":"Point","coordinates":[5674751.09,6433976.208]}},{"type":"Feature","properties":{},"geometry":{"type":"Point","coordinates":[5674866.155,6434070.217]}},{"type":"Feature","properties":{},"geometry":{"type":"Point","coordinates":[5674803.732,6433753.832]}},{"type":"Feature","properties":{},"geometry":{"type":"Point","coordinates":[5674884.519,6433816.655]}},{"type":"Feature","properties":{},"geometry":{"type":"Point","coordinates":[5675000.505,6433910.694]}},{"type":"Feature","properties":{},"geometry":{"type":"Point","coordinates":[5675082.742,6433977.851]}},{"type":"Feature","properties":{},"geometry":{"type":"Point","coordinates":[5675148.92,6433896.133]}},{"type":"Feature","properties":{},"geometry":{"type":"Point","coordinates":[5675066.987,6433829.516]}},{"type":"Feature","properties":{},"geometry":{"type":"Point","coordinates":[5675018.28,6433790.247]}},{"type":"Feature","properties":{},"geometry":{"type":"Point","coordinates":[5674948.233,6433739.468]}},{"type":"Feature","properties":{},"geometry":{"type":"Point","coordinates":[5675311.64,6434027.331]}},{"type":"Feature","properties":{},"geometry":{"type":"Point","coordinates":[5675393.287,6434093.706]}},{"type":"Feature","properties":{},"geometry":{"type":"Point","coordinates":[5675474.654,6434160.704]}},{"type":"Feature","properties":{},"geometry":{"type":"Point","coordinates":[5675488.994,6434308.417]}},{"type":"Feature","properties":{},"geometry":{"type":"Point","coordinates":[5675414.146,6434240.294]}},{"type":"Feature","properties":{},"geometry":{"type":"Point","coordinates":[5675327.037,6434176.525]}},{"type":"Feature","properties":{},"geometry":{"type":"Point","coordinates":[5675110.957,6434273.563]}},{"type":"Feature","properties":{},"geometry":{"type":"Point","coordinates":[5675418.09,6434394.715]}},{"type":"Feature","properties":{},"geometry":{"type":"Point","coordinates":[5675336.061,6434326.297]}},{"type":"Feature","properties":{},"geometry":{"type":"Point","coordinates":[5675245.08,6434110.121]}},{"type":"Feature","properties":{},"geometry":{"type":"Point","coordinates":[5675230.027,6433962.239]}},{"type":"Feature","properties":{},"geometry":{"type":"Point","coordinates":[5675134.16,6434420.677]}},{"type":"Feature","properties":{},"geometry":{"type":"Point","coordinates":[5675357.852,6434139.305]}},{"type":"Feature","properties":{},"geometry":{"type":"Point","coordinates":[5675452.207,6434194.599]}},{"type":"Feature","properties":{},"geometry":{"type":"Point","coordinates":[5675446.224,6434188.885]}},{"type":"Feature","properties":{},"geometry":{"type":"Point","coordinates":[5675384.629,6434094.692]}},{"type":"Feature","properties":{},"geometry":{"type":"Point","coordinates":[5675382.897,6434099.902]}},{"type":"Feature","properties":{},"geometry":{"type":"Point","coordinates":[5675800.313,6434425.679]}},{"type":"Feature","properties":{},"geometry":{"type":"Point","coordinates":[5675718.904,6434359.011]}},{"type":"Feature","properties":{},"geometry":{"type":"Point","coordinates":[5675636.457,6434293.486]}},{"type":"Feature","properties":{},"geometry":{"type":"Point","coordinates":[5675555.723,6434227.299]}},{"type":"Feature","properties":{},"geometry":{"type":"Point","coordinates":[5675488.843,6434308.391]}},{"type":"Feature","properties":{},"geometry":{"type":"Point","coordinates":[5675570.578,6434374.517]}},{"type":"Feature","properties":{},"geometry":{"type":"Point","coordinates":[5675652.614,6434440.71]}},{"type":"Feature","properties":{},"geometry":{"type":"Point","coordinates":[5675733.271,6434508.028]}},{"type":"Feature","properties":{},"geometry":{"type":"Point","coordinates":[5675574.757,6434529.171]}},{"type":"Feature","properties":{},"geometry":{"type":"Point","coordinates":[5675358.276,6434470.436]}},{"type":"Feature","properties":{},"geometry":{"type":"Point","coordinates":[5675518.326,6434600.34]}},{"type":"Feature","properties":{},"geometry":{"type":"Point","coordinates":[5675387.679,6433768.486]}},{"type":"Feature","properties":{},"geometry":{"type":"Point","coordinates":[5675218.316,6433949.704]}},{"type":"Feature","properties":{},"geometry":{"type":"Point","coordinates":[5674954.363,6433731.076]}},{"type":"Feature","properties":{},"geometry":{"type":"Point","coordinates":[5675017.234,6433653.211]}},{"type":"Feature","properties":{},"geometry":{"type":"Point","coordinates":[5675067.954,6433695.637]}},{"type":"Feature","properties":{},"geometry":{"type":"Point","coordinates":[5675176.478,6433781.128]}},{"type":"Feature","properties":{},"geometry":{"type":"Point","coordinates":[5675195.208,6433795.809]}},{"type":"Feature","properties":{},"geometry":{"type":"Point","coordinates":[5675214.661,6433814.773]}},{"type":"Feature","properties":{},"geometry":{"type":"Point","coordinates":[5675296.296,6433881.062]}},{"type":"Feature","properties":{},"geometry":{"type":"Point","coordinates":[5675341.831,6433825.373]}},{"type":"Feature","properties":{},"geometry":{"type":"Point","coordinates":[5675260.456,6433759.679]}},{"type":"Feature","properties":{},"geometry":{"type":"Point","coordinates":[5675179.622,6433693.975]}},{"type":"Feature","properties":{},"geometry":{"type":"Point","coordinates":[5675062.187,6433599.274]}},{"type":"Feature","properties":{},"geometry":{"type":"Point","coordinates":[5675109.898,6433536.838]}},{"type":"Feature","properties":{},"geometry":{"type":"Point","coordinates":[5675374.052,6433620.115]}},{"type":"Feature","properties":{},"geometry":{"type":"Point","coordinates":[5675097.711,6433393.475]}},{"type":"Feature","properties":{},"geometry":{"type":"Point","coordinates":[5675584.89,6434024.939]}},{"type":"Feature","properties":{},"geometry":{"type":"Point","coordinates":[5675504.098,6433958.922]}},{"type":"Feature","properties":{},"geometry":{"type":"Point","coordinates":[5675422.856,6433892.319]}},{"type":"Feature","properties":{},"geometry":{"type":"Point","coordinates":[5675377.594,6433947.669]}},{"type":"Feature","properties":{},"geometry":{"type":"Point","coordinates":[5675458.54,6434014.364]}},{"type":"Feature","properties":{},"geometry":{"type":"Point","coordinates":[5675540.133,6434080.807]}},{"type":"Feature","properties":{},"geometry":{"type":"Point","coordinates":[5675632.494,6433963.394]}},{"type":"Feature","properties":{},"geometry":{"type":"Point","coordinates":[5675468.757,6433835.492]}},{"type":"Feature","properties":{},"geometry":{"type":"Point","coordinates":[5675365.27,6433955.072]}},{"type":"Feature","properties":{},"geometry":{"type":"Point","coordinates":[5675344.096,6433980.804]}},{"type":"Feature","properties":{},"geometry":{"type":"Point","coordinates":[5675341.651,6433983.925]}},{"type":"Feature","properties":{},"geometry":{"type":"Point","coordinates":[5675315.278,6434017.015]}},{"type":"Feature","properties":{},"geometry":{"type":"Point","coordinates":[5675319.907,6434027.654]}},{"type":"Feature","properties":{},"geometry":{"type":"Point","coordinates":[5676023.72,6434148.091]}},{"type":"Feature","properties":{},"geometry":{"type":"Point","coordinates":[5675941.609,6434085.239]}},{"type":"Feature","properties":{},"geometry":{"type":"Point","coordinates":[5675781.744,6433951.6]}},{"type":"Feature","properties":{},"geometry":{"type":"Point","coordinates":[5675715.322,6434031.29]}},{"type":"Feature","properties":{},"geometry":{"type":"Point","coordinates":[5675876.222,6434165.363]}},{"type":"Feature","properties":{},"geometry":{"type":"Point","coordinates":[5675956.455,6434231.612]}},{"type":"Feature","properties":{},"geometry":{"type":"Point","coordinates":[5675910.317,6434289.363]}},{"type":"Feature","properties":{},"geometry":{"type":"Point","coordinates":[5675829.401,6434223.48]}},{"type":"Feature","properties":{},"geometry":{"type":"Point","coordinates":[5675748.065,6434157.419]}},{"type":"Feature","properties":{},"geometry":{"type":"Point","coordinates":[5675666.953,6434091.62]}},{"type":"Feature","properties":{},"geometry":{"type":"Point","coordinates":[5675620.557,6434146.921]}},{"type":"Feature","properties":{},"geometry":{"type":"Point","coordinates":[5675701.919,6434213.986]}},{"type":"Feature","properties":{},"geometry":{"type":"Point","coordinates":[5675782.459,6434280.532]}},{"type":"Feature","properties":{},"geometry":{"type":"Point","coordinates":[5675782.374,6434277.609]}},{"type":"Feature","properties":{},"geometry":{"type":"Point","coordinates":[5675864.166,6434347.49]}},{"type":"Feature","properties":{},"geometry":{"type":"Point","coordinates":[5675945.726,6434405.784]}},{"type":"Feature","properties":{},"geometry":{"type":"Point","coordinates":[5675778.119,6434269.62]}},{"type":"Feature","properties":{},"geometry":{"type":"Point","coordinates":[5674626.2,6433464.847]}},{"type":"Feature","properties":{},"geometry":{"type":"Point","coordinates":[5674772.11,6433454.242]}},{"type":"Feature","properties":{},"geometry":{"type":"Point","coordinates":[5674857.376,6433523.01]}},{"type":"Feature","properties":{},"geometry":{"type":"Point","coordinates":[5674869.556,6433003.001]}},{"type":"Feature","properties":{},"geometry":{"type":"Point","coordinates":[5674900.35,6432965.24]}},{"type":"Feature","properties":{},"geometry":{"type":"Point","coordinates":[5674932.91,6432924.775]}},{"type":"Feature","properties":{},"geometry":{"type":"Point","coordinates":[5674489.8,6433631.975]}},{"type":"Feature","properties":{},"geometry":{"type":"Point","coordinates":[5674410.801,6433566.548]}},{"type":"Feature","properties":{},"geometry":{"type":"Point","coordinates":[5674423.32,6433710.494]}},{"type":"Feature","properties":{},"geometry":{"type":"Point","coordinates":[5674556.087,6433550.352]}},{"type":"Feature","properties":{},"geometry":{"type":"Point","coordinates":[5674572.241,6433699.671]}},{"type":"Feature","properties":{},"geometry":{"type":"Point","coordinates":[5674506.514,6433779.9]}},{"type":"Feature","properties":{},"geometry":{"type":"Point","coordinates":[5674441.509,6433859.678]}},{"type":"Feature","properties":{},"geometry":{"type":"Point","coordinates":[5674671.222,6433912.17]}},{"type":"Feature","properties":{},"geometry":{"type":"Point","coordinates":[5674736.017,6433829.487]}}]}