{"type":"FeatureCollection","features":[{"type":"Feature","properties":{},"geometry":{"type":"Polygon","coordinates":[[[5665803.66,6425510.755],[5665691.242,6426030.535],[5665706.48,6426032.303],[5666281.35045739,6426155.08695371],[5666447.35473151,6426191.11323152],[5666557.77182047,6426215.77808393],[5666724.87,6426257.87],[5666736.111,6426265.404],[5666850.198,6425730.326],[5666326.736,6425621.546],[5665819.448,6425518.04],[5665803.66,6425510.755]]]}},{"type":"Feature","properties":{},"geometry":{"type":"Polygon","coordinates":[[[5667505.300433039,6432077.544563414],[5667513.722,6432055.021],[5667689.25631782,6431562.67063899],[5667693.863,6431546.056],[5667880.52192325,6431018.99229919],[5667866.526,6431013.267],[5668002.451,6430606.481],[5668036.879,6430508.289],[5668205.74,6430016.143],[5667726.496506239,6429839.7693848265],[5667696.42807469,6429829.6157487],[5667222.723,6429669.653],[5667207.25,6429672.064],[5666944.937,6429577.393],[5666644.861,6429473.237],[5666629.79912859,6429467.37326507],[5666530.949,6429426.814],[5666393.07892295,6429374.81052429],[5666111.325,6429273.886],[5665900.449,6429194.223],[5665775.84,6429144.131],[5665530.59325899,6429046.824136164],[5665365.07947005,6429555.9513194],[5665201.402,6430060.733],[5665196.705,6430075.549],[5665031.91,6430579.948],[5664889.617909,6431014.61479132],[5664859.59216921,6431115.55157647],[5664941.22487067,6431174.15698972],[5665959.7914566,6431528.08922922],[5666200.339,6431612.03],[5666305.38303799,6431638.38467288],[5666467.37670114,6431694.01704584],[5666484.636420279,6431715.978857592],[5666917.26652123,6431863.21853691],[5666991.063,6431888.751],[5667495.19748991,6432075.52597374],[5667505.300433039,6432077.544563414]]]}},{"type":"Feature","properties":{},"geometry":{"type":"Polygon","coordinates":[[[5662815.718,6430435.837],[5663851.664111,6430773.88946374],[5664859.59216921,6431115.55157647],[5664889.617909,6431014.61479132],[5665031.91,6430579.948],[5665196.705,6430075.549],[5665201.402,6430060.733],[5665365.07947005,6429555.9513194],[5665530.59325899,6429046.824136164],[5665636.351,6428721.509],[5665658.933,6428710.49],[5664656.774390695,6428262.031608352],[5664651.329,6428278.298],[5664504.94723225,6428715.56748126],[5664000.69554987,6428548.51659273],[5663494.584,6428389.214],[5663478.255,6428382.774],[5663315.26094151,6428888.96598122],[5662809.6518118,6428725.88361607],[5662646.284891079,6429227.162458323],[5662642.059,6429245.542],[5662477.678,6429747.15],[5662314.89859831,6430254.662970119],[5662311.9685173,6430271.939216773],[5662815.718,6430435.837]]]}},{"type":"Feature","properties":{},"geometry":{"type":"Polygon","coordinates":[[[5660945.407711755,6427554.413960267],[5660418.539232925,6427380.846339623],[5660415.453,6427390.442],[5660360.746,6427565.81],[5660343.947,6427630.377],[5660258.732,6427889.591],[5660100.42000865,6428399.49615122],[5660081.085,6428438.517],[5659928.238,6428916.615],[5659766.536,6429414.91],[5659760.389,6429440.805],[5660758.931,6429766.98],[5661804.01,6430106.672],[5662311.9685173,6430271.939216773],[5662314.89859831,6430254.662970119],[5662477.678,6429747.15],[5662642.059,6429245.542],[5662646.284891079,6429227.162458323],[5662809.6518118,6428725.88361607],[5662307.7479566205,6428562.847956272],[5662472.759,6428055.053],[5662454.101,6428049.3],[5662380.48812419,6428025.8548521],[5662141.25907114,6427948.57184104],[5662119.034755473,6427941.254919501],[5661445.277,6427718.485],[5661430.46967763,6427715.33169999],[5660945.407711755,6427554.413960267]]]}},{"type":"Feature","properties":{},"geometry":{"type":"Polygon","coordinates":[[[5664152.8303315,6428037.65761148],[5663666.533,6427820.684],[5662529.002864162,6427311.817148963],[5661564.821,6427364.674],[5661526.091350673,6427480.517063098],[5661016.87067678,6427316.68617146],[5660945.407711755,6427554.413960267],[5661430.46967763,6427715.33169999],[5661445.277,6427718.485],[5662119.034755473,6427941.254919501],[5662141.25907114,6427948.57184104],[5662380.48812419,6428025.8548521],[5662454.101,6428049.3],[5662472.759,6428055.053],[5662307.7479566205,6428562.847956272],[5662809.6518118,6428725.88361607],[5663315.26094151,6428888.96598122],[5663478.255,6428382.774],[5663494.584,6428389.214],[5664000.69554987,6428548.51659273],[5664504.94723225,6428715.56748126],[5664651.329,6428278.298],[5664656.774390695,6428262.031608352],[5664152.8303315,6428037.65761148]]]}},{"type":"Feature","properties":{},"geometry":{"type":"Polygon","coordinates":[[[5665039.270435033,6425348.591828996],[5665803.66,6425510.755],[5665819.448,6425518.04],[5666326.736,6425621.546],[5666850.198,6425730.326],[5666736.111,6426265.404],[5667307.834,6426390.292],[5667758.754,6426485.465],[5667768.944,6426490.824],[5667813.587,6426531.397],[5667934.007,6426577.585],[5667936.877,6426562.55],[5668041.483,6425988.045],[5668051.5,6425879.704],[5668053.626,6425815.638],[5668048.70668081,6425535.15524175],[5668046.762,6425444.295],[5668038.209840923,6425044.717219795],[5667835.318,6425023.377],[5667844.554,6424999.466],[5667855.886,6424966.941],[5667868.737,6424935.247],[5667889.999,6424914.019],[5667903.951,6424900.794],[5667919.345,6424880.838],[5667928.837,6424857.92],[5667923.911,6424822.745],[5667915.251,6424797.422],[5667907.295,6424766.617],[5667895.581,6424747.464],[5667882.209,6424724.418],[5667872.217,6424711.477],[5667870.323,6424694.801],[5667892.815,6424672.349],[5667915.475,6424653.02],[5667933.289,6424638.168],[5667941.82516799,6424621.67967305],[5667939.781,6424587.822],[5667938.456,6424572.501],[5667938.813,6424559.363],[5667941.374,6424536.442],[5667940.252,6424512.841],[5667935.616,6424482.891],[5667928.825,6424459.124],[5667919.322,6424436.22],[5667917.631,6424408.2],[5667920.732,6424378.535],[5667922.743,6424356.327],[5667929.897,6424333.198],[5667935.858,6424311.763],[5667937.636,6424286.761],[5667947.364,6424259.706],[5667958.99,6424225.475],[5667963.272,6424195.016],[5667962.77,6424172.233],[5667957.84,6424143.99],[5667951.473,6424115.547],[5667953.81905603,6424085.80913017],[5667961.826,6424055.552],[5667974.49,6424024.396],[5667992.355,6423994.75],[5668007.276,6423963.174],[5668016.36,6423937.101],[5668027.505,6423905.113],[5668034.5,6423873.79],[5668021.087,6423840.481],[5668016.67,6423814.225],[5668025.779,6423786.351],[5668043.103,6423763.45],[5668052.66,6423746.366],[5668059.587,6423724.869],[5668079.077,6423707.448],[5668103.532,6423684.564],[5668124.535,6423662.742],[5668125.081,6423649.259],[5668124.719,6423633.702],[5668126.438,6423609.626],[5668120.632,6423578.709],[5668110.298,6423546.601],[5668098.089,6423516.581],[5668090.068,6423495.475],[5668076.143,6423479.874],[5668054.527,6423466.671],[5668018.339,6423454.11],[5668004.074,6423448.477],[5667981.678,6423426.318],[5667962.43,6423404.208],[5667939.475,6423359.437],[5667934.26963832,6423318.11889634],[5667929.885230753,6423283.317201946],[5667938.047,6423253.167],[5667940.418,6423234.6],[5667945.463,6423215.434],[5667952.495,6423188.019],[5667955.448,6423166.189],[5667956.385,6423145.732],[5667937.239,6423111.202],[5667906.306,6423081.028],[5667878.708,6423053.427],[5667853.108,6423013.549],[5667845.995,6422996.272],[5667840.655,6422978.54],[5667837.795,6422947.614],[5667835.515,6422928.617],[5667833.279,6422882.81],[5667828.462,6422856.081],[5667816.219,6422841.143],[5667784.037,6422835.652],[5667753.487,6422833.762],[5667733.444,6422834.893],[5667712.205,6422839.163],[5667706.005,6422837.617],[5667692.969,6422830.07],[5667687.313,6422821.831],[5667679.583,6422810.375],[5667663.945,6422790.542],[5667660.552,6422777.249],[5667656.5,6422760.64],[5667652.068,6422748.971],[5667648.097,6422738.373],[5667644.968,6422725.416],[5667632.935,6422709.888],[5667630.131,6422699.464],[5667628.228,6422688.877],[5667617.579,6422676.139],[5667600.375,6422666.079],[5667593.813,6422657.155],[5667584.965,6422643.669],[5667572.865,6422636.939],[5667565.845,6422632.744],[5667552.201,6422618.939],[5667536.034,6422599.944],[5667513.632,6422585.312],[5667495.237,6422572.35],[5667477.914,6422558.32],[5667469.163,6422546.501],[5667450.79,6422530.465],[5667426.218,6422521.705],[5667407.491,6422515.271],[5667387.869,6422501.448],[5667377.968,6422483.6],[5667368.781,6422454.709],[5667359.058,6422423.451],[5667356.774,6422393.275],[5667358.426,6422367.765],[5667362.082,6422341.156],[5667368.595,6422317.077],[5667367.746,6422293.635],[5667359.647,6422276.973],[5667347.906,6422258.046],[5667319.004,6422228.289],[5667298.535,6422212.11],[5667279.097,6422196.481],[5667249.322,6422178.857],[5667234.278,6422171.561],[5667213.313,6422158.71],[5667191.283,6422144.754],[5667170.774,6422133.636],[5667104.614,6422135.642],[5667083.61,6422121.834],[5667079.959,6422107.543],[5667076.385,6422089.594],[5667072.672,6422071.173],[5667064.638,6422054.112],[5667030.132,6422047.61],[5667010.431,6422059.617],[5667004.893,6422082.896],[5667006.177,6422123.41],[5667006.899,6422146.564],[5667001.613,6422174.948],[5666993.386,6422196.302],[5666979.544,6422214.687],[5666952.991,6422238.812],[5666931.467,6422258.084],[5666917.318,6422268.506],[5666898.059,6422279.704],[5666878.619,6422298.511],[5666861.773,6422316.067],[5666848.659,6422332.839],[5666847.215,6422343.562],[5666849.822,6422355.185],[5666862.968,6422378.781],[5666871.627,6422389.783],[5666883.524,6422398.374],[5666902.219,6422407.697],[5666919.878,6422426.378],[5666931.012,6422445.934],[5666935.721,6422458.548],[5666944.183,6422484.523],[5666948.309,6422500.493],[5666948.396,6422510.795],[5666942.765,6422531.323],[5666936.801,6422540.736],[5666928.257,6422560.829],[5666919.543,6422574.941],[5666906.93,6422589.233],[5666893.358,6422602.338],[5666880.882,6422615.169],[5666873.471,6422634.881],[5666866.114,6422655.518],[5666862.617,6422665.327],[5666853.146,6422679.411],[5666846.107,6422690.978],[5666837.216,6422702.791],[5666821.825,6422728.962],[5666808.687,6422744.94],[5666797.309,6422763.298],[5666786.563,6422781.82],[5666778.679,6422800.276],[5666771.14,6422807.436],[5666757.603,6422828.407],[5666748.374,6422840.523],[5666742.337,6422852.508],[5666733.779,6422859.727],[5666716.207,6422868.99],[5666706.591,6422881.33],[5666688.446,6422888.757],[5666666.626,6422894.873],[5666646.548,6422898.469],[5666622.353,6422894.677],[5666604.638,6422890.355],[5666587.616,6422883.441],[5666568.549,6422873.441],[5666561.099,6422868.731],[5666548.436,6422863.794],[5666526.749,6422853.827],[5666516.159,6422846.306],[5666501.542,6422835.657],[5666479.47,6422827.849],[5666450.288,6422817.385],[5666423.563,6422810.576],[5666402.589,6422824.002],[5666382.346,6422806.757],[5666358.457,6422805.55],[5666331.324,6422807.416],[5666308.035,6422807.753],[5666279.21793345,6422809.24073111],[5666249.93060161,6422813.75378448],[5666231.871,6422812.439],[5666204.512,6422805.042],[5666173.484,6422806.426],[5666154.85,6422809.63],[5666134.488,6422811.011],[5666123.712,6422817.137],[5666109.032,6422833.351],[5666095.417,6422847.226],[5666090.385,6422855.099],[5666083.585,6422876.539],[5666078.327,6422892.365],[5666075.715,6422907.868],[5666074.833,6422923.684],[5666073.657,6422942.477],[5666071.379,6422960.272],[5666069.692,6422971.029],[5666061.523,6422992.223],[5666053.86,6423013.717],[5666047.592,6423031.299],[5666045.969,6423037.789],[5666044.304,6423048.462],[5666042.009,6423072.566],[5666038.713,6423086.978],[5666030.834,6423099.394],[5666021.877,6423108.163],[5666010.6,6423125.006],[5665999.879,6423142.905],[5665987.421,6423156.295],[5665975.488,6423170.769],[5665962.356,6423187.83],[5665951.598,6423201.511],[5665947.303,6423207.827],[5665939.922,6423216.975],[5665934.814,6423230.817],[5665928.344,6423245.987],[5665917.669,6423260.297],[5665909.729,6423271.053],[5665894.651,6423285.936],[5665863.683,6423301.607],[5665840.927,6423313.524],[5665825.856,6423320.602],[5665810.692,6423327.948],[5665795.052,6423337.531],[5665781.183,6423348.931],[5665771.041,6423356.519],[5665760.317,6423367.509],[5665752.727,6423378.987],[5665747.758,6423388.973],[5665737.7,6423404.098],[5665734.685,6423408.457],[5665724.061,6423432.995],[5665703.327,6423484.051],[5665700.267,6423491.997],[5665691.084,6423508.928],[5665685.009,6423521.232],[5665674.847,6423537.523],[5665669.55,6423544.992],[5665665.534,6423550.504],[5665662.775,6423555.853],[5665654.024,6423574.134],[5665648.182,6423610.843],[5665646.874,6423629.308],[5665645.835,6423647.866],[5665647.602,6423664.395],[5665646.909,6423676.767],[5665646.833,6423689.953],[5665642.031,6423708.105],[5665634.805,6423726.316],[5665627.461,6423739.681],[5665618.476,6423755.179],[5665613.562,6423760.68],[5665601.51,6423770.307],[5665590.005,6423779.225],[5665579.501,6423786.988],[5665571.059,6423794.867],[5665550.762,6423810.941],[5665536.905,6423821.443],[5665517.26,6423835.641],[5665503.867,6423844.804],[5665492.571,6423851.391],[5665480.202,6423857.606],[5665464.58714492,6423864.72520953],[5665451.96,6423870.62],[5665436.807,6423877.069],[5665425.812,6423881.058],[5665408.97,6423886.32],[5665394.968,6423886.862],[5665379.28,6423893.125],[5665366.762,6423904.093],[5665349.086,6423918.675],[5665342.844,6423922.813],[5665337.324,6423926.602],[5665326.998,6423941.634],[5665326.968,6423951.233],[5665324.893,6423973.635],[5665311.423,6423989.077],[5665294.654,6424002.773],[5665278.221,6424011.179],[5665263.371,6424015.031],[5665253.47,6424017.598],[5665235.378,6424015.219],[5665232.873,6424014.649],[5665226.442,6424012.416],[5665212.6,6424007.308],[5665206.939,6424008.045],[5665172.786,6424013],[5665158.717,6424018.925],[5665145.418,6424027.819],[5665135.881,6424037.12],[5665123.844,6424052.759],[5665120.843,6424063.128],[5665122.584,6424074.543],[5665128.148,6424088.788],[5665132.706,6424097.278],[5665138.442,6424104.975],[5665137.511710324,6424131.75104677],[5665160.12,6424129.02],[5665164.702,6424135.716],[5665169.435,6424144.567],[5665174.07,6424158.383],[5665177.868,6424166.114],[5665183.852,6424182.607],[5665189.996,6424193.449],[5665192.389,6424202.988],[5665193.467,6424217.177],[5665192.346,6424235.105],[5665192.453,6424240.848],[5665193.063,6424249.468],[5665191.905,6424263.18],[5665188.231,6424277.219],[5665186.029,6424302.58],[5665185.619,6424321.056],[5665185.346,6424335.675],[5665184.552,6424356.12],[5665184.206,6424362.306],[5665183.237,6424382.39],[5665182.715,6424388.214],[5665179.859,6424408.543],[5665177.863,6424424.667],[5665176.474,6424442.502],[5665170.555,6424463.87],[5665164.785,6424480.484],[5665158.605,6424493.953],[5665152.136,6424509.124],[5665148.208,6424529.081],[5665143.044,6424547.407],[5665138.603,6424565.384],[5665136.071,6424581.321],[5665133.722,6424589.814],[5665127.665,6424615.038],[5665123.554,6424642.438],[5665118.889,6424656.734],[5665117.184,6424671.157],[5665113.814,6424689.506],[5665114.591,6424706.292],[5665112.115,6424717.744],[5665108.114,6424729.267],[5665104.413,6424738.192],[5665093.444,6424747.295],[5665082.929,6424755.955],[5665070.795,6424764.954],[5665067.91,6424773.261],[5665056.323,6424781.55],[5665051.362,6424783.73],[5665040.307,6424785.297],[5665028.847,6424790.626],[5665017.037,6424795.233],[5665009.7427785,6424797.55117222],[5664991.809,6424803.888],[5664984.157,6424806.035],[5664969.89,6424813.393],[5664957.183,6424817.989],[5664942.812,6424826.511],[5664917.904,6424845.488],[5664906.816,6424849.745],[5664893.699,6424851.196],[5664884.99,6424858.982],[5664880.497,6424866.73],[5664867.235,6424879.842],[5664863.698,6424890.025],[5664861.617,6424898.611],[5664859.923,6424912.137],[5664860.197,6424926.046],[5664861.138,6424944.09],[5664862.276,6424960.701],[5664864.522,6424981.901],[5664859.946,6425010.642],[5664855.758,6425022.701],[5664849.672,6425035.902],[5664843.397,6425042.732],[5664838.822,6425049.851],[5664853.677551428,6425082.406350922],[5665039.270435033,6425348.591828996]]]}},{"type":"Feature","properties":{},"geometry":{"type":"Polygon","coordinates":[[[5664361.357,6432631.042],[5664406.859116978,6432637.951936477],[5665949.682,6433179.22],[5665975.63148131,6433203.0487751],[5666370.12988165,6433340.12853973],[5666507.211,6433390.008],[5666951.2177271,6433550.14112438],[5667141.07651968,6433046.08861466],[5667322.134,6432543.924],[5667495.19748991,6432075.52597374],[5666991.063,6431888.751],[5666917.26652123,6431863.21853691],[5666484.636420279,6431715.978857592],[5666467.37670114,6431694.01704584],[5666305.38303799,6431638.38467288],[5666200.339,6431612.03],[5665959.7914566,6431528.08922922],[5664941.22487067,6431174.15698972],[5664859.59216921,6431115.55157647],[5664361.357,6432631.042]]]}},{"type":"Feature","properties":{},"geometry":{"type":"Polygon","coordinates":[[[5664361.357,6432631.042],[5664859.59216921,6431115.55157647],[5663851.664111,6430773.88946374],[5662815.718,6430435.837],[5662482.578,6431458.152],[5661977.717,6431293.093],[5661814.018,6431796.694],[5662035.481,6431865.859],[5661882.41145866,6432339.4232467],[5662161.26356546,6432431.07875198],[5662321.733,6431952.872],[5662334.433,6431968.117],[5664361.357,6432631.042]]]}},{"type":"Feature","properties":{},"geometry":{"type":"Polygon","coordinates":[[[5661814.018,6431796.694],[5661977.717,6431293.093],[5662482.578,6431458.152],[5662815.718,6430435.837],[5662311.9685173,6430271.939216773],[5661804.01,6430106.672],[5660758.931,6429766.98],[5659760.389,6429440.805],[5659432.462,6430438.506],[5659265.698,6430965.966],[5661814.018,6431796.694]]]}},{"type":"Feature","properties":{},"geometry":{"type":"Polygon","coordinates":[[[5671942.56066531,6425961.82497845],[5671934.015,6426026.349],[5671930.41399847,6426074.96973709],[5671914.754,6426306.714],[5671920.409,6426507.356],[5671940.143,6426925.715],[5671941.291,6426942.088],[5671943.983,6426979.081],[5671946.063,6427005.084],[5671958.18781642,6427067.6710351],[5672019.391,6427390.296],[5672043.74452411,6427515.92292219],[5672065.892,6427630.063],[5672126.109,6427936.41],[5672173.976092602,6428173.536984781],[5672241.744546675,6428509.252573592],[5672244.589,6428536.163],[5672246.303785538,6428552.386015384],[5671889.094,6428599.858],[5671660.258614619,6428499.767625367],[5671641.088,6428499.252],[5671579.537161259,6428816.412130279],[5671494.71831892,6429035.9562468],[5671381.655385893,6429330.508260498],[5671269.595907283,6429619.510486817],[5671254.227314615,6429656.355583994],[5671432.54216446,6429840.25017182],[5671619.49645807,6430033.0545445],[5671704.86391915,6429816.64803405],[5672081.117650353,6429953.14751513],[5672030.46,6430103.602],[5672220.761872362,6430163.2410838865],[5672232.99812464,6430195.82581393],[5672233.27090667,6430226.89456456],[5672274.27493758,6430206.41273465],[5672319.72953149,6430206.41273465],[5672347.00225416,6430224.576703],[5672372.29994646,6430228.78881295],[5672447.00234955,6430242.74061778],[5672456.09331322,6430269.98651673],[5672647.00254031,6430233.65863361],[5672655.70567368,6430240.61428725],[5672692.457134259,6430269.98651673],[5672830.985,6430269.624],[5672844.539297033,6430291.362023549],[5672842.222,6430303.711],[5672844.646,6430344.248],[5672850.915,6430376.818],[5672855.508,6430407.448],[5672871.98641642,6430427.22649521],[5672894.782,6430436.13],[5672924.732,6430444.431],[5672947.116,6430472.353],[5672950.218,6430495.735],[5672962.1,6430526.39],[5672979.035,6430550.569],[5672994.885,6430565.884],[5673000.51718288,6430579.12843197],[5673012.638,6430606.739],[5673029.505,6430620.81],[5673056.088,6430637.478],[5673079.891,6430652.257],[5673101.833,6430667.152],[5673123.889,6430683.177],[5673148.484,6430706.238],[5673167.315,6430729.828],[5673183.937,6430747.22],[5673190.164,6430766.287],[5673190.811,6430798.582],[5673193.746,6430827.257],[5673205.673,6430848.569],[5673222.907,6430863.369],[5673261.844,6430874.269],[5673293.636,6430888.039],[5673312.781,6430906.993],[5673330.508,6430927.666],[5673345.815,6430944.625],[5673377.514,6430952.044],[5673399.18,6430948.255],[5673416.942,6430944.879],[5673441.6,6430940.861],[5673465.472,6430954.327],[5673482.897,6430971.863],[5673503.258,6430982.711],[5673514.911,6430986.434],[5673535.86,6430987.026],[5673562.538,6430987.199],[5673583.499,6430991.805],[5673608.947,6430995.339],[5673640.096,6431013.635],[5673694.01656135,6431053.24833428],[5673703.46427945,6431060.79908054],[5673739.40883592,6431089.5264645],[5673754.821,6431151.373],[5673753.206,6431159.954],[5673758.724,6431174.169],[5673771.646,6431186.939],[5673785.174,6431195.29],[5673806.037,6431203.145],[5673827.03,6431206.182],[5673842.111,6431209.091],[5673862.978,6431218.405],[5673876.409,6431230.735],[5673888.634,6431242.302],[5673895.999,6431252.023],[5673908.724,6431259.867],[5673927.426,6431265.429],[5673944.593,6431270.485],[5673966.57351092,6431278.54830763],[5673984.855,6431288.762],[5673997.364,6431303.261],[5674004.928,6431307.514],[5674028.198,6431312.97],[5674037.952,6431320.119],[5674046.199,6431331.589],[5674050.739,6431348.034],[5674059.384,6431358.663],[5674075.934,6431364.487],[5674096.089,6431367.855],[5674121.439,6431373.474],[5674132.295,6431380.033],[5674148.06,6431392.656],[5674164.41561504,6431406.64305864],[5674191.47196033,6431407.71970045],[5674198.283,6431406.916],[5674213.517,6431400.154],[5674218.853,6431379.19],[5674228.744,6431356.204],[5674243.878,6431340.903],[5674260.792,6431334.574],[5674280.911,6431338.051],[5674295.421,6431345.269],[5674308.926,6431357.744],[5674332.846,6431386.537],[5674361.461,6431411.41],[5674392.91848535,6431433.56878737],[5674423.70044732,6431555.14993235],[5674453.52191902,6431601.96616628],[5674504.3279054,6431667.94897879],[5674539.89207902,6431703.47817316],[5674560.21449602,6431718.70495544],[5674616.10108665,6431739.00736753],[5674711.905,6431762.673],[5674728.019000065,6431771.694000029],[5674748.482,6431783.241],[5674758.138,6431787.733],[5674786.156,6431804.317],[5674794.368,6431811.876],[5674795.618,6431818.934],[5674796.473,6431830.442],[5674806.306,6431845.824],[5674821.967,6431867.557],[5674834.474,6431878.896],[5674858.765,6431880.503],[5674875.299,6431878.003],[5674894.546,6431886.071],[5674908.88,6431891.036],[5674940.281,6431903.407],[5674957.931,6431909.428],[5674981.295,6431917.011],[5674997.769,6431921.315],[5675019.724,6431928.92],[5675034.963,6431937.893],[5675056.651,6431948.845],[5675070.886,6431962.185],[5675085.909,6431979.874],[5675090.589,6431986.592],[5675096.643,6431999.645],[5675108.575000025,6432021.106000028],[5675119.721,6432038.217],[5675127.016,6432055.778],[5675132.972,6432073.894],[5675142.639,6432087.18],[5675148.57,6432100.956],[5675163.591,6432125.27],[5675172.033,6432139.151],[5675185.883,6432156.179],[5675199.165,6432169.698],[5675206.397,6432176.407],[5675218.874,6432183.787],[5675232.415,6432191.408],[5675249.177,6432197.086],[5675265.393,6432200.664],[5675271.965,6432201.921],[5675287.534,6432198.905],[5675302.169,6432204.102],[5675311.516,6432202.498],[5675314.417,6432201.847],[5675331.295,6432194.315],[5675345.644,6432188.201],[5675367.973,6432186.634],[5675389.755,6432189.592],[5675408.618,6432188.1],[5675419.17,6432177.867],[5675433.593,6432171.906],[5675450.867,6432179.418],[5675461.611,6432188.491],[5675471.218,6432200.482],[5675487.208,6432213.537],[5675495.66,6432223.345],[5675507.66585294,6432232.76292075],[5675516.625,6432240.799],[5675533.876,6432250.214],[5675552.295,6432260.671],[5675557.995,6432268.124],[5675574.083,6432276.117],[5675591.948,6432278.611],[5675602.396,6432283.758],[5675614.202,6432280.203],[5675626.739,6432276.01],[5675641.101,6432268.753],[5675649.976,6432261.89],[5675660.856,6432252.917],[5675667.709,6432246.373],[5675677.159,6432236.013],[5675697.373,6432219.954],[5675722.381,6432210.652],[5675733.439,6432205.946],[5675750.654,6432198.914],[5675766.548,6432194.226],[5675786.1928668935,6432195.909127981],[5675773.469,6432220.958],[5675776.816,6432224.538],[5675782.863,6432221.791],[5675795.752,6432210.33],[5675812.495,6432198.038],[5675819.222,6432189.283],[5675830.541,6432175.367],[5675854.054,6432160.45],[5675876.398,6432151.117],[5675892.382,6432148.372],[5675908.424,6432147.304],[5675916.686,6432140.737],[5675926.819,6432143.483],[5675937.947,6432139.311],[5675949.574,6432134.802],[5675963.455,6432129.672],[5675981.042,6432123.405],[5675997.973,6432114.618],[5676016.964,6432108.71],[5676033.915,6432107.956],[5676057.105,6432114.205],[5676070.782,6432119.962],[5676081.2,6432124.462],[5676090.067,6432134.541],[5676100.802,6432151],[5676118.297,6432171.792],[5676135.024,6432181.651],[5676153.614,6432198.652],[5676167.197,6432206.915],[5676183.176,6432218.936],[5676193.997,6432228.92],[5676209.506,6432245.622],[5676226.835,6432252.63],[5676232.33499998,6432265.107998784],[5676239.664,6432277.453],[5676253.963,6432282.905],[5676264.852,6432286.795],[5676276.809,6432300.867],[5676286.285,6432315.483],[5676300.819,6432327.26],[5676322.636,6432345.25],[5676343.206552966,6432361.534349856],[5676350.652,6432364.107],[5676377.733,6432377.927],[5676381.114,6432382.154],[5676393.662,6432377.188],[5676405.425,6432370.805],[5676419.701,6432364.525],[5676442.815,6432358.114],[5676496.40663505,6432368.2266475],[5676591.930999545,6432399.710999823],[5676614.18809088,6432408.30920232],[5676655.719,6432428.256],[5676680.712,6432441.482],[5676699.466,6432453.953],[5676723.807,6432467.59],[5676733.731003116,6432474.303343591],[5676755.744,6432465.885],[5676768.701,6432465.265],[5676774.239,6432467.307],[5676782.862,6432476.277],[5676800.3,6432463.062],[5676814.976,6432441.246],[5676819.964,6432427.551],[5676843.481,6432412.232],[5676847.588,6432405.878],[5676853.04,6432391.579],[5676863.56,6432384.001],[5676871.918,6432368.667],[5676882.062,6432353.696],[5676893.992,6432339.087],[5676899.505,6432326.084],[5676902.493,6432303.797],[5676912.222,6432298.876],[5676921.044,6432293.26],[5676931.969,6432273.079],[5676945.252,6432249.763],[5676958.704,6432221.535],[5676963.284,6432206.808],[5676972.348,6432175.789],[5676976.149,6432169.584],[5676991.688,6432131.629],[5677002.043,6432100.93],[5677011.485,6432073.61],[5677021.085,6432045.835],[5677029.153,6432018.805],[5677042.303,6431993.659],[5677051.468,6431963.822],[5677058.275,6431944.13],[5677066.313,6431919.765],[5677073.346,6431889.829],[5677087.203,6431866.329],[5677099.477,6431830.813],[5677107.801,6431808.204],[5677120.45,6431776.768],[5677124.965,6431771.447],[5677134.294,6431754.41],[5677141.297,6431734.148],[5677149.509,6431707.805],[5677155.12,6431696.364],[5677164.47,6431677.423],[5677176.842,6431653.792],[5677189.973,6431623.542],[5677199.369,6431600.412],[5677207.971,6431583.633],[5677210.215,6431580.459],[5677213.805,6431572.652],[5677229.566,6431549.173],[5677235.585,6431531.756],[5677248.018,6431516.43],[5677253.694,6431502.59],[5677260.786,6431467.322],[5677264.136,6431453.571],[5677272.35,6431437.55],[5677291.108,6431421.988],[5677296.967,6431408.721],[5677308.093,6431387.591],[5677314.52,6431371.207],[5677332.41298112,6431350.57030051],[5677349.39836513,6431310.19441329],[5677479.37486881,6431264.53744381],[5677746.94264001,6431207.25792269],[5678224.74224347,6430997.23294049],[5678282.07818241,6430920.86020995],[5678358.52610101,6430691.74201832],[5678370.19271035,6430446.98495119],[5678377.63813678,6430290.78526334],[5678301.19016206,6430004.3875506],[5678259.38400264,6429955.66167776],[5678186.51828417,6429870.73529893],[5678071.84635016,6429527.05806507],[5678013.16171332,6429292.55038777],[5677989.81503112,6429151.4424971],[5677989.81503112,6429061.69401816],[5677921.39411704,6428719.92605166],[5677818.76274592,6428549.04212199],[5677818.76274592,6428343.98134209],[5677750.34188796,6428207.27415549],[5677716.13143092,6428002.21342917],[5677716.13143092,6427797.15264927],[5677647.71051684,6427660.44551624],[5677511.691,6427659.782],[5677508.515,6427644.262],[5677494.051,6427620.262],[5677485.935,6427601.894],[5677475.484,6427576.068],[5677471.221,6427560.739],[5677459.532,6427513.063],[5677453.629,6427489.821],[5677445.828,6427460.493],[5677441.924,6427447.194],[5677432.51,6427415.288],[5677427.247,6427392.802],[5677423.94,6427371.64],[5677420.436,6427347.954],[5677417.712,6427324.388],[5677415.512,6427304.983],[5677416.464,6427286.401],[5677417.967,6427277.943],[5677414.207,6427262.861],[5677405.484,6427227.319],[5677403.68,6427216.216],[5677401.898,6427198.772],[5677399.709,6427183.535],[5677406.05,6427171.207],[5677427.341,6427174.738],[5677430.14,6427170.172],[5677429.108,6427160.85],[5677429.021,6427152.402],[5677426.239,6427142.346],[5677403.535,6427134.054],[5677384.427,6427137.477],[5677364.761,6427144.16],[5677345.446,6427153.86],[5677322.231,6427166.095],[5677308.783,6427175.587],[5677285.34,6427187.883],[5677268.824,6427193.017],[5677249.374,6427192.183],[5677238.494,6427188.474],[5677218.554,6427183.609],[5677206.655,6427187.143],[5677197.747,6427191.007],[5677192.021,6427191.815],[5677173.616,6427192.165],[5677157.625,6427192.924],[5677153.854,6427194.675],[5677149.524,6427199.685],[5677147.614,6427210.35],[5677153.711,6427224.849],[5677161.563,6427236.634],[5677171.707,6427254.444],[5677179.665,6427271.785],[5677188.337,6427284.401],[5677196.514,6427299.885],[5677205.748,6427324.009],[5677214.552,6427350.609],[5677225.841,6427388.544],[5677227.923,6427410.368],[5677227.818,6427474.642],[5677219.524,6427497.759],[5677205.177,6427508.877],[5677185.547,6427516.262],[5677149.707,6427517.155],[5677120.391,6427512.268],[5677096.352,6427502.832],[5677086.585,6427493.43],[5677083.94,6427484.386],[5677087.464,6427470.407],[5677087.753,6427464.296],[5677078.879,6427457.131],[5677072.883,6427455.087],[5677061.921,6427454.248],[5677047.802,6427462.269],[5677040.114,6427465.997],[5677022.538,6427475.048],[5676998.475,6427499.69],[5676995.668,6427514.604],[5676992.201,6427541.575],[5676979.923,6427561.402],[5676969.813,6427565.96],[5676947.421,6427572.541],[5676933.841,6427583.23],[5676930.374,6427591.985],[5676928.25,6427606.717],[5676931.58,6427621.239],[5676942.283,6427635.789],[5676951.905,6427645.417],[5676966.275,6427652.248],[5676987.67,6427673.893],[5676996.232,6427690.474],[5676999.925,6427703.325],[5676999.178,6427716.043],[5676992.622,6427729.403],[5676983.744,6427741.28],[5676971.754,6427758.032],[5676950.166,6427761.851],[5676944.703,6427757.229],[5676928.144,6427744.27],[5676916.14,6427738.798],[5676901.503,6427737.811],[5676876.787,6427742.91],[5676851.864,6427754.287],[5676830.217,6427781.961],[5676816.541,6427782.405],[5676800.986,6427773.79],[5676791.159,6427770.027],[5676771.906,6427764.568],[5676756.575,6427762.378],[5676745.666,6427756.727],[5676727.326,6427738.469],[5676715.588,6427727.154],[5676703.68,6427713.71],[5676691.153,6427700.056],[5676677.274,6427687.735],[5676663.936,6427684.154],[5676650.063,6427686.188],[5676630.79,6427692.728],[5676624.668,6427694.091],[5676612.565,6427697.004],[5676584.458,6427693.633],[5676568.348,6427687.451],[5676541.407,6427682.684],[5676512.956,6427672.02],[5676493.472,6427667.034],[5676461.456,6427664.401],[5676442.787,6427661.073],[5676434.096,6427657.42],[5676414.71,6427647.086],[5676394.29,6427639.987],[5676363.896,6427651.017],[5676336.18,6427669.17],[5676316.266,6427681.84],[5676299.396,6427690.442],[5676281.14,6427696.225],[5676251.246,6427700.525],[5676208.746,6427707.97],[5676187.527,6427705.619],[5676142.747,6427698.179],[5676108.12,6427693.69],[5676067.978213046,6427693.159164611],[5676037.122,6427695.295],[5676012.401,6427695.148],[5675989.197,6427696.622],[5675960.581,6427692.112],[5675922.133,6427693.772],[5675895.801,6427696.526],[5675860.93,6427694.576],[5675840.249,6427695.53],[5675813.418,6427698.942],[5675787.752,6427700.958],[5675766.242,6427705.356],[5675733.145,6427712.98],[5675703.548,6427722.074],[5675671.971,6427733.942],[5675647.815,6427744.89],[5675614.669,6427756.5],[5675599.024,6427761.103],[5675580.636,6427771.12],[5675553.293,6427785.95],[5675513.233,6427793.961],[5675436.00662223,6427804.90240721],[5675401.958,6427692.321],[5675018.794,6427860.244],[5675008.363,6427863.088],[5674814.814,6427947.949],[5674799.013,6427940.505],[5674456.84,6427267.434],[5674250.781,6427372.558],[5674041.4586124,6426964.07367618],[5673606.76565868,6427052.81374093],[5673353.9824922,6426572.46878979],[5673025.238,6426644.66],[5673013.446,6426657.86],[5672521.091,6426763.94],[5672504.756,6426740.859],[5672477.25803579,6426636.87613537],[5672406.56,6426366.138],[5672326.922,6426055.468],[5672329.505,6426052.08],[5671962.81605692,6425950.14713595],[5671955.870253766,6425965.547996067],[5671942.56066531,6425961.82497845]]]}},{"type":"Feature","properties":{},"geometry":{"type":"Polygon","coordinates":[[[5674006.591,6436091.841],[5673991.522,6436127.379],[5673986.614,6436142.776],[5673990,6436173.189],[5674008.526,6436191.43],[5674034.3,6436218.349],[5674057.98,6436231.691],[5674076.993,6436251.413],[5674101.22,6436268.532],[5674124.309,6436280.477],[5674143.411,6436289.157],[5674167.871,6436284.927],[5674180.368,6436289.995],[5674201.692,6436289.193],[5674227.644,6436289.538],[5674262.192,6436287.167],[5674285.157,6436285.783],[5674318.009,6436287.745],[5674336.874,6436290.839],[5674359.286,6436297.827],[5674385.856,6436301.733],[5674415.408,6436298.628],[5674462.015,6436297.227],[5674488.012,6436295.193],[5674514.109,6436294.211],[5674539.474,6436292.023],[5674561.466,6436287.676],[5674579.348,6436281.1],[5674600.302,6436269.938],[5674617.979,6436253.417],[5674624.987,6436243.939],[5674630.013,6436230.438],[5674642.015,6436204.635],[5674651.945,6436186.749],[5674658.021,6436173.962],[5674671.892,6436153.639],[5674676.918,6436141.934],[5674683.189,6436123.408],[5674694.005,6436098.639],[5674712.891,6436083.485],[5674727.339,6436060.784],[5674737.554,6436033.299],[5674747.133,6436006.795],[5674759.458,6435978.467],[5674770.842,6435959.877],[5674794.975,6435922.259],[5674811.421,6435878.388],[5674824.932,6435854.413],[5674838.698,6435828.787],[5674858.269,6435803.751],[5674868.78,6435774.27],[5674878.956,6435763.291],[5674892.95,6435743.728],[5674910.407,6435714.384],[5674918.623,6435697.294],[5674924.189,6435677.931],[5674928.29489309,6435642.28316278],[5674357.962821159,6435190.53001968],[5674489.71530268,6435030.72850661],[5674336.498407739,6434905.614249252],[5674475.87344199,6434729.41618063],[5674354.9863215,6434630.70185601],[5674320.11944376,6434605.41402483],[5674125.03318663,6434442.52797878],[5674040.797,6434372.099],[5673698.31464877,6434097.13055288],[5673704.701,6434076.209],[5673771.84726819,6433992.14974532],[5673851.17513909,6433897.37473308],[5673906.65782018,6433829.68524028],[5673963.837,6433759.926],[5673811.652,6433637.191],[5673799.702,6433619.031],[5673649.703,6433499.338],[5673424.438,6433320.628],[5673405.805541086,6433305.846268561],[5673309.64943486,6433565.02902785],[5673156.035,6433972.524],[5673163.863,6433985.977],[5673101.48761228,6434161.93361738],[5673198.23730519,6434202.16250959],[5673200.474,6434211.964],[5673241.385,6434215.291],[5673299.758,6434236.044],[5673339.209,6434262.747],[5673374.939,6434259.163],[5673416.592,6434253.003],[5673450.102,6434254.539],[5673516.657,6434263.535],[5673565.726,6434271.686],[5673608.212,6434284.93],[5673626.31,6434293.21],[5673655.392,6434318.436],[5673680.502,6434348.661],[5673692.627,6434362.461],[5673717.49839996,6434397.35915153],[5673736.261,6434427.326],[5673738.033,6434455.996],[5673741.647,6434493.37],[5673750.338,6434520.012],[5673753.876,6434565.919],[5673761.593,6434589.599],[5673788.23,6434615.313],[5673801.214,6434629.943],[5673823.155,6434651.794],[5673847.808,6434661.814],[5673878.534,6434672.753],[5673921.561,6434687.317],[5673956.405,6434695.52],[5674000.028,6434708.55],[5674036.855,6434724.367],[5674053.781,6434736.56],[5674077.146,6434774.634],[5674089.955,6434803.927],[5674106.531,6434858.349],[5674164.476,6434890.259],[5674187.602165803,6434934.735668131],[5674203.081,6434948.873],[5674221.682,6434980.367],[5674245.173,6435006.393],[5674263.423,6435032.86],[5674276.494,6435082.712],[5674272.747,6435111.07],[5674267.071,6435123.573],[5674258.419,6435149.134],[5674252.654,6435173.576],[5674247.883,6435189.019],[5674248.872,6435210.122],[5674257.898,6435229.936],[5674260.642,6435257.978],[5674259.259,6435282.048],[5674258.444,6435308.706],[5674254.916,6435343.602],[5674248.274,6435368.167],[5674247.202,6435377.62],[5674250.996,6435402.785],[5674248.416,6435414.899],[5674243.369,6435439.465],[5674238.817,6435463.242],[5674233.057,6435495.527],[5674235.242,6435518.711],[5674240.036,6435539.127],[5674274.282,6435562.569],[5674303.253,6435567.467],[5674319.952794636,6435560.479208762],[5674336.537,6435572.868],[5674359.523,6435588.489],[5674377.158,6435608.463],[5674391.208,6435635.663],[5674385.702,6435660.014],[5674377.577,6435684.018],[5674369.875,6435705.651],[5674355.324,6435740.107],[5674326.911,6435760.955],[5674291.447,6435776.363],[5674260.186,6435780.924],[5674219.123,6435802.995],[5674186.542,6435832.786],[5674179.404,6435853.652],[5674170.475,6435886.541],[5674161.843,6435924.617],[5674153.596,6435953.247],[5674142.595,6435982.382],[5674120.456,6436006.25],[5674103.993,6436023.9],[5674072.48,6436046.272],[5674055.13,6436053.746],[5674029.712,6436071.357],[5674006.591,6436091.841]]]}},{"type":"Feature","properties":{},"geometry":{"type":"Polygon","coordinates":[[[5673783.427301907,6432317.101156969],[5673827.51329639,6432352.14563958],[5673948.0048372,6432447.92580188],[5674109.64312749,6432576.41400589],[5674120.071,6432585.594],[5674270.394,6432705.188],[5674283.824,6432719.013],[5674350.49657693,6432773.32365631],[5674366.003,6432785.955],[5674435.202,6432839.609],[5674554.186,6432695.828],[5674567.25,6432679.076],[5674703.89548885,6432516.45228253],[5674719.512,6432528.602],[5674866.566,6432651.013],[5674883.278,6432664.191],[5675032.721,6432787.429],[5675035.04,6432787.723],[5675158.437,6432634.513],[5675288.394681992,6432464.906520816],[5675313.06208925,6432484.12954668],[5675479.18785732,6432609.35780553],[5675628.10414363,6432726.04833302],[5675643.8040222,6432735.76782131],[5675768.25858674,6432833.26245257],[5675785.6680895,6432851.71099346],[5675905.80236068,6432950.98872793],[5676026.737,6432804.308],[5676027.681,6432791.254],[5676036.09035151,6432777.54828592],[5676057.733,6432794.632],[5676206.825,6432914.463],[5676223.261,6432929.955],[5676454.843,6433119.71],[5676460.054,6433113.483],[5676496.078036873,6433042.306354069],[5676510.281,6433014.244],[5676577.9576869,6432918.60688835],[5676590.325,6432884.407],[5676602.261,6432862.409],[5676617.248,6432833.055],[5676628.982,6432812.007],[5676634.409,6432799.993],[5676643.948,6432774.236],[5676650.43,6432752.902],[5676654.643,6432740.341],[5676665.047,6432708.766],[5676669.087,6432691.175],[5676676.277,6432667.792],[5676684.769,6432650.593],[5676695.325,6432636.274],[5676705.056,6432617.337],[5676713.987,6432601.819],[5676724.44,6432583.004],[5676734.247,6432567.534],[5676746.835,6432555.447],[5676759.415,6432544.12],[5676771.932,6432531.499],[5676783.643,6432516.05],[5676764.319,6432510.39],[5676753.327,6432502.004],[5676742.294,6432480.096],[5676733.731003116,6432474.303343591],[5676723.807,6432467.59],[5676699.466,6432453.953],[5676680.712,6432441.482],[5676655.719,6432428.256],[5676614.18809088,6432408.30920232],[5676591.930999545,6432399.710999823],[5676496.40663505,6432368.2266475],[5676442.815,6432358.114],[5676419.701,6432364.525],[5676405.425,6432370.805],[5676393.662,6432377.188],[5676381.114,6432382.154],[5676377.733,6432377.927],[5676350.652,6432364.107],[5676343.206552966,6432361.534349856],[5676322.636,6432345.25],[5676300.819,6432327.26],[5676286.285,6432315.483],[5676276.809,6432300.867],[5676264.852,6432286.795],[5676253.963,6432282.905],[5676239.664,6432277.453],[5676232.33499998,6432265.107998784],[5676226.835,6432252.63],[5676209.506,6432245.622],[5676193.997,6432228.92],[5676183.176,6432218.936],[5676167.197,6432206.915],[5676153.614,6432198.652],[5676135.024,6432181.651],[5676118.297,6432171.792],[5676100.802,6432151],[5676090.067,6432134.541],[5676081.2,6432124.462],[5676070.782,6432119.962],[5676057.105,6432114.205],[5676033.915,6432107.956],[5676016.964,6432108.71],[5675997.973,6432114.618],[5675981.042,6432123.405],[5675963.455,6432129.672],[5675949.574,6432134.802],[5675937.947,6432139.311],[5675926.819,6432143.483],[5675916.686,6432140.737],[5675908.424,6432147.304],[5675892.382,6432148.372],[5675876.398,6432151.117],[5675854.054,6432160.45],[5675830.541,6432175.367],[5675819.222,6432189.283],[5675812.495,6432198.038],[5675795.752,6432210.33],[5675782.863,6432221.791],[5675776.816,6432224.538],[5675773.469,6432220.958],[5675786.1928668935,6432195.909127981],[5675766.548,6432194.226],[5675750.654,6432198.914],[5675733.439,6432205.946],[5675722.381,6432210.652],[5675697.373,6432219.954],[5675677.159,6432236.013],[5675667.709,6432246.373],[5675660.856,6432252.917],[5675649.976,6432261.89],[5675641.101,6432268.753],[5675626.739,6432276.01],[5675614.202,6432280.203],[5675602.396,6432283.758],[5675591.948,6432278.611],[5675574.083,6432276.117],[5675557.995,6432268.124],[5675552.295,6432260.671],[5675533.876,6432250.214],[5675516.625,6432240.799],[5675507.66585294,6432232.76292075],[5675495.66,6432223.345],[5675487.208,6432213.537],[5675471.218,6432200.482],[5675461.611,6432188.491],[5675450.867,6432179.418],[5675433.593,6432171.906],[5675419.17,6432177.867],[5675408.618,6432188.1],[5675389.755,6432189.592],[5675367.973,6432186.634],[5675345.644,6432188.201],[5675331.295,6432194.315],[5675314.417,6432201.847],[5675311.516,6432202.498],[5675302.169,6432204.102],[5675287.534,6432198.905],[5675271.965,6432201.921],[5675265.393,6432200.664],[5675249.177,6432197.086],[5675232.415,6432191.408],[5675218.874,6432183.787],[5675206.397,6432176.407],[5675199.165,6432169.698],[5675185.883,6432156.179],[5675172.033,6432139.151],[5675163.591,6432125.27],[5675148.57,6432100.956],[5675142.639,6432087.18],[5675132.972,6432073.894],[5675127.016,6432055.778],[5675119.721,6432038.217],[5675108.575000025,6432021.106000028],[5675096.643,6431999.645],[5675090.589,6431986.592],[5675085.909,6431979.874],[5675070.886,6431962.185],[5675056.651,6431948.845],[5675034.963,6431937.893],[5675019.724,6431928.92],[5674997.769,6431921.315],[5674981.295,6431917.011],[5674957.931,6431909.428],[5674940.281,6431903.407],[5674908.88,6431891.036],[5674894.546,6431886.071],[5674875.299,6431878.003],[5674858.765,6431880.503],[5674834.474,6431878.896],[5674821.967,6431867.557],[5674806.306,6431845.824],[5674796.473,6431830.442],[5674795.618,6431818.934],[5674794.368,6431811.876],[5674786.156,6431804.317],[5674758.138,6431787.733],[5674748.482,6431783.241],[5674728.019000065,6431771.694000029],[5674711.905,6431762.673],[5674616.10108665,6431739.00736753],[5674560.21449602,6431718.70495544],[5674539.89207902,6431703.47817316],[5674504.3279054,6431667.94897879],[5674453.52191902,6431601.96616628],[5674423.70044732,6431555.14993235],[5674392.91848535,6431433.56878737],[5674361.461,6431411.41],[5674332.846,6431386.537],[5674308.926,6431357.744],[5674295.421,6431345.269],[5674280.911,6431338.051],[5674260.792,6431334.574],[5674243.878,6431340.903],[5674228.744,6431356.204],[5674218.853,6431379.19],[5674213.517,6431400.154],[5674198.283,6431406.916],[5674191.47196033,6431407.71970045],[5674164.41561504,6431406.64305864],[5674109.2909124,6431542.60280789],[5674095.267,6431550.108],[5673937.299,6431938.66],[5673860.95035824,6432120.64199071],[5673845.09982179,6432163.36678643],[5673801.34934621,6432270.67331799],[5673795.33917765,6432285.43574374],[5673783.427301907,6432317.101156969]]]}},{"type":"Feature","properties":{},"geometry":{"type":"Polygon","coordinates":[[[5673326.155,6431973.009],[5673216.739,6432253.11],[5673173.31582133,6432361.86164572],[5673149.07163751,6432426.45131262],[5673141.44423092,6432453.89104696],[5672975.019,6432902.116],[5672968.89570366,6432913.22086481],[5672881.30245251,6433151.86086242],[5672874.41077264,6433170.63662934],[5672796.638756709,6433382.519547816],[5672789.863,6433393.72],[5672710.54404453,6433609.77295128],[5672639.948,6433802.066],[5672634.22623057,6433817.26668016],[5672925.238,6433912.983],[5673136.83918262,6433982.03270918],[5673163.863,6433985.977],[5673156.035,6433972.524],[5673309.64943486,6433565.02902785],[5673405.805541086,6433305.846268561],[5673479.300629969,6433107.744861604],[5673484.446,6433094.733],[5673561.754,6432884.971],[5673568.718211377,6432866.074806761],[5673638.093,6432677.957],[5673650.17424675,6432647.99047707],[5673656.86722761,6432629.03753515],[5673668.667,6432602.708],[5673699.227980992,6432528.513153712],[5673741.651363403,6432425.519197537],[5673761.264,6432376.018],[5673783.427301907,6432317.101156969],[5673795.33917765,6432285.43574374],[5673801.34934621,6432270.67331799],[5673845.09982179,6432163.36678643],[5673860.95035824,6432120.64199071],[5673937.299,6431938.66],[5674095.267,6431550.108],[5674109.2909124,6431542.60280789],[5674164.41561504,6431406.64305864],[5674148.06,6431392.656],[5674132.295,6431380.033],[5674121.439,6431373.474],[5674096.089,6431367.855],[5674075.934,6431364.487],[5674059.384,6431358.663],[5674050.739,6431348.034],[5674046.199,6431331.589],[5674037.952,6431320.119],[5674028.198,6431312.97],[5674004.928,6431307.514],[5673997.364,6431303.261],[5673984.855,6431288.762],[5673966.57351092,6431278.54830763],[5673944.593,6431270.485],[5673927.426,6431265.429],[5673908.724,6431259.867],[5673895.999,6431252.023],[5673888.634,6431242.302],[5673876.409,6431230.735],[5673862.978,6431218.405],[5673842.111,6431209.091],[5673827.03,6431206.182],[5673806.037,6431203.145],[5673785.174,6431195.29],[5673771.646,6431186.939],[5673758.724,6431174.169],[5673753.206,6431159.954],[5673754.821,6431151.373],[5673739.40883592,6431089.5264645],[5673703.46427945,6431060.79908054],[5673694.01656135,6431053.24833428],[5673575.17202555,6431346.52427966],[5673565.675,6431363.732],[5673449.061,6431657.028],[5673332.819,6431956.493],[5673326.155,6431973.009]]]}},{"type":"Feature","properties":{},"geometry":{"type":"Polygon","coordinates":[[[5670747.717,6430946.515],[5670555.721,6431441.716],[5670523.284,6431536.239],[5670382.238,6431931.857],[5670377.544,6431947.342],[5670199.15,6432446.4],[5670193.203,6432458.612],[5670023.80950753,6432944.81477691],[5670543.161,6433121.97],[5670563.708,6433129.922],[5671097.167,6433309.838],[5671117.61091559,6433316.44598783],[5671612.433,6433477.808],[5672130.12073281,6433650.3348766],[5672634.22623057,6433817.26668016],[5672639.948,6433802.066],[5672710.54404453,6433609.77295128],[5672789.863,6433393.72],[5672796.638756709,6433382.519547816],[5672874.41077264,6433170.63662934],[5672881.30245251,6433151.86086242],[5672968.89570366,6432913.22086481],[5672975.019,6432902.116],[5673141.44423092,6432453.89104696],[5673149.07163751,6432426.45131262],[5673173.31582133,6432361.86164572],[5673216.739,6432253.11],[5673326.155,6431973.009],[5673324.829,6431968.926],[5672979.7180748,6431833.05154586],[5672950.858,6431821.372],[5672835.233,6431782.134],[5672814.802,6431772.235],[5672580.512,6431677.521],[5672330.878,6431578.565],[5672313.48797815,6431577.43936717],[5671807.4955631,6431382.95621238],[5671799.234,6431369.321],[5671267.656,6431157.518],[5670932.20008642,6431021.2637289],[5670760.84,6430953.561],[5670747.717,6430946.515]]]}},{"type":"Feature","properties":{},"geometry":{"type":"Polygon","coordinates":[[[5671254.227314615,6429656.355583994],[5671147.245,6429912.838],[5671147.272,6429928.24],[5670956.39566012,6430419.30764386],[5670951.51224657,6430431.41109949],[5670751.584,6430933.496],[5670747.717,6430946.515],[5670760.84,6430953.561],[5670932.20008642,6431021.2637289],[5671267.656,6431157.518],[5671799.234,6431369.321],[5671807.4955631,6431382.95621238],[5672313.48797815,6431577.43936717],[5672330.878,6431578.565],[5672580.512,6431677.521],[5672814.802,6431772.235],[5672835.233,6431782.134],[5672950.858,6431821.372],[5672979.7180748,6431833.05154586],[5673324.829,6431968.926],[5673326.155,6431973.009],[5673332.819,6431956.493],[5673449.061,6431657.028],[5673565.675,6431363.732],[5673575.17202555,6431346.52427966],[5673694.01656135,6431053.24833428],[5673640.096,6431013.635],[5673608.947,6430995.339],[5673583.499,6430991.805],[5673562.538,6430987.199],[5673535.86,6430987.026],[5673514.911,6430986.434],[5673503.258,6430982.711],[5673482.897,6430971.863],[5673465.472,6430954.327],[5673441.6,6430940.861],[5673416.942,6430944.879],[5673399.18,6430948.255],[5673377.514,6430952.044],[5673345.815,6430944.625],[5673330.508,6430927.666],[5673312.781,6430906.993],[5673293.636,6430888.039],[5673261.844,6430874.269],[5673222.907,6430863.369],[5673205.673,6430848.569],[5673193.746,6430827.257],[5673190.811,6430798.582],[5673190.164,6430766.287],[5673183.937,6430747.22],[5673167.315,6430729.828],[5673148.484,6430706.238],[5673123.889,6430683.177],[5673101.833,6430667.152],[5673079.891,6430652.257],[5673056.088,6430637.478],[5673029.505,6430620.81],[5673012.638,6430606.739],[5673000.51718288,6430579.12843197],[5672994.885,6430565.884],[5672979.035,6430550.569],[5672962.1,6430526.39],[5672950.218,6430495.735],[5672947.116,6430472.353],[5672924.732,6430444.431],[5672894.782,6430436.13],[5672871.98641642,6430427.22649521],[5672855.508,6430407.448],[5672850.915,6430376.818],[5672844.646,6430344.248],[5672842.222,6430303.711],[5672844.539297033,6430291.362023549],[5672830.985,6430269.624],[5672692.457134259,6430269.98651673],[5672655.70567368,6430240.61428725],[5672647.00254031,6430233.65863361],[5672456.09331322,6430269.98651673],[5672447.00234955,6430242.74061778],[5672372.29994646,6430228.78881295],[5672347.00225416,6430224.576703],[5672319.72953149,6430206.41273465],[5672274.27493758,6430206.41273465],[5672233.27090667,6430226.89456456],[5672232.99812464,6430195.82581393],[5672220.761872362,6430163.2410838865],[5672030.46,6430103.602],[5672081.117650353,6429953.14751513],[5671704.86391915,6429816.64803405],[5671619.49645807,6430033.0545445],[5671432.54216446,6429840.25017182],[5671254.227314615,6429656.355583994]]]}},{"type":"Feature","properties":{},"geometry":{"type":"Polygon","coordinates":[[[5672634.22623057,6433817.26668016],[5672390.808,6434457.539],[5672385.273,6434469.52],[5672239.316,6434870.545],[5672234.778,6434885.144],[5672058.236,6435364.412],[5672077.827,6435369.203],[5672584.097,6435552.878],[5672599.3,6435560.375],[5673094.4181823125,6435741.256802467],[5673122.849,6435751.651],[5673319.788999999,6435824.118000001],[5673334.579,6435844.865],[5673624.368,6435955.839],[5674006.591,6436091.841],[5674029.712,6436071.357],[5674055.13,6436053.746],[5674072.48,6436046.272],[5674103.993,6436023.9],[5674120.456,6436006.25],[5674142.595,6435982.382],[5674153.596,6435953.247],[5674161.843,6435924.617],[5674170.475,6435886.541],[5674179.404,6435853.652],[5674186.542,6435832.786],[5674219.123,6435802.995],[5674260.186,6435780.924],[5674291.447,6435776.363],[5674326.911,6435760.955],[5674355.324,6435740.107],[5674369.875,6435705.651],[5674377.577,6435684.018],[5674385.702,6435660.014],[5674391.208,6435635.663],[5674377.158,6435608.463],[5674359.523,6435588.489],[5674336.537,6435572.868],[5674319.952794636,6435560.479208762],[5674303.253,6435567.467],[5674274.282,6435562.569],[5674240.036,6435539.127],[5674235.242,6435518.711],[5674233.057,6435495.527],[5674238.817,6435463.242],[5674243.369,6435439.465],[5674248.416,6435414.899],[5674250.996,6435402.785],[5674247.202,6435377.62],[5674248.274,6435368.167],[5674254.916,6435343.602],[5674258.444,6435308.706],[5674259.259,6435282.048],[5674260.642,6435257.978],[5674257.898,6435229.936],[5674248.872,6435210.122],[5674247.883,6435189.019],[5674252.654,6435173.576],[5674258.419,6435149.134],[5674267.071,6435123.573],[5674272.747,6435111.07],[5674276.494,6435082.712],[5674263.423,6435032.86],[5674245.173,6435006.393],[5674221.682,6434980.367],[5674203.081,6434948.873],[5674187.602165803,6434934.735668131],[5674164.476,6434890.259],[5674106.531,6434858.349],[5674089.955,6434803.927],[5674077.146,6434774.634],[5674053.781,6434736.56],[5674036.855,6434724.367],[5674000.028,6434708.55],[5673956.405,6434695.52],[5673921.561,6434687.317],[5673878.534,6434672.753],[5673847.808,6434661.814],[5673823.155,6434651.794],[5673801.214,6434629.943],[5673788.23,6434615.313],[5673761.593,6434589.599],[5673753.876,6434565.919],[5673750.338,6434520.012],[5673741.647,6434493.37],[5673738.033,6434455.996],[5673736.261,6434427.326],[5673717.49839996,6434397.35915153],[5673692.627,6434362.461],[5673680.502,6434348.661],[5673655.392,6434318.436],[5673626.31,6434293.21],[5673608.212,6434284.93],[5673565.726,6434271.686],[5673516.657,6434263.535],[5673450.102,6434254.539],[5673416.592,6434253.003],[5673374.939,6434259.163],[5673339.209,6434262.747],[5673299.758,6434236.044],[5673241.385,6434215.291],[5673200.474,6434211.964],[5673198.23730519,6434202.16250959],[5673101.48761228,6434161.93361738],[5673163.863,6433985.977],[5673136.83918262,6433982.03270918],[5672925.238,6433912.983],[5672634.22623057,6433817.26668016]]]}},{"type":"Feature","properties":{},"geometry":{"type":"Polygon","coordinates":[[[5672058.236,6435364.412],[5672234.778,6434885.144],[5672239.316,6434870.545],[5672385.273,6434469.52],[5672390.808,6434457.539],[5672634.22623057,6433817.26668016],[5672130.12073281,6433650.3348766],[5671612.433,6433477.808],[5671117.61091559,6433316.44598783],[5671097.167,6433309.838],[5670563.708,6433129.922],[5670543.161,6433121.97],[5670023.80950753,6432944.81477691],[5669836.18971157,6433475.85017277],[5669665.306388383,6433962.248315868],[5669495.069,6434439.519],[5670009.042,6434623.642],[5670525.74110683,6434810.93773308],[5671026.611196728,6434988.799014804],[5671538.09293621,6435175.71558192],[5672058.236,6435364.412]]]}},{"type":"Feature","properties":{},"geometry":{"type":"Polygon","coordinates":[[[5668205.74,6430016.143],[5668712.815,6430210.988],[5668727.658,6430215.376],[5669228.494,6430390.515],[5669237.579,6430396.317],[5669726.133,6430568.535],[5669965.56383079,6430650.62266455],[5670242.638,6430748.227],[5670256.214,6430753.37],[5670503.247385414,6430847.4244273165],[5670747.717,6430946.515],[5670751.584,6430933.496],[5670951.51224657,6430431.41109949],[5670956.39566012,6430419.30764386],[5671147.272,6429928.24],[5671147.245,6429912.838],[5671254.227314615,6429656.355583994],[5671269.595907283,6429619.510486817],[5671047.455899149,6429522.981475908],[5670979.337,6429493.381],[5670741.268,6429358.391],[5670514.398,6429094.612],[5670434.985410257,6428997.249096145],[5670326.229,6428881.077],[5670313.2542968,6428874.807973745],[5670259.566681045,6428844.722334813],[5670205.098,6428814.199],[5670150.777381596,6428783.758637006],[5670102.02412645,6428756.71657998],[5670048.05965501,6428726.7840081],[5669987.02768589,6428693.16716982],[5669932.035,6428663.164],[5669868.238,6428626.131],[5669770.771679882,6428607.285002064],[5669695.7559756,6428595.35027458],[5669607.575,6428581.321],[5669507.731,6428583.242],[5669420.371959046,6428586.289732061],[5669302.316,6428532.797],[5668794.829,6428307.32],[5668782.2318201745,6428301.812853228],[5668666.039,6428640.279],[5668659.57,6428659.123],[5668547.918,6428990.459],[5668545.742,6429009.899],[5668502.147841811,6429147.833721708],[5668444.75561634,6429312.94152497],[5668376.285,6429509.92],[5668205.74,6430016.143]]]}},{"type":"Feature","properties":{},"geometry":{"type":"Polygon","coordinates":[[[5668124.535,6423662.742],[5668103.532,6423684.564],[5668079.077,6423707.448],[5668059.587,6423724.869],[5668052.66,6423746.366],[5668043.103,6423763.45],[5668025.779,6423786.351],[5668016.67,6423814.225],[5668021.087,6423840.481],[5668034.5,6423873.79],[5668027.505,6423905.113],[5668016.36,6423937.101],[5668007.276,6423963.174],[5667992.355,6423994.75],[5667974.49,6424024.396],[5667961.826,6424055.552],[5667953.81905603,6424085.80913017],[5667951.473,6424115.547],[5667957.84,6424143.99],[5667962.77,6424172.233],[5667963.272,6424195.016],[5667958.99,6424225.475],[5667947.364,6424259.706],[5667937.636,6424286.761],[5667935.858,6424311.763],[5667929.897,6424333.198],[5667922.743,6424356.327],[5667920.732,6424378.535],[5667917.631,6424408.2],[5667919.322,6424436.22],[5667928.825,6424459.124],[5667935.616,6424482.891],[5667940.252,6424512.841],[5667941.374,6424536.442],[5667938.813,6424559.363],[5667938.456,6424572.501],[5667939.781,6424587.822],[5667941.82516799,6424621.67967305],[5667933.289,6424638.168],[5667915.475,6424653.02],[5667892.815,6424672.349],[5667870.323,6424694.801],[5667872.217,6424711.477],[5667882.209,6424724.418],[5667895.581,6424747.464],[5667907.295,6424766.617],[5667915.251,6424797.422],[5667923.911,6424822.745],[5667928.837,6424857.92],[5667919.345,6424880.838],[5667903.951,6424900.794],[5667889.999,6424914.019],[5667868.737,6424935.247],[5667855.886,6424966.941],[5667844.554,6424999.466],[5667835.318,6425023.377],[5668038.209840923,6425044.717219795],[5668046.762,6425444.295],[5668048.70668081,6425535.15524175],[5668053.626,6425815.638],[5668051.5,6425879.704],[5668041.483,6425988.045],[5667936.877,6426562.55],[5667934.007,6426577.585],[5667899.07071181,6426772.47193791],[5667870.92199629,6426940.98557691],[5667836.190723628,6427130.27352164],[5667833.37896717,6427170.72614453],[5667825.031,6427290.828],[5667831.17232127,6427419.149620931],[5667854.637,6427601.464],[5667920.775472094,6428115.342524034],[5668108.52,6428157.505],[5668061.45269587,6428500.31499966],[5668029.026,6428713.573],[5668030.922,6428781.178],[5668027.992,6428851.567],[5668019.222,6428927.142],[5668009.002,6428982.572],[5667997.124,6429031.89],[5667895.021,6429341.804],[5668376.285,6429509.92],[5668444.75561634,6429312.94152497],[5668502.147841811,6429147.833721708],[5668545.742,6429009.899],[5668547.918,6428990.459],[5668659.57,6428659.123],[5668666.039,6428640.279],[5668782.2318201745,6428301.812853228],[5668794.829,6428307.32],[5669302.316,6428532.797],[5669420.371959046,6428586.289732061],[5669507.731,6428583.242],[5669607.575,6428581.321],[5669695.7559756,6428595.35027458],[5669770.771679882,6428607.285002064],[5669868.238,6428626.131],[5669932.035,6428663.164],[5669987.02768589,6428693.16716982],[5670048.05965501,6428726.7840081],[5670102.02412645,6428756.71657998],[5670150.777381596,6428783.758637006],[5670205.098,6428814.199],[5670259.566681045,6428844.722334813],[5670313.2542968,6428874.807973745],[5670326.229,6428881.077],[5670434.985410257,6428997.249096145],[5670514.398,6429094.612],[5670741.268,6429358.391],[5670979.337,6429493.381],[5671047.455899149,6429522.981475908],[5671269.595907283,6429619.510486817],[5671381.655385893,6429330.508260498],[5671494.71831892,6429035.9562468],[5671579.537161259,6428816.412130279],[5671641.088,6428499.252],[5671660.258614619,6428499.767625367],[5671889.094,6428599.858],[5672246.303785538,6428552.386015384],[5672244.589,6428536.163],[5672241.744546675,6428509.252573592],[5672173.976092602,6428173.536984781],[5672126.109,6427936.41],[5672065.892,6427630.063],[5672043.74452411,6427515.92292219],[5672019.391,6427390.296],[5671958.18781642,6427067.6710351],[5671946.063,6427005.084],[5671943.983,6426979.081],[5671941.291,6426942.088],[5671940.143,6426925.715],[5671920.409,6426507.356],[5671914.754,6426306.714],[5671930.41399847,6426074.96973709],[5671934.015,6426026.349],[5671942.56066531,6425961.82497845],[5671603.70936978,6425867.03997838],[5671400.29786372,6425724.03938267],[5671314.02534675,6425663.38882479],[5670976.25842809,6425913.09041958],[5670762.28305362,6426071.27640316],[5670715.24458292,6426069.96239854],[5670752.73712067,6425906.25124876],[5670742.513000005,6425806.7560000485],[5670742.45483608,6425710.49902687],[5670742.338,6425517.144],[5670676.74568544,6425337.84717771],[5670615.185000001,6425176.921000006],[5670593.73143225,6425192.47049987],[5670584.223,6425186.054],[5670577.498,6425176.765],[5670575.068,6425169.879],[5670571.754,6425155.137],[5670573.53,6425143.981],[5670573.209,6425134.509],[5670568.449,6425126.509],[5670567.328,6425122.797],[5670563.577,6425113.639],[5670553.91,6425108.457],[5670547.956,6425102.154],[5670546.496,6425096.814],[5670545.348,6425081.922],[5670544.301,6425072.801],[5670542.584,6425066.465],[5670540.725,6425064.006],[5670534.489,6425058.51],[5670526.6,6425055.156],[5670519.062,6425052.528],[5670508.16521487,6425044.74643724],[5670507.279,6425043.891],[5670492.203,6425038.635],[5670487.044,6425033.515],[5670483.349,6425026.792],[5670481.69,6425022.892],[5670477.444,6425016.883],[5670472.003,6425012.571],[5670468.203,6425007.018],[5670464.708,6424998.856],[5670456.619,6424996.941],[5670446.466,6425000.95],[5670439.299,6425004.187],[5670433.42,6425005.459],[5670410.864,6425000.01],[5670402.01,6424988.168],[5670400.111,6424975.428],[5670399.476,6424962.526],[5670398.842,6424949.624],[5670398.039,6424942.4],[5670395.409,6424936.954],[5670390.087,6424930.569],[5670387.313,6424928.998],[5670379.995,6424930.07],[5670377.686,6424934.096],[5670376.209,6424936.6],[5670370.75,6424940.132],[5670364.465,6424938.242],[5670361.234,6424937.116],[5670357.009,6424936.246],[5670354.768,6424941.806],[5670354.274,6424944.955],[5670346.136,6424946.647],[5670343.938,6424942.559],[5670338.665,6424932.569],[5670336.08,6424930.459],[5670329.468,6424926.041],[5670322.143,6424921.071],[5670316.946,6424918.656],[5670305.059,6424924.173],[5670295.656,6424926.028],[5670281.001,6424923.031],[5670276.674,6424916.39],[5670273.53,6424908.953],[5670269.25975934,6424898.19142909],[5670258.64,6424890.175],[5670246.263,6424891.899],[5670228.434,6424890.212],[5670218.167,6424889.35],[5670987.89866367,6424194.01480962],[5670796.0471663,6423976.2786322],[5669953.39382818,6424737.24414506],[5669826.099560685,6424751.419143228],[5669816.709,6424734.89],[5669810.991,6424724.443],[5669806.138,6424716.712],[5669801.636,6424709.708],[5669791.028,6424694.234],[5669782.871,6424690.786],[5669776.948,6424688.721],[5669772.678,6424684.515],[5669770.186,6424682.137],[5669766.01,6424677.661],[5669757.983,6424671.24],[5669749.907,6424668.424],[5669740.015,6424666.485],[5669732.277,6424665.297],[5669721.272,6424665.687],[5669713.591,6424666.934],[5669698.71,6424667.181],[5669691.699,6424665.642],[5669678.382,6424657.074],[5669671.819,6424649.049],[5669663.761,6424638.389],[5669657.448,6424625.319],[5669652.42,6424617.225],[5669642.6,6424596.894],[5669641.534,6424582.633],[5669639.973,6424571.521],[5669636.703,6424560.116],[5669631.937,6424546.075],[5669628.128,6424534.482],[5669622.591,6424517.455],[5669616.047,6424501.586],[5669610.623,6424489.43],[5669607.06,6424479.733],[5669603.158,6424468.409],[5669601.11,6424466.487],[5669585.602,6424459.873],[5669579.411,6424457.714],[5669565.412,6424452.834],[5669542.297,6424442.057],[5669527.409,6424436.263],[5669518.982,6424432.721],[5669505.49,6424423.79],[5669496.105,6424417.801],[5669484.309,6424410.065],[5669474.06,6424401.359],[5669464.43,6424393.472],[5669452.296,6424384.109],[5669443.988,6424378.495],[5669435.329,6424372.155],[5669425.793,6424364],[5669416.564,6424353.233],[5669409.369,6424345.29],[5669401.518,6424339.232],[5669383.494,6424332.042],[5669365.089,6424332.871],[5669354.903,6424332.642],[5669334.895,6424332.006],[5669319.358,6424334.138],[5669305.329,6424338.002],[5669292.296,6424341.611],[5669278.537,6424345.569],[5669259.503,6424344.245],[5669243.104,6424343.319],[5669226.921,6424342.481],[5669211.79,6424341.52],[5669195.28,6424336.721],[5669181.557,6424324.663],[5669173.873,6424315.678],[5669163.467,6424301.668],[5669158.091,6424292.956],[5669150.901,6424281.642],[5669142.541,6424271.291],[5669132.546,6424263.809],[5669118.339,6424254.972],[5669105.078,6424246.951],[5669092.409,6424234.722],[5669081.166833113,6424209.66142758],[5669071.133,6424199.601],[5669062.775,6424194.072],[5669042.391,6424182.986],[5669023.788,6424173.579],[5669004.603,6424160.006],[5668990.306,6424150.018],[5668976.658,6424140.048],[5668957.664,6424128.235],[5668936.867,6424120.687],[5668926.367,6424116.111],[5668905.887,6424107.18],[5668880.798636176,6424101.287970965],[5668855.744,6424097.503],[5668845.49,6424096.603],[5668832.484,6424093.916],[5668811.611,6424090.901],[5668794.618,6424085.292],[5668781.062,6424079.061],[5668765.699,6424073.408],[5668750.064,6424070.279],[5668733.661,6424067.829],[5668717.866,6424067.703],[5668704.618,6424067.519],[5668677.981,6424069.567],[5668665.044,6424070.722],[5668648.322,6424073.396],[5668628.858,6424075.663],[5668619.702,6424075.912],[5668601.957,6424076.756],[5668581.438,6424075.115],[5668557.811,6424071.156],[5668551.177,6424070.489],[5668531.426,6424073.153],[5668515.319,6424072.665],[5668496.98,6424070.797],[5668481.809,6424067.621],[5668461.906,6424061.591],[5668449.272,6424057.189],[5668418.889,6424043.789],[5668399.04806184,6424027.1572876],[5668377.155,6424015.499],[5668356.95,6424007.253],[5668328.58,6423991.278],[5668321.205,6423979.9],[5668315.725,6423971.34],[5668309.792,6423961.447],[5668304.307,6423943.761],[5668301.367,6423933.704],[5668294.449,6423923.094],[5668285.519,6423905.645],[5668280.06,6423889.647],[5668276.464,6423881.389],[5668270.847,6423863.173],[5668264.751,6423849.624],[5668252.655,6423831.062],[5668243.449,6423819.788],[5668231.495,6423808.328],[5668225.156,6423796.245],[5668214.102,6423778.349],[5668199.91,6423760.833],[5668189.443,6423744.597],[5668178.186273781,6423736.622353922],[5668149.216,6423694.861],[5668124.535,6423662.742]]]}},{"type":"Feature","properties":{},"geometry":{"type":"Polygon","coordinates":[[[5670747.717,6430946.515],[5670503.247385414,6430847.4244273165],[5670256.214,6430753.37],[5670242.638,6430748.227],[5669965.56383079,6430650.62266455],[5669726.133,6430568.535],[5669237.579,6430396.317],[5669228.494,6430390.515],[5668727.658,6430215.376],[5668712.815,6430210.988],[5668205.74,6430016.143],[5668036.879,6430508.289],[5668002.451,6430606.481],[5667866.526,6431013.267],[5667880.52192325,6431018.99229919],[5667693.863,6431546.056],[5667689.25631782,6431562.67063899],[5667513.722,6432055.021],[5667505.300433039,6432077.544563414],[5667509.80787505,6432078.44515998],[5668504.733,6432412.06],[5668516.5552838,6432427.28789487],[5669029.72073255,6432612.77904895],[5670023.80950753,6432944.81477691],[5670193.203,6432458.612],[5670199.15,6432446.4],[5670377.544,6431947.342],[5670382.238,6431931.857],[5670523.284,6431536.239],[5670555.721,6431441.716],[5670747.717,6430946.515]]]}},{"type":"Feature","properties":{},"geometry":{"type":"Polygon","coordinates":[[[5665658.933,6428710.49],[5665636.351,6428721.509],[5665530.59325899,6429046.824136164],[5665775.84,6429144.131],[5665900.449,6429194.223],[5666111.325,6429273.886],[5666393.07892295,6429374.81052429],[5666530.949,6429426.814],[5666629.79912859,6429467.37326507],[5666644.861,6429473.237],[5666944.937,6429577.393],[5667207.25,6429672.064],[5667222.723,6429669.653],[5667696.42807469,6429829.6157487],[5667726.496506239,6429839.7693848265],[5668205.74,6430016.143],[5668376.285,6429509.92],[5667895.021,6429341.804],[5667997.124,6429031.89],[5668009.002,6428982.572],[5668019.222,6428927.142],[5668027.992,6428851.567],[5668030.922,6428781.178],[5668029.026,6428713.573],[5668061.45269587,6428500.31499966],[5668108.52,6428157.505],[5667920.775472094,6428115.342524034],[5667854.637,6427601.464],[5667594.703,6427515.615],[5667510.62637186,6427800.62185611],[5667424.151,6428033.871],[5667416.14752743,6428164.5194455],[5667405.531158183,6428266.53018678],[5667347.109,6428475.228],[5667202.111,6428434.778],[5667211.151999996,6428402.367999999],[5666589.85925748,6428243.31492485],[5666646.43323233,6428017.17006476],[5666363.01094153,6427940.841909031],[5666309.214454476,6428192.799310076],[5666261.658,6428415.533],[5666177.193,6428809.361],[5666197.023,6428957.73],[5665814.12,6428816.314],[5665658.933,6428710.49]]]}},{"type":"Feature","properties":{},"geometry":{"type":"Polygon","coordinates":[[[5666951.2177271,6433550.14112438],[5667327.55,6433683.77],[5667553.912,6433749.953],[5667989.617,6433907.633],[5668480.256,6434080.936],[5668989.449,6434262.861],[5669495.069,6434439.519],[5669665.306388383,6433962.248315868],[5669836.18971157,6433475.85017277],[5670023.80950753,6432944.81477691],[5669029.72073255,6432612.77904895],[5668516.5552838,6432427.28789487],[5668504.733,6432412.06],[5667509.80787505,6432078.44515998],[5667505.300433039,6432077.544563414],[5667495.19748991,6432075.52597374],[5667322.134,6432543.924],[5667141.07651968,6433046.08861466],[5666951.2177271,6433550.14112438]]]}},{"type":"Feature","properties":{},"geometry":{"type":"Polygon","coordinates":[[[5665039.270435033,6425348.591828996],[5665027.025,6425366.56],[5664866.627392365,6425334.671191505],[5664781.41,6425307.686],[5664612.31776186,6425272.57589813],[5664585.804,6425287.714],[5664564.182,6425302.511],[5664545.419,6425314.903],[5664530.209,6425329.201],[5664520.388,6425341.279],[5664515.554,6425350.282],[5664511.256,6425356.766],[5664500.867,6425364.155],[5664491.866,6425381.306],[5664487.44,6425394.105],[5664479.203,6425410.791],[5664473.398,6425429.549],[5664473.171,6425443.69],[5664467.772,6425459.404],[5664462.709,6425474.57],[5664457.06,6425487.381],[5664448.842,6425505.153],[5664438.696,6425519.342],[5664414.111,6425540.048],[5664393.228,6425553.772],[5664388.19,6425556.769],[5664365.881,6425567.917],[5664344.50928638,6425591.44460528],[5664298.5076737,6425612.50797441],[5664277.024,6425631.231],[5664262.156,6425642.224],[5664255.718,6425653.752],[5664246.938,6425664.078],[5664229.725,6425685.745],[5664224.332,6425695.282],[5664208.824,6425712.3],[5664200.117,6425723.55],[5664193.948,6425730.849],[5664171.795,6425758.185],[5664160.156,6425770.916],[5664154.666,6425783.48],[5664149.913,6425798.63],[5664147.501,6425816.121],[5664144.681,6425830.956],[5664138.81,6425847.172],[5664133.538,6425862.508],[5664130.082,6425887.689],[5664130.557,6425896.306],[5664128.578,6425911.362],[5664126.3,6425931.417],[5664124.301,6425939.687],[5664121.4365161,6425951.1090385],[5664115.095,6425975.246],[5664111.098,6425986.989],[5664106.9,6425999.564],[5664096.733,6426015.186],[5664088.54,6426020.789],[5664071.9,6426027.051],[5664050.336,6426032.089],[5664033.04,6426037.352],[5664014.759,6426043.966],[5664010.658,6426045.297],[5663996.164,6426064.753],[5663988.843,6426081.204],[5663982.831,6426093.054],[5663976.246,6426098.174],[5663969.015,6426114.356],[5663966.428,6426125.07],[5663963.10827858,6426135.70062226],[5663956.677,6426155.647],[5663945.913,6426176.709],[5663936.676,6426188.861],[5663929.785,6426194.899],[5663924.81184132,6426204.59128765],[5663944.19609904,6426208.51982211],[5663911.22816096,6426294.71863843],[5663897.97847475,6426329.36160779],[5663891.0037717,6426373.00783922],[5663975.68713838,6426418.43841712],[5664003.5695621,6426465.05977756],[5664088.84800255,6426483.5688063],[5664046.690282251,6426576.627849838],[5663989.60310892,6426617.825116],[5664085.1796392,6426714.29670176],[5664144.76054328,6426806.1588718],[5664032.85661818,6426880.23430254],[5664029.75043694,6426900.13739417],[5664144.191,6427027.529],[5664145.82397448,6427104.38168885],[5664146.642782082,6427142.917236482],[5664166.28168022,6427203.52072458],[5664182.38529715,6427237.87659719],[5664209.52771011,6427342.63299574],[5664167.35,6427400.055],[5664140.3015513,6427404.93234717],[5664109.56024347,6427456.00315522],[5664109.107299359,6427489.749786252],[5664105.86716273,6427515.60588854],[5664105.14315243,6427535.11074347],[5664112.09456746,6427575.81819254],[5664119.04377494,6427594.57470015],[5664150.83184764,6427665.09040814],[5664162.25182475,6427702.01105032],[5664171.68272984,6427733.33832313],[5664190.01829763,6427941.67216018],[5664152.8303315,6428037.65761148],[5664656.774390695,6428262.031608352],[5665658.933,6428710.49],[5665814.12,6428816.314],[5666197.023,6428957.73],[5666177.193,6428809.361],[5666261.658,6428415.533],[5666309.214454476,6428192.799310076],[5666363.01094153,6427940.841909031],[5666646.43323233,6428017.17006476],[5666589.85925748,6428243.31492485],[5667211.151999996,6428402.367999999],[5667202.111,6428434.778],[5667347.109,6428475.228],[5667405.531158183,6428266.53018678],[5667416.14752743,6428164.5194455],[5667424.151,6428033.871],[5667510.62637186,6427800.62185611],[5667594.703,6427515.615],[5667854.637,6427601.464],[5667831.17232127,6427419.149620931],[5667825.031,6427290.828],[5667833.37896717,6427170.72614453],[5667836.190723628,6427130.27352164],[5667870.92199629,6426940.98557691],[5667899.07071181,6426772.47193791],[5667934.007,6426577.585],[5667813.587,6426531.397],[5667768.944,6426490.824],[5667758.754,6426485.465],[5667307.834,6426390.292],[5666736.111,6426265.404],[5666724.87,6426257.87],[5666557.77182047,6426215.77808393],[5666447.35473151,6426191.11323152],[5666281.35045739,6426155.08695371],[5665706.48,6426032.303],[5665691.242,6426030.535],[5665803.66,6425510.755],[5665039.270435033,6425348.591828996]]]}}]}