{"type":"FeatureCollection","features":[{"type":"Feature","properties":{},"geometry":{"type":"Polygon","coordinates":[[[5670315.969,6431352.858],[5670360.96961265,6431236.47622888],[5670402.112616811,6431126.174239482],[5670502.784,6430848.715],[5670460.029,6430831.37],[5670366.45585999,6431084.91297815],[5670276.293,6431338.086],[5670315.969,6431352.858]]]}},{"type":"Feature","properties":{},"geometry":{"type":"Polygon","coordinates":[[[5674769.690620867,6432830.918433753],[5674775.401256718,6432823.80288898],[5674761.185376867,6432812.071958714],[5674755.549380337,6432819.144413805],[5674769.690620867,6432830.918433753]]]}},{"type":"Feature","properties":{},"geometry":{"type":"Polygon","coordinates":[[[5674755.27798492,6432819.17499347],[5674749.369,6432826.487],[5674763.729,6432838.467],[5674769.620593742,6432831.140484664],[5674755.27798492,6432819.17499347]]]}},{"type":"Feature","properties":{},"geometry":{"type":"Polygon","coordinates":[[[5674755.316,6432912.179],[5674782.676,6432879.17],[5674761.015789305,6432861.236956446],[5674733.522841801,6432894.31209309],[5674743.565,6432902.856],[5674755.316,6432912.179]]]}},{"type":"Feature","properties":{},"geometry":{"type":"Polygon","coordinates":[[[5674842.273493387,6434176.421106001],[5674869.665177482,6434143.014878885],[5674861.613937718,6434136.451885413],[5674834.5155814495,6434170.087901216],[5674842.273493387,6434176.421106001]]]}},{"type":"Feature","properties":{},"geometry":{"type":"Polygon","coordinates":[[[5675509.715,6433527.567],[5675517.619,6433534.071],[5675525.236,6433540.34],[5675552.334,6433507.227],[5675536.951,6433494.541],[5675509.715,6433527.567]]]}},{"type":"Feature","properties":{},"geometry":{"type":"Polygon","coordinates":[[[5674946.2305576,6434370.32700891],[5674961.126,6434351.907],[5674938.679,6434333.27],[5674923.736,6434352.026],[5674946.2305576,6434370.32700891]]]}},{"type":"Feature","properties":{},"geometry":{"type":"Polygon","coordinates":[[[5674983.329002318,6434369.741002029],[5674967.736182456,6434357.216462412],[5674940.150706256,6434392.574087711],[5674944.086158506,6434395.738683438],[5674958.645090572,6434377.729645724],[5674969.522,6434386.544],[5674973.439,6434381.489],[5674983.329002318,6434369.741002029]]]}},{"type":"Feature","properties":{},"geometry":{"type":"Polygon","coordinates":[[[5674975.93892913,6432991.138970149],[5674974.318,6432993.088],[5674968.894,6432999.499],[5674964.895746693,6433004.3739904035],[5674979.254,6433016.15],[5674981.378,6433016.006],[5674991.303,6433003.802],[5674975.93892913,6432991.138970149]]]}},{"type":"Feature","properties":{},"geometry":{"type":"Polygon","coordinates":[[[5675013.072,6432977.036],[5675024.25,6432963.292],[5675000.75057895,6432944.17684752],[5674992.789,6432937.814],[5674981.771,6432951.248],[5675013.072,6432977.036]]]}},{"type":"Feature","properties":{},"geometry":{"type":"Polygon","coordinates":[[[5674601.229628064,6434219.490510025],[5674607.949382476,6434211.376498944],[5674586.986,6434194.369],[5674580.402493681,6434202.568403362],[5674601.229628064,6434219.490510025]]]}},{"type":"Feature","properties":{},"geometry":{"type":"Polygon","coordinates":[[[5675233.411,6433444.7],[5675234.398,6433443.454],[5675237.66,6433439.483],[5675232.449,6433435.147],[5675216.57,6433422.05],[5675212.312,6433427.311],[5675220.778,6433434.302],[5675233.411,6433444.7]]]}},{"type":"Feature","properties":{},"geometry":{"type":"Polygon","coordinates":[[[5674992.84751889,6434501.077688097],[5675014.18757911,6434476.29348882],[5674996.382,6434461.231],[5674975.424015989,6434486.638930255],[5674992.84751889,6434501.077688097]]]}},{"type":"Feature","properties":{},"geometry":{"type":"Polygon","coordinates":[[[5674974.336713057,6433194.99686294],[5674961.146596085,6433184.151795261],[5674946.057,6433202.2],[5674959.274,6433213.524],[5674974.336713057,6433194.99686294]]]}},{"type":"Feature","properties":{},"geometry":{"type":"Polygon","coordinates":[[[5674961.146596085,6433184.151795261],[5674974.336713057,6433194.99686294],[5674986.954,6433179.479],[5674973.975,6433168.808],[5674961.146596085,6433184.151795261]]]}},{"type":"Feature","properties":{},"geometry":{"type":"Polygon","coordinates":[[[5674869.665177482,6434143.014878885],[5674842.273493387,6434176.421106001],[5674850.02,6434182.745],[5674851.867,6434180.321],[5674864.836,6434164.877],[5674877.406415008,6434149.325173054],[5674869.665177482,6434143.014878885]]]}},{"type":"Feature","properties":{},"geometry":{"type":"Polygon","coordinates":[[[5675101.6346869515,6434654.937726984],[5675110.602,6434643.414],[5675099.553,6434633.887],[5675090.4,6434646.01],[5675101.6346869515,6434654.937726984]]]}},{"type":"Feature","properties":{},"geometry":{"type":"Polygon","coordinates":[[[5675149.87177815,6434644.3916872],[5675136.18,6434633.388],[5675111.109,6434662.466],[5675158.546,6434700.162],[5675171.098712004,6434684.867434445],[5675147.08783407,6434665.73223669],[5675158.74039491,6434651.51864775],[5675149.87177815,6434644.3916872]]]}},{"type":"Feature","properties":{},"geometry":{"type":"Polygon","coordinates":[[[5675136.18,6434633.388],[5675149.87177815,6434644.3916872],[5675177.033412972,6434611.2730855355],[5675163.394,6434599.865],[5675136.18,6434633.388]]]}},{"type":"Feature","properties":{},"geometry":{"type":"Polygon","coordinates":[[[5675255.486,6434654.666],[5675274.866412356,6434631.436476563],[5675264.79188427,6434622.77656159],[5675245.04768355,6434646.19302505],[5675255.486,6434654.666]]]}},{"type":"Feature","properties":{},"geometry":{"type":"Polygon","coordinates":[[[5674322.464741682,6432942.422915224],[5674314.882441167,6432935.967470993],[5674297.763260396,6432957.962236417],[5674305.141643681,6432964.075527451],[5674322.464741682,6432942.422915224]]]}},{"type":"Feature","properties":{},"geometry":{"type":"Polygon","coordinates":[[[5674031.186,6433337.474],[5674038.411,6433328.489],[5674023.4,6433316.712],[5674016.393,6433325.19],[5674031.186,6433337.474]]]}},{"type":"Feature","properties":{},"geometry":{"type":"Polygon","coordinates":[[[5674725.925,6432753.279],[5674699.605,6432786.159],[5674711.572,6432795.96],[5674738.068198392,6432763.262163072],[5674725.925,6432753.279]]]}},{"type":"Feature","properties":{},"geometry":{"type":"Polygon","coordinates":[[[5674532.576674484,6433214.520162873],[5674548.609114973,6433194.333891315],[5674541.672003514,6433188.758365815],[5674525.641835405,6433208.941811239],[5674532.576674484,6433214.520162873]]]}},{"type":"Feature","properties":{},"geometry":{"type":"Polygon","coordinates":[[[5674927.637850078,6432914.823034039],[5674935.206709884,6432905.382629259],[5674913.142335859,6432887.318315719],[5674905.493946524,6432896.694463147],[5674927.637850078,6432914.823034039]]]}},{"type":"Feature","properties":{},"geometry":{"type":"Polygon","coordinates":[[[5673905.058245706,6434072.977192213],[5673883.528967855,6434054.980407601],[5673870.651725314,6434070.802437324],[5673892.180582158,6434088.798879277],[5673905.058245706,6434072.977192213]]]}},{"type":"Feature","properties":{},"geometry":{"type":"Polygon","coordinates":[[[5674860.321,6432826.897],[5674869.041,6432816.194],[5674847.509,6432798.425],[5674838.626,6432809.217],[5674860.321,6432826.897]]]}},{"type":"Feature","properties":{},"geometry":{"type":"Polygon","coordinates":[[[5674763.729,6432838.467],[5674770.442,6432844.067],[5674782.344155016,6432829.513619129],[5674775.51218748,6432823.81396933],[5674769.620593742,6432831.140484664],[5674763.729,6432838.467]]]}},{"type":"Feature","properties":{},"geometry":{"type":"Polygon","coordinates":[[[5674749.491309582,6432870.842828968],[5674758.7050238885,6432859.323744468],[5674737.111989993,6432841.44546462],[5674727.479,6432853.08],[5674749.491309582,6432870.842828968]],[[5674728.031581592,6432853.074885957],[5674737.150402078,6432841.998060217],[5674747.698524218,6432850.710383349],[5674738.791742329,6432861.753937478],[5674728.031581592,6432853.074885957]]]}},{"type":"Feature","properties":{},"geometry":{"type":"Polygon","coordinates":[[[5675516.046179258,6432673.649825812],[5675527.262534544,6432659.84395948],[5675517.501,6432651.877],[5675506.40475789,6432665.53792135],[5675516.046179258,6432673.649825812]]]}},{"type":"Feature","properties":{},"geometry":{"type":"Polygon","coordinates":[[[5675410.716759261,6432781.690844042],[5675406.02360564,6432787.50248831],[5675428.54,6432805.659],[5675433.291304265,6432799.894799467],[5675433.166363237,6432799.794047895],[5675410.716759261,6432781.690844042]]]}},{"type":"Feature","properties":{},"geometry":{"type":"Polygon","coordinates":[[[5675410.716759261,6432781.690844042],[5675433.166363237,6432799.794047895],[5675438.902,6432793.088],[5675439.397412367,6432792.487003314],[5675416.748161471,6432774.222096667],[5675410.716759261,6432781.690844042]]]}},{"type":"Feature","properties":{},"geometry":{"type":"Polygon","coordinates":[[[5675505.435720736,6433109.668286955],[5675512.057156492,6433101.390813213],[5675504.005910646,6433094.707559382],[5675503.782362093,6433094.976865981],[5675494.510512373,6433087.280401812],[5675494.734060927,6433087.011095214],[5675493.272110813,6433085.79754592],[5675486.546766961,6433093.990820605],[5675505.435720736,6433109.668286955]]]}},{"type":"Feature","properties":{},"geometry":{"type":"Polygon","coordinates":[[[5674791.476117467,6435124.207785709],[5674775.172591763,6435144.153576353],[5674786.168417756,6435153.091177306],[5674802.54,6435133.061],[5674791.476117467,6435124.207785709]]]}},{"type":"Feature","properties":{},"geometry":{"type":"Polygon","coordinates":[[[5674775.172591763,6435144.153576353],[5674791.476117467,6435124.207785709],[5674780.499,6435115.424],[5674764.176772547,6435135.215980378],[5674775.172591763,6435144.153576353]]]}},{"type":"Feature","properties":{},"geometry":{"type":"Polygon","coordinates":[[[5674346.162008739,6434209.4679324785],[5674337.383374211,6434220.199518296],[5674345.1842845315,6434226.70848497],[5674353.964978225,6434215.663446643],[5674346.162008739,6434209.4679324785]],[[5674346.162008739,6434209.4679324785],[5674351.529835297,6434213.745085921],[5674347.097997398,6434219.056071738],[5674341.859985766,6434214.77284978],[5674346.162008739,6434209.4679324785]]]}},{"type":"Feature","properties":{},"geometry":{"type":"Polygon","coordinates":[[[5674333.955626393,6434199.766150376],[5674325.413272099,6434210.211837398],[5674331.137745054,6434214.988255715],[5674339.898943185,6434204.488075836],[5674333.955626393,6434199.766150376]]]}},{"type":"Feature","properties":{},"geometry":{"type":"Polygon","coordinates":[[[5674342.711681499,6434088.1933352],[5674333.148582697,6434099.798794763],[5674356.215,6434118.574],[5674365.679824073,6434107.119480741],[5674342.711681499,6434088.1933352]]]}},{"type":"Feature","properties":{},"geometry":{"type":"Polygon","coordinates":[[[5674870.092589738,6435011.91709827],[5674876.167279282,6435004.505131],[5674894.345546473,6434982.32511333],[5674891.628,6434980.098],[5674915.379,6434952.066],[5674907.498,6434945.53],[5674884.046,6434973.874],[5674886.255662767,6434975.695161242],[5674856.26395587,6435013.048236237],[5674864.035835709,6435019.288470602],[5674870.092589738,6435011.91709827]]]}},{"type":"Feature","properties":{},"geometry":{"type":"Polygon","coordinates":[[[5674268.288,6434334.031],[5674276.030119398,6434340.3593027415],[5674288.087834226,6434325.360663011],[5674280.214,6434318.994],[5674268.288,6434334.031]]]}},{"type":"Feature","properties":{},"geometry":{"type":"Polygon","coordinates":[[[5674268.288,6434334.031],[5674280.214,6434318.994],[5674272.736340468,6434312.948030592],[5674260.848246029,6434327.951390363],[5674268.288,6434334.031]]]}},{"type":"Feature","properties":{},"geometry":{"type":"Polygon","coordinates":[[[5675608.492314334,6433027.868700644],[5675615.254,6433019.666],[5675594.50009718,6433002.530151332],[5675587.47363084,6433011.1805218],[5675608.492314334,6433027.868700644]]]}},{"type":"Feature","properties":{},"geometry":{"type":"Polygon","coordinates":[[[5674769.586,6434942.324],[5674783.302,6434925.67],[5674749.953,6434898.306],[5674735.704,6434915.253],[5674769.586,6434942.324]]]}},{"type":"Feature","properties":{},"geometry":{"type":"Polygon","coordinates":[[[5674337.195223315,6432624.178145277],[5674283.374852486,6432580.999283611],[5674259.192782874,6432561.598558153],[5674242.653508759,6432581.659775091],[5674320.653690718,6432644.237499684],[5674337.195223315,6432624.178145277]]]}},{"type":"Feature","properties":{},"geometry":{"type":"Polygon","coordinates":[[[5674337.195223315,6432624.178145277],[5674348.191847074,6432610.842740717],[5674294.261855842,6432567.560978266],[5674283.374852486,6432580.999283611],[5674337.195223315,6432624.178145277]]]}},{"type":"Feature","properties":{},"geometry":{"type":"Polygon","coordinates":[[[5666270.125,6430009.923],[5666286.006,6429961.156],[5666120.353,6429899.955],[5666102.974,6429898.469],[5666089.899,6429900.997],[5666072.672,6429919.87],[5666069.081,6429933.869],[5666069.128,6429935.912],[5666270.125,6430009.923]]]}},{"type":"Feature","properties":{},"geometry":{"type":"Polygon","coordinates":[[[5674460.119,6434351.88],[5674480.14923548,6434368.70569503],[5674486.76642012,6434360.46818638],[5674487.66517223,6434361.19015329],[5674491.95186648,6434355.85352561],[5674492.74545027,6434356.52032577],[5674499.16947892,6434348.68553609],[5674507.76223745,6434355.85048175],[5674514.30688119,6434347.64378553],[5674484.063,6434322.997],[5674460.119,6434351.88]]]}},{"type":"Feature","properties":{},"geometry":{"type":"Polygon","coordinates":[[[5674729.826536453,6434186.706802235],[5674734.2282615015,6434181.33899568],[5674730.383816022,6434178.142047815],[5674725.979783721,6434183.5126680145],[5674729.826536453,6434186.706802235]]]}},{"type":"Feature","properties":{},"geometry":{"type":"Polygon","coordinates":[[[5674725.925,6432753.279],[5674714.898,6432744.213],[5674688.586,6432777.135],[5674699.605,6432786.159],[5674725.925,6432753.279]]]}},{"type":"Feature","properties":{},"geometry":{"type":"Polygon","coordinates":[[[5674609.730331377,6434771.397517251],[5674617.25,6434777.717],[5674624.398950748,6434768.979835252],[5674601.626,6434750.427],[5674594.801,6434758.851],[5674601.970612627,6434764.876297867],[5674609.730331377,6434771.397517251]]]}},{"type":"Feature","properties":{},"geometry":{"type":"Polygon","coordinates":[[[5675967.641105473,6433846.506729816],[5675966.850526836,6433845.862228658],[5675940.175396734,6433878.804610379],[5675940.773803048,6433879.289170555],[5675957.765035552,6433858.305892686],[5675957.95932517,6433858.463218919],[5675967.641105473,6433846.506729816]]]}},{"type":"Feature","properties":{},"geometry":{"type":"Polygon","coordinates":[[[5674648.54524686,6434622.69920956],[5674666.827,6434637.547],[5674673.694,6434629.33],[5674655.269595989,6434614.400648928],[5674648.54524686,6434622.69920956]]]}},{"type":"Feature","properties":{},"geometry":{"type":"Polygon","coordinates":[[[5674333.955626393,6434199.766150376],[5674323.339,6434191.252],[5674314.863750221,6434201.409469947],[5674325.413272099,6434210.211837398],[5674333.955626393,6434199.766150376]],[[5674325.080256556,6434209.609033177],[5674319.891174299,6434205.279338496],[5674328.15924777,6434195.370160943],[5674333.420497108,6434199.613364323],[5674325.080256556,6434209.609033177]]]}},{"type":"Feature","properties":{},"geometry":{"type":"Polygon","coordinates":[[[5674058.835,6434087.806],[5674079.86101572,6434062.077909708],[5674071.30628832,6434055.08664721],[5674050.44770252,6434080.94536368],[5674058.835,6434087.806]]]}},{"type":"Feature","properties":{},"geometry":{"type":"Polygon","coordinates":[[[5674342.711681499,6434088.1933352],[5674365.679824073,6434107.119480741],[5674374.4064764595,6434096.558442056],[5674351.181,6434077.492],[5674342.711681499,6434088.1933352]]]}},{"type":"Feature","properties":{},"geometry":{"type":"Polygon","coordinates":[[[5675171.747,6434709.984],[5675172.033,6434711.27],[5675198.063344254,6434733.034804344],[5675209.611,6434719.224],[5675182.984,6434696.517],[5675171.747,6434709.984]]]}},{"type":"Feature","properties":{},"geometry":{"type":"Polygon","coordinates":[[[5674677.354,6432982.404],[5674689.226401684,6432992.582057923],[5674716.152,6432959.906],[5674704.034612188,6432950.038683453],[5674677.354,6432982.404]]]}},{"type":"Feature","properties":{},"geometry":{"type":"Polygon","coordinates":[[[5674670.530764592,6434918.191687109],[5674693.722770149,6434937.33483767],[5674701.361999878,6434927.56299997],[5674678.424000061,6434908.628999908],[5674670.530764592,6434918.191687109]]]}},{"type":"Feature","properties":{},"geometry":{"type":"Polygon","coordinates":[[[5674583.859,6435147.505],[5674590.148043009,6435139.659766836],[5674586.453830008,6435136.653817755],[5674580.0456127,6435144.31661601],[5674560.990999988,6435128.385000015],[5674553.893,6435137.188],[5674576.783020934,6435156.334973876],[5674583.859,6435147.505]]]}},{"type":"Feature","properties":{},"geometry":{"type":"Polygon","coordinates":[[[5674561.877477057,6435174.936912803],[5674550.270061883,6435165.435970061],[5674543.3914934145,6435174.020168938],[5674554.999,6435183.521],[5674561.877477057,6435174.936912803]]]}},{"type":"Feature","properties":{},"geometry":{"type":"Polygon","coordinates":[[[5674554.999,6435183.521],[5674563.534,6435190.507],[5674592.274,6435154.541],[5674583.859,6435147.505],[5674576.783020934,6435156.334973876],[5674569.592755253,6435165.309989168],[5674561.877477057,6435174.936912803],[5674554.999,6435183.521]]]}},{"type":"Feature","properties":{},"geometry":{"type":"Polygon","coordinates":[[[5674566.405501362,6435315.592626564],[5674552.545437329,6435304.107913902],[5674546.399,6435311.612000001],[5674560.2590756435,6435323.096698653],[5674566.405501362,6435315.592626564]]]}},{"type":"Feature","properties":{},"geometry":{"type":"Polygon","coordinates":[[[5674560.2590756435,6435323.096698653],[5674572.551,6435333.282],[5674578.692994527,6435325.774277094],[5674566.405501362,6435315.592626564],[5674560.2590756435,6435323.096698653]]]}},{"type":"Feature","properties":{},"geometry":{"type":"Polygon","coordinates":[[[5674533.457676498,6435083.144601418],[5674541.081918773,6435089.506195155],[5674548.962554717,6435095.933501012],[5674564.719952081,6435077.051445506],[5674549.336980139,6435064.228458282],[5674533.457676498,6435083.144601418]],[[5674541.427816737,6435089.355372021],[5674533.712751358,6435083.0879085325],[5674549.40936362,6435064.845888758],[5674556.939017953,6435070.854534546],[5674564.530534586,6435077.145508918],[5674548.976832069,6435095.546631126],[5674541.427816737,6435089.355372021]]]}},{"type":"Feature","properties":{},"geometry":{"type":"Polygon","coordinates":[[[5675095.083969065,6434543.031284644],[5675082.7879953375,6434587.789118526],[5675109.453,6434555.058],[5675095.083969065,6434543.031284644]]]}},{"type":"Feature","properties":{},"geometry":{"type":"Polygon","coordinates":[[[5674207.494993299,6434394.665638536],[5674215.134487843,6434400.918839245],[5674228.544987951,6434384.536268867],[5674220.984795447,6434378.185235187],[5674207.494993299,6434394.665638536]]]}},{"type":"Feature","properties":{},"geometry":{"type":"Polygon","coordinates":[[[5675274.658482391,6433047.775093971],[5675292.69648288,6433025.753709533],[5675291.954793565,6433025.152924611],[5675282.064,6433017.146],[5675263.819411796,6433038.884025982],[5675274.11367979,6433047.328585346],[5675274.658482391,6433047.775093971]]]}},{"type":"Feature","properties":{},"geometry":{"type":"Polygon","coordinates":[[[5675274.658482391,6433047.775093971],[5675285.238970939,6433056.446637338],[5675303.325229644,6433034.3632319635],[5675292.69648288,6433025.753709533],[5675274.658482391,6433047.775093971]]]}},{"type":"Feature","properties":{},"geometry":{"type":"Polygon","coordinates":[[[5675009.442096143,6434313.846553212],[5675026.317,6434327.62],[5675046.109715465,6434304.158623268],[5675028.911,6434289.993],[5675009.442096143,6434313.846553212]]]}},{"type":"Feature","properties":{},"geometry":{"type":"Polygon","coordinates":[[[5673830.12852935,6434065.055196469],[5673819.414,6434056.415],[5673801.2563932445,6434078.21280699],[5673812.568051116,6434087.054648442],[5673830.12852935,6434065.055196469]]]}},{"type":"Feature","properties":{},"geometry":{"type":"Polygon","coordinates":[[[5673830.12852935,6434065.055196469],[5673812.568051116,6434087.054648442],[5673824.497,6434096.379],[5673841.914,6434074.559],[5673830.12852935,6434065.055196469]]]}},{"type":"Feature","properties":{},"geometry":{"type":"Polygon","coordinates":[[[5673824.497,6434096.379],[5673812.568051116,6434087.054648442],[5673801.2563932445,6434078.21280699],[5673791.61,6434089.533],[5673814.80175953,6434108.52513044],[5673824.497,6434096.379]]]}},{"type":"Feature","properties":{},"geometry":{"type":"Polygon","coordinates":[[[5675309.07377728,6434679.705336235],[5675318.795477828,6434668.028208316],[5675314.732394156,6434664.961012881],[5675314.087030812,6434665.763762004],[5675308.169486302,6434660.837032159],[5675308.261372446,6434660.7184702065],[5675284.2688560635,6434641.822683438],[5675275.429000024,6434652.40600002],[5675303.144004362,6434674.8720875215],[5675309.07377728,6434679.705336235]]]}},{"type":"Feature","properties":{},"geometry":{"type":"Polygon","coordinates":[[[5675340.049,6434098.217],[5675357.39260887,6434076.25349551],[5675349.908,6434070.16],[5675332.04795367,6434092.23096253],[5675340.049,6434098.217]]]}},{"type":"Feature","properties":{},"geometry":{"type":"Polygon","coordinates":[[[5674526.798098252,6434549.352340073],[5674548.865281595,6434567.265479882],[5674556.978103006,6434557.407454914],[5674534.704761893,6434539.612127133],[5674526.798098252,6434549.352340073]]]}},{"type":"Feature","properties":{},"geometry":{"type":"Polygon","coordinates":[[[5675149.517,6433044.33],[5675131.180942742,6433065.336952551],[5675140.044000001,6433072.674999999],[5675157.994,6433051.299],[5675149.517,6433044.33]]]}},{"type":"Feature","properties":{},"geometry":{"type":"Polygon","coordinates":[[[5675502.156092463,6434523.021091336],[5675509.1124340575,6434528.4895052975],[5675529.627982305,6434503.218519461],[5675522.8177278545,6434497.5722618075],[5675502.156092463,6434523.021091336]]]}},{"type":"Feature","properties":{},"geometry":{"type":"Polygon","coordinates":[[[5674951.347724278,6432963.327665803],[5674933.446978298,6432948.403752762],[5674927.097631243,6432956.127285567],[5674945.058435263,6432971.101630016],[5674951.347724278,6432963.327665803]]]}},{"type":"Feature","properties":{},"geometry":{"type":"Polygon","coordinates":[[[5674586.453830008,6435136.653817755],[5674590.148043009,6435139.659766836],[5674592.679005837,6435141.719189339],[5674613.33,6435117.015],[5674604.78974372,6435109.85530827],[5674584.070042797,6435134.714150774],[5674586.453830008,6435136.653817755]]]}},{"type":"Feature","properties":{},"geometry":{"type":"Polygon","coordinates":[[[5674395.362,6433136.291],[5674411.427,6433116.861],[5674399.994,6433107.819],[5674384.232,6433127.174],[5674395.362,6433136.291]]]}},{"type":"Feature","properties":{},"geometry":{"type":"Polygon","coordinates":[[[5672951.54590107,6430229.52366062],[5673508.65739722,6430093.77204146],[5673460.21523287,6429906.64047875],[5673431.375,6429819.62],[5673038.109,6430111.439],[5672951.54590107,6430229.52366062]]]}},{"type":"Feature","properties":{},"geometry":{"type":"Polygon","coordinates":[[[5675526.161947927,6433084.807233337],[5675532.97370012,6433076.28335348],[5675513.605,6433060.457],[5675506.908,6433068.9],[5675526.161947927,6433084.807233337]]]}},{"type":"Feature","properties":{},"geometry":{"type":"Polygon","coordinates":[[[5673626.49380393,6433020.56284245],[5673652.472,6433041.252],[5673659.214000001,6433033.233999999],[5673633.252,6433012.152],[5673626.49380393,6433020.56284245]]]}},{"type":"Feature","properties":{},"geometry":{"type":"Polygon","coordinates":[[[5675532.97370012,6433076.28335348],[5675526.161947927,6433084.807233337],[5675547.661,6433102.445],[5675554.620443012,6433093.886998021],[5675532.97370012,6433076.28335348]]]}},{"type":"Feature","properties":{},"geometry":{"type":"Polygon","coordinates":[[[5674980.349488176,6433838.629711868],[5675000.452210379,6433855.056635734],[5675009.032317427,6433844.549707075],[5674988.79600088,6433828.145302297],[5674980.349488176,6433838.629711868]]]}},{"type":"Feature","properties":{},"geometry":{"type":"Polygon","coordinates":[[[5674549.178832529,6434568.291707219],[5674525.806582878,6434549.336736443],[5674516.931298594,6434560.163996672],[5674540.016791146,6434578.998940775],[5674549.178832529,6434568.291707219]]]}},{"type":"Feature","properties":{},"geometry":{"type":"Polygon","coordinates":[[[5674647.537511764,6435157.930899767],[5674653.633721773,6435150.872646201],[5674633.858889246,6435134.527979922],[5674627.872366404,6435141.562117768],[5674647.537511764,6435157.930899767]]]}},{"type":"Feature","properties":{},"geometry":{"type":"Polygon","coordinates":[[[5674495.124442275,6434682.5824494],[5674487.948705863,6434691.501952433],[5674465.170716089,6434673.176568334],[5674454.516,6434686.4],[5674477.423142181,6434704.71817754],[5674495.124442275,6434682.5824494]]]}},{"type":"Feature","properties":{},"geometry":{"type":"Polygon","coordinates":[[[5674927.637850078,6432914.823034039],[5674905.493946524,6432896.694463147],[5674904.319469001,6432898.224893658],[5674926.4151793355,6432916.316516518],[5674927.637850078,6432914.823034039]]]}},{"type":"Feature","properties":{},"geometry":{"type":"Polygon","coordinates":[[[5675560.213123181,6433044.741273252],[5675539.78,6433028.367],[5675533.022848536,6433036.482911164],[5675553.464276137,6433053.049863139],[5675560.213123181,6433044.741273252]]]}},{"type":"Feature","properties":{},"geometry":{"type":"Polygon","coordinates":[[[5675091.74519415,6434540.23676804],[5675074.572,6434525.863],[5675060.449783533,6434542.770911274],[5675054.451932474,6434549.9518756615],[5675078.524555167,6434571.035253872],[5675091.74519415,6434540.23676804]]]}},{"type":"Feature","properties":{},"geometry":{"type":"Polygon","coordinates":[[[5675075.116671334,6435130.607629923],[5675090.820880969,6435111.9331071805],[5675024.57479619,6435057.46165062],[5675009.7366065895,6435076.8314242605],[5675075.116671334,6435130.607629923]]]}},{"type":"Feature","properties":{},"geometry":{"type":"Polygon","coordinates":[[[5674614.782999727,6435156.410999768],[5674634.706,6435173.365],[5674641.645,6435165.14],[5674632.421041132,6435157.87987711],[5674632.324299651,6435157.994511686],[5674621.164185993,6435148.7127325265],[5674614.782999727,6435156.410999768]]]}},{"type":"Feature","properties":{},"geometry":{"type":"Polygon","coordinates":[[[5674948.663714809,6434675.97729169],[5674959.69,6434685.149],[5674982.094,6434656.764],[5674970.919,6434647.759],[5674948.663714809,6434675.97729169]]]}},{"type":"Feature","properties":{},"geometry":{"type":"Polygon","coordinates":[[[5674444.8504490405,6433256.908493839],[5674452.100055682,6433247.779497353],[5674447.629398562,6433244.229316481],[5674423.81,6433224.166],[5674416.186,6433233.434],[5674444.8504490405,6433256.908493839]]]}},{"type":"Feature","properties":{},"geometry":{"type":"Polygon","coordinates":[[[5675064.617036785,6432806.67702987],[5675099.87547802,6432763.82019351],[5675117.8375097485,6432778.444536583],[5675137.019990148,6432754.884071693],[5675109.403995506,6432731.494413983],[5675054.912869929,6432798.797995351],[5675064.617036785,6432806.67702987]]]}},{"type":"Feature","properties":{},"geometry":{"type":"Polygon","coordinates":[[[5674549.178832529,6434568.291707219],[5674557.944987572,6434557.493548539],[5674534.644152102,6434538.449337388],[5674525.806582878,6434549.336736443],[5674549.178832529,6434568.291707219]],[[5674526.798098252,6434549.352340073],[5674534.704761893,6434539.612127133],[5674556.978103006,6434557.407454914],[5674548.865281595,6434567.265479882],[5674526.798098252,6434549.352340073]]]}},{"type":"Feature","properties":{},"geometry":{"type":"Polygon","coordinates":[[[5675705.33,6433810.502],[5675727.271,6433783.31],[5675716.866002053,6433774.914275988],[5675694.944579538,6433802.081957531],[5675705.33,6433810.502]]]}},{"type":"Feature","properties":{},"geometry":{"type":"Polygon","coordinates":[[[5674325.080256556,6434209.609033177],[5674333.420497108,6434199.613364323],[5674328.15924777,6434195.370160943],[5674319.891174299,6434205.279338496],[5674325.080256556,6434209.609033177]]]}},{"type":"Feature","properties":{},"geometry":{"type":"Polygon","coordinates":[[[5675047.4765021335,6434433.859231448],[5675058.919,6434420.539],[5675023.678,6434392.528],[5675012.868,6434405.697],[5675047.4765021335,6434433.859231448]]]}},{"type":"Feature","properties":{},"geometry":{"type":"Polygon","coordinates":[[[5675355.318,6433574.949],[5675363.545,6433564.53],[5675365.168,6433562.505],[5675358.924,6433557.109],[5675348.714,6433569.718],[5675355.318,6433574.949]]]}},{"type":"Feature","properties":{},"geometry":{"type":"Polygon","coordinates":[[[5673743.554,6434106.817],[5673770.410152669,6434072.7383967675],[5673747.078,6434053.925],[5673720.806221556,6434088.068119448],[5673743.554,6434106.817]]]}},{"type":"Feature","properties":{},"geometry":{"type":"Polygon","coordinates":[[[5674289.00130335,6434064.425005943],[5674313.966113144,6434085.197948009],[5674322.586968501,6434074.605200714],[5674297.759295338,6434053.899698383],[5674289.00130335,6434064.425005943]]]}},{"type":"Feature","properties":{},"geometry":{"type":"Polygon","coordinates":[[[5675794.581,6433658.651],[5675799.579,6433652.401],[5675779.819,6433636.38],[5675775.084095534,6433642.196414677],[5675794.581,6433658.651]]]}},{"type":"Feature","properties":{},"geometry":{"type":"Polygon","coordinates":[[[5674655.397081505,6433889.365026078],[5674670.923,6433870.434],[5674656.785,6433858.534],[5674640.95,6433877.65],[5674655.397081505,6433889.365026078]]]}},{"type":"Feature","properties":{},"geometry":{"type":"Polygon","coordinates":[[[5674662.491367605,6433831.848811884],[5674670.2455228865,6433822.230267653],[5674641.127001241,6433799.227998502],[5674633.190162609,6433808.850985042],[5674662.491367605,6433831.848811884]]]}},{"type":"Feature","properties":{},"geometry":{"type":"Polygon","coordinates":[[[5674687.2162444135,6435270.425527127],[5674693.922565537,6435262.409180554],[5674671.892512084,6435245.283035217],[5674665.16129678,6435253.45524084],[5674687.2162444135,6435270.425527127]]]}},{"type":"Feature","properties":{},"geometry":{"type":"Polygon","coordinates":[[[5666712.916941625,6425810.462279181],[5666731.510976445,6425725.8801946975],[5666646.81163148,6425707.827823417],[5666628.217596662,6425792.409907901],[5666712.916941625,6425810.462279181]]]}},{"type":"Feature","properties":{},"geometry":{"type":"Polygon","coordinates":[[[5666809.335233476,6425831.012364942],[5666827.874236198,6425746.418551206],[5666748.43128439,6425729.486499814],[5666729.8372495705,6425814.068584298],[5666809.335233476,6425831.012364942]]]}},{"type":"Feature","properties":{},"geometry":{"type":"Polygon","coordinates":[[[5674444.8504490405,6433256.908493839],[5674455.601,6433265.898],[5674463.058,6433256.74],[5674452.100055682,6433247.779497353],[5674444.8504490405,6433256.908493839]]]}},{"type":"Feature","properties":{},"geometry":{"type":"Polygon","coordinates":[[[5675703.429,6434260.502],[5675709.353,6434253.517],[5675692.206337449,6434239.505308682],[5675686.238,6434246.809],[5675703.429,6434260.502]]]}},{"type":"Feature","properties":{},"geometry":{"type":"Polygon","coordinates":[[[5674550.270061883,6435165.435970061],[5674538.7332284665,6435155.993592494],[5674531.83,6435164.557],[5674543.3914934145,6435174.020168938],[5674550.270061883,6435165.435970061]]]}},{"type":"Feature","properties":{},"geometry":{"type":"Polygon","coordinates":[[[5675033.954,6434599.675],[5675043.69,6434587.355],[5675029.388,6434575.286],[5675019.26,6434587.794],[5675033.954,6434599.675]]]}},{"type":"Feature","properties":{},"geometry":{"type":"Polygon","coordinates":[[[5674701.8356687585,6434838.604387879],[5674709.693802135,6434829.012217126],[5674685.946128868,6434810.26169633],[5674678.157579546,6434819.910452698],[5674701.8356687585,6434838.604387879]],[[5674701.71760099,6434837.861112521],[5674678.981304475,6434819.921448386],[5674686.239086938,6434810.930226548],[5674709.034868478,6434828.929159368],[5674701.71760099,6434837.861112521]]]}},{"type":"Feature","properties":{},"geometry":{"type":"Polygon","coordinates":[[[5674716.777,6432665.51],[5674726.026,6432654.311],[5674714.673349538,6432645.451831831],[5674705.871167062,6432656.731457529],[5674716.777,6432665.51]]]}},{"type":"Feature","properties":{},"geometry":{"type":"Polygon","coordinates":[[[5666690.608394076,6425911.9412465915],[5666709.202428895,6425827.35916211],[5666624.503083933,6425809.306790829],[5666605.909049112,6425893.888875309],[5666690.608394076,6425911.9412465915]]]}},{"type":"Feature","properties":{},"geometry":{"type":"Polygon","coordinates":[[[5673919.52,6433366.973],[5673926.426,6433358.637],[5673911.525,6433346.638],[5673904.775,6433355.056],[5673919.52,6433366.973]]]}},{"type":"Feature","properties":{},"geometry":{"type":"Polygon","coordinates":[[[5675317.86415083,6433553.6393044675],[5675332.895628051,6433536.064504694],[5675325.419999999,6433530.058000001],[5675310.59100013,6433547.665000108],[5675317.86415083,6433553.6393044675]]]}},{"type":"Feature","properties":{},"geometry":{"type":"Polygon","coordinates":[[[5675161.905742444,6435193.61061402],[5675173.188351904,6435180.364379696],[5675107.763817338,6435125.975923052],[5675092.065381237,6435144.655299487],[5675128.528889686,6435174.737091483],[5675133.044574756,6435169.355243487],[5675161.905742444,6435193.61061402]]]}},{"type":"Feature","properties":{},"geometry":{"type":"Polygon","coordinates":[[[5676116.189267797,6434022.63718768],[5676121.861025518,6434015.778531517],[5676107.128696466,6433984.818184514],[5676092.466711594,6434003.019847475],[5676116.189267797,6434022.63718768]]]}},{"type":"Feature","properties":{},"geometry":{"type":"Polygon","coordinates":[[[5675366.534,6433601.142],[5675374.723903654,6433590.967877272],[5675368.226878847,6433585.631722212],[5675360.051,6433595.827],[5675366.534,6433601.142]]]}},{"type":"Feature","properties":{},"geometry":{"type":"Polygon","coordinates":[[[5675741.378758443,6432989.601020464],[5675750.189,6432978.382],[5675730.249,6432961.922],[5675721.066980861,6432973.241983987],[5675741.378758443,6432989.601020464]]]}},{"type":"Feature","properties":{},"geometry":{"type":"Polygon","coordinates":[[[5674695.786,6432648.613],[5674722.911,6432614.366],[5674710.61,6432604.592],[5674683.107,6432638.407],[5674695.786,6432648.613]]]}},{"type":"Feature","properties":{},"geometry":{"type":"Polygon","coordinates":[[[5675565.08054935,6430305.09755804],[5675632.93600599,6430234.35647021],[5675524.6589989,6430201.90300701],[5675488.24,6430246.352],[5675491.48450197,6430281.8090522],[5675565.08054935,6430305.09755804]]]}},{"type":"Feature","properties":{},"geometry":{"type":"Polygon","coordinates":[[[5674975.93892913,6432991.138970149],[5674968.94901452,6432985.388981998],[5674958.119,6432998.816],[5674964.895746693,6433004.3739904035],[5674968.894,6432999.499],[5674974.318,6432993.088],[5674975.93892913,6432991.138970149]]]}},{"type":"Feature","properties":{},"geometry":{"type":"Polygon","coordinates":[[[5674516.931298594,6434560.163996672],[5674507.734190202,6434571.374019316],[5674530.441254372,6434590.177139342],[5674540.016791146,6434578.998940775],[5674516.931298594,6434560.163996672]],[[5674529.07582717,6434588.5346224625],[5674508.016650831,6434571.312870048],[5674516.9769933475,6434560.466211497],[5674538.138323429,6434577.985418051],[5674529.07582717,6434588.5346224625]]]}},{"type":"Feature","properties":{},"geometry":{"type":"Polygon","coordinates":[[[5673837.302,6433298.991],[5673852.344,6433311.08],[5673859.6,6433302.056],[5673844.62,6433289.986],[5673837.302,6433298.991]]]}},{"type":"Feature","properties":{},"geometry":{"type":"Polygon","coordinates":[[[5673895.648,6433320.079],[5673908.70660487,6433303.65650037],[5673901.607,6433297.782],[5673888.128,6433313.546],[5673895.648,6433320.079]]]}},{"type":"Feature","properties":{},"geometry":{"type":"Polygon","coordinates":[[[5674728.031581592,6432853.074885957],[5674738.791742329,6432861.753937478],[5674747.698524218,6432850.710383349],[5674737.150402078,6432841.998060217],[5674728.031581592,6432853.074885957]]]}},{"type":"Feature","properties":{},"geometry":{"type":"Polygon","coordinates":[[[5673978.555,6433386.664],[5673991.666325291,6433370.267147141],[5673984.226970367,6433364.411579684],[5673970.88938879,6433380.63036998],[5673978.555,6433386.664]]]}},{"type":"Feature","properties":{},"geometry":{"type":"Polygon","coordinates":[[[5674749.491309582,6432870.842828968],[5674727.479,6432853.08],[5674718.394880395,6432863.981140813],[5674733.591984296,6432876.877871132],[5674739.945014981,6432882.122919542],[5674740.694276503,6432881.215381408],[5674749.491309582,6432870.842828968]]]}},{"type":"Feature","properties":{},"geometry":{"type":"Polygon","coordinates":[[[5674761.18696985,6432811.86298693],[5674775.51218748,6432823.81396933],[5674782.344155016,6432829.513619129],[5674788.540900891,6432821.914030178],[5674767.155867148,6432804.476558167],[5674761.18696985,6432811.86298693]]]}},{"type":"Feature","properties":{},"geometry":{"type":"Polygon","coordinates":[[[5674458.796,6433996.555],[5674476.204823469,6433974.62481839],[5674463.538657943,6433964.252711339],[5674445.754000435,6433985.944999465],[5674458.796,6433996.555]]]}},{"type":"Feature","properties":{},"geometry":{"type":"Polygon","coordinates":[[[5675808.4721754,6433239.489537301],[5675809.012988794,6433238.835315331],[5675776.44100402,6433212.546995103],[5675775.956828432,6433213.136700683],[5675808.4721754,6433239.489537301]]]}},{"type":"Feature","properties":{},"geometry":{"type":"Polygon","coordinates":[[[5674107.932,6432906.375],[5674124.682,6432885.401],[5674101.8716873815,6432867.1039878605],[5674085.160718495,6432887.9370299755],[5674107.932,6432906.375]]]}},{"type":"Feature","properties":{},"geometry":{"type":"Polygon","coordinates":[[[5674596.014512427,6434964.57986736],[5674599.786873491,6434959.886976151],[5674578.398023681,6434942.69363827],[5674567.757899422,6434955.83865105],[5674589.142094365,6434973.1292903265],[5674596.014512427,6434964.57986736]]]}},{"type":"Feature","properties":{},"geometry":{"type":"Polygon","coordinates":[[[5675200.780191453,6434511.153587491],[5675222.479621659,6434529.875760351],[5675232.220990002,6434517.906991632],[5675210.403,6434499.647],[5675200.780191453,6434511.153587491]]]}},{"type":"Feature","properties":{},"geometry":{"type":"Polygon","coordinates":[[[5675517.619,6433534.071],[5675509.715,6433527.567],[5675482.594,6433560.407],[5675484.585260727,6433562.047892271],[5675490.436914968,6433566.869929927],[5675517.619,6433534.071]],[[5675484.585260727,6433562.047892271],[5675497.67651521,6433546.251490414],[5675503.433672166,6433550.995657873],[5675490.4052868765,6433566.716199388],[5675484.585260727,6433562.047892271]]]}},{"type":"Feature","properties":{},"geometry":{"type":"Polygon","coordinates":[[[5674123.200430369,6432553.864310184],[5674132.705556471,6432542.195759383],[5674112.939486235,6432525.997240808],[5674103.414988373,6432537.6474656],[5674123.200430369,6432553.864310184]]]}},{"type":"Feature","properties":{},"geometry":{"type":"Polygon","coordinates":[[[5674701.71760099,6434837.861112521],[5674709.034868478,6434828.929159368],[5674686.239086938,6434810.930226548],[5674678.981304475,6434819.921448386],[5674701.71760099,6434837.861112521]]]}},{"type":"Feature","properties":{},"geometry":{"type":"Polygon","coordinates":[[[5674577.785656245,6434987.837330016],[5674588.35400001,6434996.016999989],[5674606.4980189195,6434972.903082768],[5674596.014512427,6434964.57986736],[5674589.142094365,6434973.1292903265],[5674577.785656245,6434987.837330016]]]}},{"type":"Feature","properties":{},"geometry":{"type":"Polygon","coordinates":[[[5674384.9315,6433824.9315],[5674357.617275773,6433857.907109781],[5674368.213442461,6433866.676461846],[5674394.735015889,6433832.954979799],[5674384.9315,6433824.9315]]]}},{"type":"Feature","properties":{},"geometry":{"type":"Polygon","coordinates":[[[5665933.68969094,6425961.879253533],[5665951.8704666905,6425879.617210682],[5665910.770405328,6425870.641098182],[5665892.898566604,6425952.476889777],[5665933.68969094,6425961.879253533]]]}},{"type":"Feature","properties":{},"geometry":{"type":"Polygon","coordinates":[[[5665951.56384347,6425966.892579234],[5666036.1128728585,6425984.912913048],[5666054.710293351,6425901.011415586],[5665970.129940855,6425882.417761516],[5665951.56384347,6425966.892579234]]]}},{"type":"Feature","properties":{},"geometry":{"type":"Polygon","coordinates":[[[5674349.471593125,6433848.311084688],[5674357.581775444,6433857.708011129],[5674384.566896757,6433825.070541141],[5674375.047043921,6433817.137768944],[5674349.471593125,6433848.311084688]]]}},{"type":"Feature","properties":{},"geometry":{"type":"Polygon","coordinates":[[[5674789.727755073,6434651.7902960675],[5674780.2449968,6434643.84711059],[5674780.587967391,6434639.289610796],[5674775.292893146,6434634.844938961],[5674779.349199743,6434630.025035558],[5674776.03155971,6434627.336882947],[5674765.283200782,6434640.161425825],[5674785.378878943,6434657.082724116],[5674789.727755073,6434651.7902960675]]]}},{"type":"Feature","properties":{},"geometry":{"type":"Polygon","coordinates":[[[5674779.349199743,6434630.025035558],[5674775.292893146,6434634.844938961],[5674780.587967391,6434639.289610796],[5674780.2449968,6434643.84711059],[5674789.727755073,6434651.7902960675],[5674796.338365859,6434643.748554996],[5674779.349199743,6434630.025035558]]]}},{"type":"Feature","properties":{},"geometry":{"type":"Polygon","coordinates":[[[5670895.553780285,6427086.066781917],[5670963.775138868,6426932.680318978],[5670862.387,6426976.547],[5670412.99024618,6426463.44329071],[5670288.294,6426540.597],[5670201.76336218,6426632.35478692],[5670130.964,6426737.251],[5670895.553780285,6427086.066781917]]]}},{"type":"Feature","properties":{},"geometry":{"type":"Polygon","coordinates":[[[5674577.785656245,6434987.837330016],[5674589.142094365,6434973.1292903265],[5674567.757899422,6434955.83865105],[5674555.709665975,6434970.739993113],[5674577.785656245,6434987.837330016]]]}},{"type":"Feature","properties":{},"geometry":{"type":"Polygon","coordinates":[[[5674771.626276151,6433059.747771186],[5674798.008,6433027.518],[5674788.303108171,6433019.640471836],[5674773.857183926,6433038.304235412],[5674772.2219359595,6433036.978085642],[5674768.429938494,6433041.86229955],[5674769.7857771255,6433042.936469868],[5674762.43032065,6433052.220669853],[5674771.626276151,6433059.747771186]]]}},{"type":"Feature","properties":{},"geometry":{"type":"Polygon","coordinates":[[[5674097.069299271,6432545.376128474],[5674104.773359389,6432551.75166435],[5674102.874531923,6432554.074260796],[5674108.790215817,6432558.89313868],[5674107.5243308395,6432560.44153631],[5674113.72688276,6432565.494095035],[5674123.200430369,6432553.864310184],[5674103.414988373,6432537.6474656],[5674097.069299271,6432545.376128474]]]}},{"type":"Feature","properties":{},"geometry":{"type":"Polygon","coordinates":[[[5674097.069299271,6432545.376128474],[5674103.414988373,6432537.6474656],[5674112.939486235,6432525.997240808],[5674100.855863226,6432516.091424685],[5674074.371177721,6432548.7527769795],[5674086.348754747,6432558.569910371],[5674097.069299271,6432545.376128474]]]}},{"type":"Feature","properties":{},"geometry":{"type":"Polygon","coordinates":[[[5674670.530764592,6434918.191687109],[5674663.062303721,6434927.576888051],[5674670.942048196,6434934.145159286],[5674670.54100546,6434934.63102421],[5674676.972498463,6434939.940590836],[5674677.3735295795,6434939.454716322],[5674686.148306045,6434946.73230507],[5674693.722770149,6434937.33483767],[5674670.530764592,6434918.191687109]]]}},{"type":"Feature","properties":{},"geometry":{"type":"Polygon","coordinates":[[[5674631.72362501,6434966.232831446],[5674639.634427393,6434972.955322023],[5674647.276880868,6434963.628227025],[5674639.19822213,6434957.013605223],[5674631.72362501,6434966.232831446]]]}},{"type":"Feature","properties":{},"geometry":{"type":"Polygon","coordinates":[[[5675333.6854945645,6433115.491803863],[5675333.05042899,6433116.270475512],[5675349.565873722,6433129.881240858],[5675349.945717471,6433129.416785819],[5675360.182661025,6433137.429076899],[5675366.630211672,6433129.525337868],[5675365.669148227,6433128.739035519],[5675360.309,6433135.587],[5675333.6854945645,6433115.491803863]]]}},{"type":"Feature","properties":{},"geometry":{"type":"Polygon","coordinates":[[[5674383.410999719,6433916.046999779],[5674391.5988248885,6433905.776603351],[5674368.508310922,6433888.653721073],[5674360.892,6433898.337],[5674383.410999719,6433916.046999779]]]}},{"type":"Feature","properties":{},"geometry":{"type":"Polygon","coordinates":[[[5674201.16560809,6434386.149062812],[5674213.227969428,6434371.669192292],[5674205.457132929,6434365.141420935],[5674193.614722002,6434379.740469833],[5674201.16560809,6434386.149062812]]]}},{"type":"Feature","properties":{},"geometry":{"type":"Polygon","coordinates":[[[5673973.957416471,6433410.118516331],[5673980.852266448,6433401.738395229],[5673966.064239161,6433389.571359889],[5673959.169388145,6433397.951482253],[5673973.957416471,6433410.118516331]]]}},{"type":"Feature","properties":{},"geometry":{"type":"Polygon","coordinates":[[[5674168.801,6434009.675],[5674175.171,6434001.803],[5674157.17289562,6433987.50212311],[5674150.703,6433995.133],[5674168.801,6434009.675]]]}},{"type":"Feature","properties":{},"geometry":{"type":"Polygon","coordinates":[[[5666318.534324783,6426152.718875292],[5666337.127978852,6426068.138522797],[5666252.547626357,6426049.544868728],[5666233.953972287,6426134.125221223],[5666318.534324783,6426152.718875292]]]}},{"type":"Feature","properties":{},"geometry":{"type":"Polygon","coordinates":[[[5666505.638299809,6433106.3941905815],[5666473.223769,6433094.2812058],[5666474.487165784,6433105.329202387],[5666502.209216113,6433115.786442386],[5666505.638299809,6433106.3941905815]]]}},{"type":"Feature","properties":{},"geometry":{"type":"Polygon","coordinates":[[[5666537.64865473,6433139.891326708],[5666475.721379383,6433116.122001446],[5666537.291475661,6433140.905699559],[5666537.64865473,6433139.891326708]]]}},{"type":"Feature","properties":{},"geometry":{"type":"Polygon","coordinates":[[[5666512.409345856,6433087.848312123],[5666470.71667998,6433072.35752255],[5666473.223769,6433094.2812058],[5666505.638299809,6433106.3941905815],[5666512.409345856,6433087.848312123]]]}},{"type":"Feature","properties":{},"geometry":{"type":"Polygon","coordinates":[[[5673773.175806124,6433112.827519064],[5673767.292342359,6433108.048266601],[5673740.945230234,6433140.482686148],[5673746.828693999,6433145.261938611],[5673773.175806124,6433112.827519064]]]}},{"type":"Feature","properties":{},"geometry":{"type":"Polygon","coordinates":[[[5674347.151424376,6434161.159403046],[5674340.642,6434169.394],[5674353.275426769,6434179.7306624],[5674359.941154354,6434185.184556815],[5674366.278693124,6434177.260970271],[5674366.608999904,6434176.848000119],[5674359.739068525,6434171.312025648],[5674353.405696826,6434179.171139815],[5674340.851535442,6434169.129496963],[5674347.151424376,6434161.159403046]],[[5674359.909900443,6434184.903454941],[5674353.4003497865,6434179.574475845],[5674359.774605898,6434171.788919578],[5674366.123902999,6434177.134321081],[5674359.909900443,6434184.903454941]]]}},{"type":"Feature","properties":{},"geometry":{"type":"Polygon","coordinates":[[[5674382.8773895595,6435149.178953395],[5674392.305463595,6435137.512273492],[5674376.749890392,6435124.941508109],[5674367.321816355,6435136.6081880145],[5674382.8773895595,6435149.178953395]]]}},{"type":"Feature","properties":{},"geometry":{"type":"Polygon","coordinates":[[[5674760.500078949,6432644.287823384],[5674751.076,6432656.026],[5674772.344,6432673.279],[5674781.853876858,6432661.437815757],[5674760.500078949,6432644.287823384]]]}},{"type":"Feature","properties":{},"geometry":{"type":"Polygon","coordinates":[[[5675366.630211672,6433129.525337868],[5675373.930395068,6433120.548587278],[5675347.448442025,6433098.715086479],[5675340.08524234,6433107.645945045],[5675365.669148227,6433128.739035519],[5675366.630211672,6433129.525337868]]]}},{"type":"Feature","properties":{},"geometry":{"type":"Polygon","coordinates":[[[5674541.427816737,6435089.355372021],[5674548.976832069,6435095.546631126],[5674564.530534586,6435077.145508918],[5674556.939017953,6435070.854534546],[5674541.427816737,6435089.355372021]]]}},{"type":"Feature","properties":{},"geometry":{"type":"Polygon","coordinates":[[[5674541.427816737,6435089.355372021],[5674556.939017953,6435070.854534546],[5674549.40936362,6435064.845888758],[5674533.712751358,6435083.0879085325],[5674541.427816737,6435089.355372021]]]}},{"type":"Feature","properties":{},"geometry":{"type":"Polygon","coordinates":[[[5674549.336980139,6435064.228458282],[5674540.115230088,6435056.5499431295],[5674524.280172893,6435075.567544399],[5674533.457676498,6435083.144601418],[5674549.336980139,6435064.228458282]]]}},{"type":"Feature","properties":{},"geometry":{"type":"Polygon","coordinates":[[[5674043.793208606,6433306.69240674],[5674056.68603711,6433290.492618722],[5674049.261266612,6433284.466689279],[5674036.351,6433300.66],[5674043.793208606,6433306.69240674]]]}},{"type":"Feature","properties":{},"geometry":{"type":"Polygon","coordinates":[[[5674863.804556704,6432730.137948107],[5674873.913821419,6432717.835185792],[5674852.173,6432700.549],[5674842.16169765,6432712.80420037],[5674863.804556704,6432730.137948107]]]}},{"type":"Feature","properties":{},"geometry":{"type":"Polygon","coordinates":[[[5667429.687292692,6432262.6919043],[5667495.19748991,6432075.52597374],[5667394.046494465,6432040.879725451],[5667411.4511604905,6432256.10714587],[5667429.687292692,6432262.6919043]]]}},{"type":"Feature","properties":{},"geometry":{"type":"Polygon","coordinates":[[[5675365.669148227,6433128.739035519],[5675340.08524234,6433107.645945045],[5675333.6854945645,6433115.491803863],[5675360.309,6433135.587],[5675365.669148227,6433128.739035519]]]}},{"type":"Feature","properties":{},"geometry":{"type":"Polygon","coordinates":[[[5674609.730331377,6434771.397517251],[5674601.970612627,6434764.876297867],[5674582.274,6434789.351],[5674590.119,6434795.751],[5674609.730331377,6434771.397517251]]]}},{"type":"Feature","properties":{},"geometry":{"type":"Polygon","coordinates":[[[5674326.524627704,6433484.122118769],[5674342.386377921,6433464.7984317485],[5674330.091486448,6433454.936016655],[5674337.464690964,6433446.071448347],[5674326.920591859,6433437.445555911],[5674303.707383047,6433465.820866188],[5674326.524627704,6433484.122118769]]]}},{"type":"Feature","properties":{},"geometry":{"type":"Polygon","coordinates":[[[5674633.402217864,6435133.996227398],[5674627.286,6435141.359],[5674647.477,6435158.226],[5674653.697,6435150.855],[5674633.478,6435133.905],[5674633.402217864,6435133.996227398]],[[5674647.537511764,6435157.930899767],[5674627.872366404,6435141.562117768],[5674633.858889246,6435134.527979922],[5674653.633721773,6435150.872646201],[5674647.537511764,6435157.930899767]]]}},{"type":"Feature","properties":{},"geometry":{"type":"Polygon","coordinates":[[[5674125.347935319,6433152.888548806],[5674131.332381788,6433145.486306469],[5674097.55099409,6433118.17807733],[5674091.88799626,6433125.61691741],[5674125.347935319,6433152.888548806]]]}},{"type":"Feature","properties":{},"geometry":{"type":"Polygon","coordinates":[[[5674069.459984275,6434234.892594558],[5674106.008912726,6434191.675287079],[5674099.862716628,6434186.554101327],[5674063.293089726,6434229.796575365],[5674069.459984275,6434234.892594558]]]}},{"type":"Feature","properties":{},"geometry":{"type":"Polygon","coordinates":[[[5674918.976833691,6432755.277410543],[5674928.0083276965,6432744.120916823],[5674906.332774998,6432726.842240783],[5674897.512578805,6432737.906897991],[5674918.976833691,6432755.277410543]]]}},{"type":"Feature","properties":{},"geometry":{"type":"Polygon","coordinates":[[[5674608.648130931,6435163.866838837],[5674628.756562094,6435180.251290662],[5674634.550136761,6435173.316750314],[5674614.782999727,6435156.410999768],[5674608.648130931,6435163.866838837]]]}},{"type":"Feature","properties":{},"geometry":{"type":"Polygon","coordinates":[[[5666340.842415521,6426051.241985866],[5666350.429548044,6426007.631243981],[5666308.511077035,6425998.696962346],[5666298.553283061,6426041.945388292],[5666340.842415521,6426051.241985866]]]}},{"type":"Feature","properties":{},"geometry":{"type":"Polygon","coordinates":[[[5666741.780713362,6426139.317364913],[5666761.146670978,6426050.897670616],[5666681.505641742,6426033.923402047],[5666662.23769516,6426121.895604622],[5666741.780713362,6426139.317364913]]]}},{"type":"Feature","properties":{},"geometry":{"type":"Polygon","coordinates":[[[5675295.527107672,6434629.4128746465],[5675305.005299413,6434617.786744036],[5675294.92691687,6434609.944607507],[5675288.774344974,6434617.5522437],[5675287.356300784,6434616.465992413],[5675279.9891399825,6434625.296332624],[5675269.931304774,6434617.0835893415],[5675269.167392844,6434617.92977996],[5675279.986687594,6434626.956327328],[5675285.428361841,6434620.50483282],[5675295.527107672,6434629.4128746465]]]}},{"type":"Feature","properties":{},"geometry":{"type":"Polygon","coordinates":[[[5674775.869027403,6435070.686638368],[5674782.6212695,6435062.61991404],[5674763.588278114,6435046.658129925],[5674756.8218582645,6435054.74031584],[5674775.869027403,6435070.686638368]]]}},{"type":"Feature","properties":{},"geometry":{"type":"Polygon","coordinates":[[[5675128.528889686,6435174.737091483],[5675157.366761627,6435198.939558863],[5675161.905742444,6435193.61061402],[5675133.044574756,6435169.355243487],[5675128.528889686,6435174.737091483]]]}},{"type":"Feature","properties":{},"geometry":{"type":"Polygon","coordinates":[[[5673782.869140548,6433640.019964882],[5673797.821921392,6433621.375278105],[5673785.447355656,6433611.408011842],[5673770.455380564,6433630.020856769],[5673782.869140548,6433640.019964882]]]}},{"type":"Feature","properties":{},"geometry":{"type":"Polygon","coordinates":[[[5674384.9315,6433824.9315],[5674375.128,6433816.908],[5674347.838886865,6433849.814547868],[5674357.617275773,6433857.907109781],[5674384.9315,6433824.9315]],[[5674349.471593125,6433848.311084688],[5674375.047043921,6433817.137768944],[5674384.566896757,6433825.070541141],[5674357.581775444,6433857.708011129],[5674349.471593125,6433848.311084688]]]}},{"type":"Feature","properties":{},"geometry":{"type":"Polygon","coordinates":[[[5674529.07582717,6434588.5346224625],[5674538.138323429,6434577.985418051],[5674516.9769933475,6434560.466211497],[5674508.016650831,6434571.312870048],[5674529.07582717,6434588.5346224625]],[[5674520.3564356025,6434580.709868879],[5674508.374358994,6434571.113628247],[5674513.944425262,6434564.577303214],[5674520.867639952,6434570.124810064],[5674519.929676493,6434571.295375974],[5674523.925208131,6434574.496957916],[5674521.348935162,6434577.712112281],[5674522.207350162,6434578.399952151],[5674520.3564356025,6434580.709868879]]]}},{"type":"Feature","properties":{},"geometry":{"type":"Polygon","coordinates":[[[5675095.083969065,6434543.031284644],[5675091.74519415,6434540.23676804],[5675078.524555167,6434571.035253872],[5675054.451932474,6434549.9518756615],[5675060.449783533,6434542.770911274],[5675047.045,6434531.887],[5675033.860155018,6434547.81439672],[5675081.778004512,6434589.028875647],[5675082.7879953375,6434587.789118526],[5675095.083969065,6434543.031284644]]]}},{"type":"Feature","properties":{},"geometry":{"type":"Polygon","coordinates":[[[5674558.810633387,6433944.22312683],[5674566.827268611,6433934.407908361],[5674543.516542269,6433915.523787058],[5674538.432,6433921.691],[5674539.413,6433928.38],[5674558.810633387,6433944.22312683]]]}},{"type":"Feature","properties":{},"geometry":{"type":"Polygon","coordinates":[[[5674167.395592316,6434411.031841305],[5674174.0639017355,6434402.824614531],[5674157.671995282,6434389.054947535],[5674150.979307759,6434397.099466361],[5674167.395592316,6434411.031841305]]]}},{"type":"Feature","properties":{},"geometry":{"type":"Polygon","coordinates":[[[5675000.391,6433855.444],[5675009.252770526,6433844.604626221],[5674988.733,6433827.928],[5674979.759,6433838.814],[5675000.391,6433855.444]],[[5674980.349488176,6433838.629711868],[5674988.79600088,6433828.145302297],[5675009.032317427,6433844.549707075],[5675000.452210379,6433855.056635734],[5674980.349488176,6433838.629711868]]]}},{"type":"Feature","properties":{},"geometry":{"type":"Polygon","coordinates":[[[5674634.706,6435173.365],[5674614.782999727,6435156.410999768],[5674634.550136761,6435173.316750314],[5674628.756562094,6435180.251290662],[5674608.648130931,6435163.866838837],[5674628.744,6435180.432],[5674634.706,6435173.365]]]}},{"type":"Feature","properties":{},"geometry":{"type":"Polygon","coordinates":[[[5675563.4260579245,6432414.195709253],[5675549.77704999,6432403.533247217],[5675523.055809956,6432437.603580119],[5675536.683646262,6432448.292984276],[5675549.843851361,6432431.5133782895],[5675563.4260579245,6432414.195709253]]]}},{"type":"Feature","properties":{},"geometry":{"type":"Polygon","coordinates":[[[5674689.808,6432605.971],[5674699.050261556,6432594.493370409],[5674677.934631449,6432577.35447114],[5674668.4845311865,6432588.588259683],[5674689.808,6432605.971]],[[5674689.808,6432605.53900172],[5674669.008189114,6432588.918050809],[5674677.934631449,6432578.052112987],[5674698.988122974,6432594.5022875415],[5674689.808,6432605.53900172]]]}},{"type":"Feature","properties":{},"geometry":{"type":"Polygon","coordinates":[[[5674785.378878943,6434657.082724116],[5674774.954654222,6434648.494737871],[5674773.66157588,6434650.167966606],[5674779.070034486,6434654.677209388],[5674777.063665096,6434657.0807081275],[5674778.1219367,6434657.97694011],[5674778.63714779,6434657.35156923],[5674782.523763164,6434660.553352421],[5674785.378878943,6434657.082724116]]]}},{"type":"Feature","properties":{},"geometry":{"type":"Polygon","coordinates":[[[5673870.823509008,6433248.116023786],[5673884.1333049955,6433231.872584164],[5673876.6110651195,6433225.776029984],[5673863.368,6433242.116],[5673870.823509008,6433248.116023786]]]}},{"type":"Feature","properties":{},"geometry":{"type":"Polygon","coordinates":[[[5673837.076272033,6433298.608306747],[5673843.817044867,6433290.2423765855],[5673830.851231886,6433279.413562024],[5673823.932675147,6433287.92703612],[5673837.076272033,6433298.608306747]]]}},{"type":"Feature","properties":{},"geometry":{"type":"Polygon","coordinates":[[[5674314.882441167,6432935.967470993],[5674297.39887286,6432957.96126153],[5674305.18,6432964.259],[5674322.464741682,6432942.422915224],[5674305.141643681,6432964.075527451],[5674297.763260396,6432957.962236417],[5674314.882441167,6432935.967470993]]]}},{"type":"Feature","properties":{},"geometry":{"type":"Polygon","coordinates":[[[5674293.9385890085,6434194.854553271],[5674307.889,6434178.233],[5674295.400587324,6434167.91410719],[5674281.802,6434184.528],[5674293.9385890085,6434194.854553271]]]}},{"type":"Feature","properties":{},"geometry":{"type":"Polygon","coordinates":[[[5673905.058245706,6434072.977192213],[5673918.939885947,6434055.922004602],[5673897.453022913,6434037.872178703],[5673883.528967855,6434054.980407601],[5673905.058245706,6434072.977192213]]]}},{"type":"Feature","properties":{},"geometry":{"type":"Polygon","coordinates":[[[5673836.289111386,6433989.078275446],[5673814.436259222,6433970.923910893],[5673787.051,6434004.464],[5673808.665020737,6434021.9793220805],[5673836.289111386,6433989.078275446]]]}},{"type":"Feature","properties":{},"geometry":{"type":"Polygon","coordinates":[[[5673834.548194359,6433976.356488528],[5673819.933474503,6433964.215238035],[5673814.436259222,6433970.923910893],[5673836.289111386,6433989.078275446],[5673841.878633687,6433982.44628004],[5673834.548194359,6433976.356488528]]]}},{"type":"Feature","properties":{},"geometry":{"type":"Polygon","coordinates":[[[5673839.936706876,6433969.782758015],[5673825.321987021,6433957.641507522],[5673819.933474503,6433964.215238035],[5673834.548194359,6433976.356488528],[5673839.936706876,6433969.782758015]]]}},{"type":"Feature","properties":{},"geometry":{"type":"Polygon","coordinates":[[[5673839.936706876,6433969.782758015],[5673845.3265895415,6433963.2101508565],[5673845.135373914,6433963.048922082],[5673838.446274073,6433957.408821539],[5673830.710499538,6433951.06777701],[5673825.321987021,6433957.641507522],[5673839.936706876,6433969.782758015]]]}},{"type":"Feature","properties":{},"geometry":{"type":"Polygon","coordinates":[[[5673830.710499538,6433951.06777701],[5673838.446274073,6433957.408821539],[5673849.72847901,6433943.64103843],[5673841.996,6433937.3],[5673830.710499538,6433951.06777701]]]}},{"type":"Feature","properties":{},"geometry":{"type":"Polygon","coordinates":[[[5673856.687710119,6433949.347973016],[5673849.72847901,6433943.64103843],[5673838.446274073,6433957.408821539],[5673845.135373914,6433963.048922082],[5673856.687710119,6433949.347973016]]]}},{"type":"Feature","properties":{},"geometry":{"type":"Polygon","coordinates":[[[5673845.3265895415,6433963.2101508565],[5673852.573430374,6433969.318634167],[5673864.108065276,6433955.434112319],[5673856.687710119,6433949.347973016],[5673845.135373914,6433963.048922082],[5673845.3265895415,6433963.2101508565]]]}},{"type":"Feature","properties":{},"geometry":{"type":"Polygon","coordinates":[[[5675082.163407257,6432820.923603965],[5675083.095,6432821.68],[5675116.988433555,6432779.647603197],[5675107.672506124,6432772.0836428525],[5675090.967984499,6432792.799486827],[5675099.4470566455,6432799.636709785],[5675082.163407257,6432820.923603965]]]}},{"type":"Feature","properties":{},"geometry":{"type":"Polygon","coordinates":[[[5666553.668853858,6426050.94859678],[5666562.965680893,6426008.658420532],[5666520.615141214,6425999.632050062],[5666511.378446455,6426041.652578992],[5666553.668853858,6426050.94859678]]]}},{"type":"Feature","properties":{},"geometry":{"type":"Polygon","coordinates":[[[5671739.187639114,6433870.282133849],[5671851.103897913,6433557.865667275],[5671612.433,6433477.808],[5671504.139461455,6433780.392887114],[5671739.187639114,6433870.282133849]]]}},{"type":"Feature","properties":{},"geometry":{"type":"Polygon","coordinates":[[[5674601.229628064,6434219.490510025],[5674580.402493681,6434202.568403362],[5674573.542420505,6434211.1137216715],[5674593.99269099,6434228.22637788],[5674601.229628064,6434219.490510025]]]}},{"type":"Feature","properties":{},"geometry":{"type":"Polygon","coordinates":[[[5675305.482614652,6434262.731803425],[5675306.826393414,6434261.1083037015],[5675284.3869963335,6434242.477997082],[5675282.937134935,6434244.263466783],[5675305.482614652,6434262.731803425]]]}},{"type":"Feature","properties":{},"geometry":{"type":"Polygon","coordinates":[[[5675534.27827158,6433969.916934327],[5675539.625014328,6433963.2510082135],[5675534.647695789,6433959.213752235],[5675534.053002152,6433959.951997331],[5675522.259,6433950.36],[5675518.872,6433954.566],[5675519.147,6433957.519],[5675534.27827158,6433969.916934327]]]}},{"type":"Feature","properties":{},"geometry":{"type":"Polygon","coordinates":[[[5674151.810614789,6434301.448922604],[5674163.732,6434286.989],[5674148.438113419,6434274.399520191],[5674136.313397996,6434288.806285551],[5674151.810614789,6434301.448922604]]]}},{"type":"Feature","properties":{},"geometry":{"type":"Polygon","coordinates":[[[5674689.808,6432605.53900172],[5674698.988122974,6432594.5022875415],[5674677.934631449,6432578.052112987],[5674669.008189114,6432588.918050809],[5674689.808,6432605.53900172]]]}},{"type":"Feature","properties":{},"geometry":{"type":"Polygon","coordinates":[[[5674478.404738469,6433170.949517205],[5674491.897965108,6433181.808290396],[5674507.920868067,6433161.6336471755],[5674494.411690886,6433150.77930528],[5674478.404738469,6433170.949517205]]]}},{"type":"Feature","properties":{},"geometry":{"type":"Polygon","coordinates":[[[5666588.988741171,6425890.28257019],[5666607.58277599,6425805.700485711],[5666522.883431025,6425787.648114429],[5666504.289396205,6425872.23019891],[5666588.988741171,6425890.28257019]]]}},{"type":"Feature","properties":{},"geometry":{"type":"Polygon","coordinates":[[[5675563.4260579245,6432414.195709253],[5675549.843851361,6432431.5133782895],[5675577.352647474,6432452.5400415715],[5675590.676854096,6432435.483745792],[5675563.4260579245,6432414.195709253]]]}},{"type":"Feature","properties":{},"geometry":{"type":"Polygon","coordinates":[[[5675549.77704999,6432403.533247217],[5675522.31568588,6432381.995397729],[5675495.554997684,6432416.120233561],[5675523.055809956,6432437.603580119],[5675549.77704999,6432403.533247217]]]}},{"type":"Feature","properties":{},"geometry":{"type":"Polygon","coordinates":[[[5674870.092589738,6435011.91709827],[5674888.549,6435026.882],[5674894.553,6435019.486],[5674876.167279282,6435004.505131],[5674870.092589738,6435011.91709827]]]}},{"type":"Feature","properties":{},"geometry":{"type":"Polygon","coordinates":[[[5666668.299846527,6426013.420214002],[5666686.893881347,6425928.8381295195],[5666602.194536383,6425910.785758238],[5666583.600501564,6425995.367842722],[5666668.299846527,6426013.420214002]]]}},{"type":"Feature","properties":{},"geometry":{"type":"Polygon","coordinates":[[[5666566.680193622,6425991.761537603],[5666585.274228441,6425907.1794531215],[5666500.574883477,6425889.127081838],[5666481.980848658,6425973.709166321],[5666566.680193622,6425991.761537603]]]}},{"type":"Feature","properties":{},"geometry":{"type":"Polygon","coordinates":[[[5674909.859,6434175.779],[5674936.95,6434142.135],[5674890.156541222,6434104.033839851],[5674863.155091455,6434137.538281625],[5674909.859,6434175.779]]]}},{"type":"Feature","properties":{},"geometry":{"type":"Polygon","coordinates":[[[5675731.620654322,6434094.42555367],[5675748.751004533,6434073.053994345],[5675717.1797657,6434046.916248091],[5675713.856027615,6434047.326602589],[5675697.750626493,6434066.846629996],[5675731.620654322,6434094.42555367]]]}},{"type":"Feature","properties":{},"geometry":{"type":"Polygon","coordinates":[[[5674495.124442275,6434682.5824494],[5674472.720249006,6434663.832513946],[5674465.170716089,6434673.176568334],[5674487.948705863,6434691.501952433],[5674495.124442275,6434682.5824494]]]}},{"type":"Feature","properties":{},"geometry":{"type":"Polygon","coordinates":[[[5674346.162008739,6434209.4679324785],[5674341.859985766,6434214.77284978],[5674347.097997398,6434219.056071738],[5674351.529835297,6434213.745085921],[5674346.162008739,6434209.4679324785]]]}},{"type":"Feature","properties":{},"geometry":{"type":"Polygon","coordinates":[[[5674248.421207272,6434183.854310832],[5674274.639838594,6434151.042980905],[5674265.265172901,6434143.551943384],[5674239.046541579,6434176.363273311],[5674248.421207272,6434183.854310832]]]}},{"type":"Feature","properties":{},"geometry":{"type":"Polygon","coordinates":[[[5674520.3564356025,6434580.709868879],[5674522.207350162,6434578.399952151],[5674521.348935162,6434577.712112281],[5674523.925208131,6434574.496957916],[5674519.929676493,6434571.295375974],[5674520.867639952,6434570.124810064],[5674513.944425262,6434564.577303214],[5674508.374358994,6434571.113628247],[5674520.3564356025,6434580.709868879]]]}},{"type":"Feature","properties":{},"geometry":{"type":"Polygon","coordinates":[[[5673931.840287344,6433214.6252413],[5673945.257,6433198.47],[5673937.820899065,6433192.445939668],[5673924.603165201,6433208.762635617],[5673931.840287344,6433214.6252413]]]}},{"type":"Feature","properties":{},"geometry":{"type":"Polygon","coordinates":[[[5676035.75304629,6433957.0818823455],[5676056.554246281,6433932.151883491],[5676023.912972171,6433904.623039992],[5676002.980511152,6433929.447925287],[5676035.75304629,6433957.0818823455]]]}},{"type":"Feature","properties":{},"geometry":{"type":"Polygon","coordinates":[[[5674608.253934585,6435302.249684821],[5674634.914443175,6435269.68216086],[5674628.7954707015,6435264.5286983475],[5674602.064565586,6435297.182927962],[5674608.253934585,6435302.249684821]]]}},{"type":"Feature","properties":{},"geometry":{"type":"Polygon","coordinates":[[[5674440.180744289,6433442.203226121],[5674462.62,6433414.894],[5674450.905,6433406.019],[5674429.276,6433433.243],[5674440.180744289,6433442.203226121]]]}},{"type":"Feature","properties":{},"geometry":{"type":"Polygon","coordinates":[[[5674603.7882541,6435009.053198111],[5674622.772971812,6434985.824326096],[5674606.778009557,6434973.125376939],[5674588.293476742,6434996.407571412],[5674603.7882541,6435009.053198111]]]}},{"type":"Feature","properties":{},"geometry":{"type":"Polygon","coordinates":[[[5675519.07,6433093.138],[5675541.00323769,6433110.667566571],[5675547.661,6433102.445],[5675526.161947927,6433084.807233337],[5675519.07,6433093.138]]]}},{"type":"Feature","properties":{},"geometry":{"type":"Polygon","coordinates":[[[5674650.484,6434088.497],[5674672.158,6434062.013],[5674672.011,6434059.297],[5674658.373,6434047.714],[5674635.339,6434075.754],[5674650.484,6434088.497]]]}},{"type":"Feature","properties":{},"geometry":{"type":"Polygon","coordinates":[[[5674713.760000007,6435238.760000009],[5674720.5120308325,6435230.751591892],[5674698.251000103,6435213.2810000805],[5674691.684919438,6435221.253883778],[5674713.760000007,6435238.760000009]]]}},{"type":"Feature","properties":{},"geometry":{"type":"Polygon","coordinates":[[[5675577.352647474,6432452.5400415715],[5675549.843851361,6432431.5133782895],[5675536.683646262,6432448.292984276],[5675563.991228149,6432469.575151598],[5675577.352647474,6432452.5400415715]]]}},{"type":"Feature","properties":{},"geometry":{"type":"Polygon","coordinates":[[[5674762.778133408,6432607.9703009045],[5674771.991,6432596.354],[5674750.502,6432579.53],[5674741.525424976,6432590.863191461],[5674762.778133408,6432607.9703009045]]]}},{"type":"Feature","properties":{},"geometry":{"type":"Polygon","coordinates":[[[5673948.238374741,6432088.253401886],[5673954.521747101,6432080.091953985],[5673944.679178772,6432065.361305578],[5673936.558689705,6432071.197199453],[5673948.238374741,6432088.253401886]]]}},{"type":"Feature","properties":{},"geometry":{"type":"Polygon","coordinates":[[[5673883.329,6433350.577],[5673890.047,6433342.414],[5673875.117,6433329.752],[5673868.460902076,6433338.043121978],[5673883.329,6433350.577]]]}},{"type":"Feature","properties":{},"geometry":{"type":"Polygon","coordinates":[[[5675477.640598811,6433005.137581532],[5675532.317158537,6432937.957317287],[5675500.786809202,6432912.581033832],[5675446.58408721,6432979.92859331],[5675477.640598811,6433005.137581532]]]}},{"type":"Feature","properties":{},"geometry":{"type":"Polygon","coordinates":[[[5675644.992601265,6433206.182411242],[5675662.724288821,6433183.538982694],[5675654.601,6433176.886],[5675636.566761152,6433199.366183032],[5675644.992601265,6433206.182411242]]]}},{"type":"Feature","properties":{},"geometry":{"type":"Polygon","coordinates":[[[5666399.931460855,6426064.231778837],[5666409.325955732,6426021.963073321],[5666367.0357794855,6426012.666246286],[5666357.73895245,6426054.956422535],[5666399.931460855,6426064.231778837]]]}},{"type":"Feature","properties":{},"geometry":{"type":"Polygon","coordinates":[[[5674216.283,6433996.887],[5674230.807,6433978.936],[5674223.085,6433972.631],[5674208.541,6433990.483],[5674216.283,6433996.887]]]}},{"type":"Feature","properties":{},"geometry":{"type":"Polygon","coordinates":[[[5675410.979118557,6433088.300205071],[5675464.086,6433020.688],[5675431.602845364,6432994.747499532],[5675378.949496037,6433061.801797878],[5675410.979118557,6433088.300205071]]]}},{"type":"Feature","properties":{},"geometry":{"type":"Polygon","coordinates":[[[5675446.2775846,6434312.0502562225],[5675448.6408062475,6434309.138610048],[5675449.005508005,6434309.435590884],[5675459.844,6434296.188],[5675451.681,6434289.563],[5675438.368238693,6434305.609584882],[5675446.2775846,6434312.0502562225]]]}},{"type":"Feature","properties":{},"geometry":{"type":"Polygon","coordinates":[[[5675023.5730000865,6433703.139000108],[5675020.541411955,6433700.656574421],[5675019.964409455,6433701.360944096],[5675018.1983353235,6433699.90317794],[5675015.702289569,6433702.951678488],[5675020.537771708,6433706.816159369],[5675023.5730000865,6433703.139000108]]]}},{"type":"Feature","properties":{},"geometry":{"type":"Polygon","coordinates":[[[5674707.408,6434752.945],[5674711.174590385,6434748.338993392],[5674678.681709822,6434721.600677677],[5674674.658309799,6434726.489985509],[5674707.408,6434752.945]]]}},{"type":"Feature","properties":{},"geometry":{"type":"Polygon","coordinates":[[[5673924.501640875,6431949.8462544335],[5673936.395508006,6431939.449748199],[5673895.2252116455,6431880.428304712],[5673819.424213009,6431851.117689065],[5673874.013431775,6431939.804296903],[5673906.86180741,6431916.13257761],[5673924.501640875,6431949.8462544335]]]}},{"type":"Feature","properties":{},"geometry":{"type":"Polygon","coordinates":[[[5674696.506990752,6432690.826992446],[5674682.931,6432679.738],[5674672.772,6432691.623],[5674686.581,6432702.898],[5674696.506990752,6432690.826992446]]]}},{"type":"Feature","properties":{},"geometry":{"type":"Polygon","coordinates":[[[5675506.908,6433068.9],[5675500.144,6433077.427],[5675519.07,6433093.138],[5675526.161947927,6433084.807233337],[5675506.908,6433068.9]]]}},{"type":"Feature","properties":{},"geometry":{"type":"Polygon","coordinates":[[[5675445.013908334,6432785.6734966505],[5675456.246722216,6432772.046336554],[5675434.112175323,6432753.718577584],[5675422.903463497,6432767.328439303],[5675445.013908334,6432785.6734966505]]]}},{"type":"Feature","properties":{},"geometry":{"type":"Polygon","coordinates":[[[5674315.502068135,6432936.357054356],[5674341.228,6432957.501],[5674349.184849969,6432947.472885831],[5674323.219533556,6432926.970978776],[5674315.502068135,6432936.357054356]]]}},{"type":"Feature","properties":{},"geometry":{"type":"Polygon","coordinates":[[[5674359.045168627,6432836.950937799],[5674376.659780398,6432815.185702855],[5674356.968,6432799.301],[5674339.3583217105,6432821.070226687],[5674359.045168627,6432836.950937799]]]}},{"type":"Feature","properties":{},"geometry":{"type":"Polygon","coordinates":[[[5674769.620593742,6432831.140484664],[5674775.51218748,6432823.81396933],[5674761.18696985,6432811.86298693],[5674755.27798492,6432819.17499347],[5674769.620593742,6432831.140484664]],[[5674769.690620867,6432830.918433753],[5674755.549380337,6432819.144413805],[5674761.185376867,6432812.071958714],[5674775.401256718,6432823.80288898],[5674769.690620867,6432830.918433753]]]}},{"type":"Feature","properties":{},"geometry":{"type":"Polygon","coordinates":[[[5674362.887040258,6432245.408827717],[5674481.703747017,6432089.60422639],[5674331.126973699,6431971.757294156],[5674244.497216923,6432085.216084833],[5674270.016662672,6432104.572706146],[5674236.979157628,6432146.729518887],[5674362.887040258,6432245.408827717]]]}},{"type":"Feature","properties":{},"geometry":{"type":"Polygon","coordinates":[[[5674982.202,6433287.359],[5675001.161,6433264.558],[5674990.991,6433256.306],[5674972.128,6433279.013],[5674982.202,6433287.359]]]}},{"type":"Feature","properties":{},"geometry":{"type":"Polygon","coordinates":[[[5674359.909900443,6434184.903454941],[5674366.123902999,6434177.134321081],[5674359.774605898,6434171.788919578],[5674353.4003497865,6434179.574475845],[5674359.909900443,6434184.903454941]]]}},{"type":"Feature","properties":{},"geometry":{"type":"Polygon","coordinates":[[[5675044.811028783,6434671.05255275],[5675033.725112625,6434662.032082053],[5675031.203917991,6434665.134147195],[5675031.132611536,6434665.221882298],[5675032.39869045,6434666.250884339],[5675035.152878923,6434663.204149248],[5675044.811028783,6434671.05255275]]]}},{"type":"Feature","properties":{},"geometry":{"type":"Polygon","coordinates":[[[5675099.139,6433440.249],[5675104.650289062,6433433.664050298],[5675087.214666986,6433419.071110732],[5675081.824469038,6433425.797933898],[5675099.139,6433440.249]]]}},{"type":"Feature","properties":{},"geometry":{"type":"Polygon","coordinates":[[[5675532.659925109,6434683.271938247],[5675560.176880139,6434649.194714389],[5675544.675012927,6434636.557779913],[5675537.114171299,6434645.871986524],[5675531.711039266,6434641.471540132],[5675511.680555689,6434666.280563616],[5675532.659925109,6434683.271938247]]]}},{"type":"Feature","properties":{},"geometry":{"type":"Polygon","coordinates":[[[5675709.878437176,6434476.643269523],[5675737.349,6434442.564],[5675732.007085246,6434438.506662114],[5675712.027577832,6434462.691289121],[5675714.320464776,6434464.515451796],[5675712.27769913,6434467.004529641],[5675711.811948385,6434466.626618894],[5675706.274288435,6434473.685965921],[5675709.878437176,6434476.643269523]]]}},{"type":"Feature","properties":{},"geometry":{"type":"Polygon","coordinates":[[[5674549.750372218,6435229.252042671],[5674562.2542635845,6435213.512133814],[5674554.989755348,6435207.746166448],[5674542.273018379,6435223.311981584],[5674549.750372218,6435229.252042671]]]}},{"type":"Feature","properties":{},"geometry":{"type":"Polygon","coordinates":[[[5674340.880372736,6434169.129496963],[5674353.384727661,6434178.939434107],[5674359.657699505,6434171.312418832],[5674347.163099969,6434161.203049201],[5674340.880372736,6434169.129496963]]]}},{"type":"Feature","properties":{},"geometry":{"type":"Polygon","coordinates":[[[5668794.717487738,6425403.42229862],[5668771.780309397,6425338.437707005],[5669367.24554917,6425361.95148982],[5669281.422,6425139.048],[5668449.895680371,6425075.393757989],[5668600.702505893,6425507.572939264],[5668833.389545846,6425512.986250462],[5668794.717487738,6425403.42229862]]]}},{"type":"Feature","properties":{},"geometry":{"type":"Polygon","coordinates":[[[5674284.545207896,6434117.498034197],[5674294.349628871,6434105.494801597],[5674271.288972325,6434086.305932309],[5674261.483470448,6434098.310296115],[5674284.545207896,6434117.498034197]]]}},{"type":"Feature","properties":{},"geometry":{"type":"Polygon","coordinates":[[[5674527.83,6434470.524],[5674533.435,6434470.213],[5674557.977298771,6434439.928631326],[5674516.86,6434406.736],[5674492.25,6434436.453],[5674492.868,6434442.308],[5674527.83,6434470.524]]]}},{"type":"Feature","properties":{},"geometry":{"type":"Polygon","coordinates":[[[5666719.514083713,6426240.867939542],[5666738.052783893,6426156.275506302],[5666658.455184062,6426138.777231677],[5666639.861529993,6426223.357584171],[5666719.514083713,6426240.867939542]]]}},{"type":"Feature","properties":{},"geometry":{"type":"Polygon","coordinates":[[[5666512.409345856,6433087.848312123],[5666505.638299809,6433106.3941905815],[5666502.209216113,6433115.786442386],[5666474.487165784,6433105.329202387],[5666475.721379383,6433116.122001446],[5666537.64865473,6433139.891326708],[5666550.93384251,6433102.16197758],[5666512.409345856,6433087.848312123]]]}},{"type":"Feature","properties":{},"geometry":{"type":"Polygon","coordinates":[[[5674477.423142181,6434704.71817754],[5674454.516,6434686.4],[5674476.970561189,6434705.2841365235],[5674477.423142181,6434704.71817754]]]}},{"type":"Feature","properties":{},"geometry":{"type":"Polygon","coordinates":[[[5673767.292342359,6433108.048266601],[5673773.175806124,6433112.827519064],[5673799.59607969,6433080.30303466],[5673793.71063764,6433075.52621755],[5673767.292342359,6433108.048266601]]]}},{"type":"Feature","properties":{},"geometry":{"type":"Polygon","coordinates":[[[5674498.591932907,6434273.378946663],[5674504.077403054,6434266.677811142],[5674474.101000035,6434243.619999956],[5674468.99,6434249.846],[5674498.591932907,6434273.378946663]]]}},{"type":"Feature","properties":{},"geometry":{"type":"Polygon","coordinates":[[[5675200.780191453,6434511.153587491],[5675188.27695545,6434526.104480087],[5675199.503252539,6434535.122808875],[5675200.809762891,6434533.608533239],[5675211.947617971,6434542.555814636],[5675222.479621659,6434529.875760351],[5675200.780191453,6434511.153587491]]]}},{"type":"Feature","properties":{},"geometry":{"type":"Polygon","coordinates":[[[5675721.066729832,6434639.570721883],[5675732.857251527,6434624.8899123985],[5675731.932945657,6434624.140406789],[5675732.378079955,6434623.613195111],[5675728.879021933,6434620.704780277],[5675716.4089848185,6434635.709645429],[5675721.066729832,6434639.570721883]]]}},{"type":"Feature","properties":{},"geometry":{"type":"Polygon","coordinates":[[[5668897.393821453,6429690.192184026],[5668979.836827786,6429457.739091325],[5668468.79250869,6429278.848604099],[5668389.099,6429512.77],[5668897.393821453,6429690.192184026]]]}},{"type":"Feature","properties":{},"geometry":{"type":"Polygon","coordinates":[[[5675486.7473889515,6432533.405312083],[5675507.894888776,6432506.020220325],[5675490.70495214,6432492.6132788975],[5675469.557452314,6432519.998370658],[5675486.7473889515,6432533.405312083]]]}},{"type":"Feature","properties":{},"geometry":{"type":"Polygon","coordinates":[[[5675503.285334294,6433012.01809577],[5675517.662230188,6433023.675168577],[5675524.909000456,6433014.86197275],[5675510.586100876,6433003.11578821],[5675503.285334294,6433012.01809577]]]}},{"type":"Feature","properties":{},"geometry":{"type":"Polygon","coordinates":[[[5674787.69,6435094.163],[5674813.790815227,6435061.937104441],[5674804.925718045,6435054.409358965],[5674778.741530282,6435086.734555364],[5674787.69,6435094.163]]]}},{"type":"Feature","properties":{},"geometry":{"type":"Polygon","coordinates":[[[5675551.082999766,6433983.718999808],[5675571.022,6433959.447],[5675561.63051063,6433952.010544302],[5675559.18424428,6433954.991466568],[5675559.956100444,6433955.627263754],[5675542.976,6433977.068],[5675551.082999766,6433983.718999808]]]}},{"type":"Feature","properties":{},"geometry":{"type":"Polygon","coordinates":[[[5674682.102,6433779.225],[5674703.079655887,6433753.771923461],[5674712.322782592,6433761.389828945],[5674717.483998659,6433754.830001782],[5674693.578,6433735.009],[5674688.334953414,6433741.49729502],[5674701.058,6433751.443],[5674694.080829161,6433759.914714591],[5674688.738714613,6433755.31134787],[5674674.175,6433773.123],[5674682.102,6433779.225]]]}},{"type":"Feature","properties":{},"geometry":{"type":"Polygon","coordinates":[[[5675168.728246266,6433345.69395681],[5675173.24599994,6433339.9589999085],[5675160.102999937,6433329.138999948],[5675155.558999908,6433334.808000122],[5675168.728246266,6433345.69395681]]]}},{"type":"Feature","properties":{},"geometry":{"type":"Polygon","coordinates":[[[5675033.725112625,6434662.032082053],[5675044.811028783,6434671.05255275],[5675058.676022573,6434653.968081926],[5675047.66175975,6434644.884501829],[5675033.725112625,6434662.032082053]]]}},{"type":"Feature","properties":{},"geometry":{"type":"Polygon","coordinates":[[[5673837.302,6433298.991],[5673844.62,6433289.986],[5673830.564,6433278.66],[5673823.11,6433287.585],[5673837.302,6433298.991]],[[5673837.076272033,6433298.608306747],[5673823.932675147,6433287.92703612],[5673830.851231886,6433279.413562024],[5673843.817044867,6433290.2423765855],[5673837.076272033,6433298.608306747]]]}},{"type":"Feature","properties":{},"geometry":{"type":"Polygon","coordinates":[[[5675240.950193918,6433144.103579044],[5675247.588657968,6433136.328514517],[5675208.705,6433105.059],[5675202.319606922,6433112.993488265],[5675240.950193918,6433144.103579044]]]}},{"type":"Feature","properties":{},"geometry":{"type":"Polygon","coordinates":[[[5675856.516,6434138.753],[5675871.585,6434119.473],[5675865.378,6434114.474],[5675849.984283346,6434133.456018893],[5675856.516,6434138.753]]]}},{"type":"Feature","properties":{},"geometry":{"type":"Polygon","coordinates":[[[5675090.967984499,6432792.799486827],[5675073.779072569,6432814.116039655],[5675082.163407257,6432820.923603965],[5675099.4470566455,6432799.636709785],[5675090.967984499,6432792.799486827]]]}},{"type":"Feature","properties":{},"geometry":{"type":"Polygon","coordinates":[[[5676115.110831953,6433543.015874343],[5676175.59418802,6433468.466012575],[5676101.964937534,6433408.729561448],[5676041.259009779,6433483.098847661],[5676115.110831953,6433543.015874343]]]}},{"type":"Feature","properties":{},"geometry":{"type":"Polygon","coordinates":[[[5668794.717487738,6425403.42229862],[5669389.6998811,6425420.27040733],[5669367.24554917,6425361.95148982],[5668771.780309397,6425338.437707005],[5668794.717487738,6425403.42229862]]]}},{"type":"Feature","properties":{},"geometry":{"type":"Polygon","coordinates":[[[5675163.547091975,6433262.040489748],[5675180.263,6433275.673],[5675187.321959527,6433266.980491254],[5675171.065519801,6433253.46650711],[5675163.547091975,6433262.040489748]]]}},{"type":"Feature","properties":{},"geometry":{"type":"Polygon","coordinates":[[[5675502.156092463,6434523.021091336],[5675522.8177278545,6434497.5722618075],[5675515.59930433,6434491.587087511],[5675494.417671743,6434517.798314941],[5675501.58613898,6434523.723099954],[5675502.156092463,6434523.021091336]]]}},{"type":"Feature","properties":{},"geometry":{"type":"Polygon","coordinates":[[[5674809.562892575,6435038.457177258],[5674819.000733904,6435027.200928914],[5674796,6435007.915],[5674786.574247436,6435019.182266243],[5674809.562892575,6435038.457177258]]]}},{"type":"Feature","properties":{},"geometry":{"type":"Polygon","coordinates":[[[5667358.03097721,6430825.15177988],[5667449.467,6430554.872],[5667381.061,6430367.962],[5667360.187205747,6430360.945735677],[5667210.186725261,6430771.431067177],[5667358.03097721,6430825.15177988]]]}},{"type":"Feature","properties":{},"geometry":{"type":"Polygon","coordinates":[[[5674359.739068525,6434171.312025648],[5674347.151424376,6434161.159403046],[5674340.851535442,6434169.129496963],[5674353.405696826,6434179.171139815],[5674359.739068525,6434171.312025648]],[[5674340.880372736,6434169.129496963],[5674347.163099969,6434161.203049201],[5674359.657699505,6434171.312418832],[5674353.384727661,6434178.939434107],[5674340.880372736,6434169.129496963]]]}},{"type":"Feature","properties":{},"geometry":{"type":"Polygon","coordinates":[[[5666522.660710651,6432941.692746498],[5666535.936843037,6432903.960210022],[5666498.618346257,6432889.561258736],[5666485.342213872,6432927.293795213],[5666522.660710651,6432941.692746498]]]}},{"type":"Feature","properties":{},"geometry":{"type":"Polygon","coordinates":[[[5674577.946141886,6433637.277662925],[5674579.82321693,6433634.98895384],[5674575.150881768,6433631.177688752],[5674573.522941121,6433633.075005081],[5674577.946141886,6433637.277662925]]]}},{"type":"Feature","properties":{},"geometry":{"type":"Polygon","coordinates":[[[5675163.547091975,6433262.040489748],[5675171.065519801,6433253.46650711],[5675187.321959527,6433266.980491254],[5675188.482,6433265.552],[5675155.623,6433238.73],[5675147.562981129,6433248.9370238995],[5675163.547091975,6433262.040489748]]]}},{"type":"Feature","properties":{},"geometry":{"type":"Polygon","coordinates":[[[5674663.404714822,6432731.083562952],[5674668.485664592,6432724.904240033],[5674653.091470617,6432712.136358773],[5674647.9096206585,6432718.231310045],[5674663.404714822,6432731.083562952]]]}},{"type":"Feature","properties":{},"geometry":{"type":"Polygon","coordinates":[[[5675232.81859594,6434277.667476553],[5675243.654,6434264.374],[5675221.8303734325,6434246.168898422],[5675211.09358976,6434259.542154455],[5675232.81859594,6434277.667476553]]]}},{"type":"Feature","properties":{},"geometry":{"type":"Polygon","coordinates":[[[5674937.247,6434803.025],[5674951.0502513535,6434785.637928595],[5674944.475843371,6434780.602105734],[5674930.184543867,6434797.368156798],[5674937.247,6434803.025]]]}},{"type":"Feature","properties":{},"geometry":{"type":"Polygon","coordinates":[[[5673863.966656168,6434125.430374713],[5673880.39248485,6434105.560786088],[5673874.000188264,6434100.095747721],[5673865.7003487395,6434110.135691531],[5673849.099379794,6434096.411971478],[5673840.852324651,6434106.4611546025],[5673863.966656168,6434125.430374713]]]}},{"type":"Feature","properties":{},"geometry":{"type":"Polygon","coordinates":[[[5675295.527107672,6434629.4128746465],[5675285.428361841,6434620.50483282],[5675279.986687594,6434626.956327328],[5675275.595953781,6434632.201684002],[5675285.4988982715,6434640.463719509],[5675295.5279251,6434629.413595695],[5675295.527107672,6434629.4128746465]]]}},{"type":"Feature","properties":{},"geometry":{"type":"Polygon","coordinates":[[[5675047.66175975,6434644.884501829],[5675036.861000003,6434635.976999997],[5675020.756469097,6434656.643012779],[5675031.203917991,6434665.134147195],[5675033.725112625,6434662.032082053],[5675047.66175975,6434644.884501829]]]}},{"type":"Feature","properties":{},"geometry":{"type":"Polygon","coordinates":[[[5675484.585260727,6433562.047892271],[5675490.4052868765,6433566.716199388],[5675503.433672166,6433550.995657873],[5675497.67651521,6433546.251490414],[5675484.585260727,6433562.047892271]]]}}]}