{
"type": "FeatureCollection",
"name": "zonas",
"crs": { "type": "name", "properties": { "name": "urn:ogc:def:crs:EPSG::5347" } },
"features": [
{ "type": "Feature", "properties": { "fid": 95838, "handle": 476452, "block": -1, "etype": 18, "space": 0, "layer": "ORD. 130-2022", "olinetype": "bylayer", "linetype": "", "color": "255,0,0,255", "ocolor": 1, "color24": -1, "transparency": 0, "lweight": -1, "linewidth": 0.5, "ltscale": 1.0, "visible": 1, "width": 0.0, "thickness": 0.0, "ext": "(3:0,0,0.1)", "ZONA": "CENTRO" }, "geometry": { "type": "LineString", "coordinates": [ [ 16490.589822249570716, 12515.120838557435491, 0.0 ], [ 15755.418626680124362, 11920.004986286228814, 0.0 ], [ 15300.103346807967682, 12478.109313387489237, 0.0 ], [ 15153.058848429556747, 12359.087274158438959, 0.0 ], [ 15614.067171395841797, 11799.41397324117861, 0.0 ], [ 15203.141837217930515, 11464.968769238395907, 0.0 ], [ 15520.952853680673797, 11070.072589741153934, 0.0 ], [ 16803.927627835506428, 12126.659912199778773, 0.0 ], [ 16490.589822249570716, 12515.120838557435491, 0.0 ] ] } },
{ "type": "Feature", "properties": { "fid": 95839, "handle": 476453, "block": -1, "etype": 18, "space": 0, "layer": "ORD. 130-2022", "olinetype": "ACAD_ISO03W100", "linetype": "", "color": "255,0,0,255", "ocolor": 1, "color24": -1, "transparency": 0, "lweight": -1, "linewidth": 0.5, "ltscale": 1.0, "visible": 1, "width": 0.0, "thickness": 0.0, "ext": "(3:0,0,0.1)", "ZONA": "PERIURBANA-AMP SERVICIOS" }, "geometry": { "type": "LineString", "coordinates": [ [ 12672.266388342801292, 11046.305780749833502, 0.0 ], [ 12588.194446159612198, 11291.147454693047621, 0.0 ], [ 12228.980800510469635, 11145.43481368484936, 0.0 ], [ 12499.151455277662535, 10426.517373107439198, 0.0 ], [ 12696.660472939807732, 10499.921270067869045, 0.0 ], [ 12853.817009468648394, 10561.119508739626326, 0.0 ], [ 12775.202422034080882, 10780.239950168012001, 0.0 ], [ 12890.775497047316094, 10818.864983853949525, 0.0 ], [ 12793.722600887615044, 11089.887930884091475, 0.0 ], [ 12672.266388342801292, 11046.305780749833502, 0.0 ] ] } },
{ "type": "Feature", "properties": { "fid": 95840, "handle": 476454, "block": -1, "etype": 18, "space": 0, "layer": "ORD. 130-2022", "olinetype": "bylayer", "linetype": "", "color": "38,153,0,255", "ocolor": 84, "color24": -1, "transparency": 0, "lweight": -1, "linewidth": 0.5, "ltscale": 1.0, "visible": 1, "width": 0.0, "thickness": 0.0, "ext": "(3:0,0,0.1)", "ZONA": "AREA PROTEGIDA SUR" }, "geometry": { "type": "LineString", "coordinates": [ [ 17638.818059017034102, 7653.84070941160553, 0.0 ], [ 17612.962472939016152, 7623.238270066744917, 0.0 ], [ 17758.824472939679254, 7683.847270067847603, 0.0 ], [ 17845.490472938949097, 7714.623270067452722, 0.0 ], [ 17882.461472938852239, 7747.776770068398946, 0.0 ], [ 17929.25447293938123, 7721.593270067191952, 0.0 ], [ 17930.014367450112331, 7673.504037357001835, 0.0 ], [ 17945.085472939619649, 7647.153270067713493, 0.0 ], [ 17948.530160262333084, 7640.191023137486809, 0.0 ], [ 17965.745060497978557, 7621.310537438906067, 0.0 ], [ 17990.287830269979167, 7587.995418180777961, 0.0 ], [ 18018.209472939455736, 7510.225270067408019, 0.0 ], [ 18028.089472939343977, 7470.712270067139798, 0.0 ], [ 18039.379972939463187, 7419.916270067981714, 0.0 ], [ 18062.34947293912046, 7365.572270067475074, 0.0 ], [ 18077.756472939709056, 7323.364270067840152, 0.0 ], [ 18025.974972939202416, 7299.765770067527228, 0.0 ], [ 18066.067972939545143, 7259.229770068145626, 0.0 ], [ 18143.272972938688326, 7257.562270067698591, 0.0 ], [ 18769.342186259189475, 7272.202657837487095, 0.0 ], [ 18906.921602312559116, 7657.151989152721399, 0.0 ], [ 19359.043855657884706, 7642.153281020998293, 0.0 ], [ 19443.142736397767294, 8212.690028717806854, 0.0 ], [ 19305.928747043097246, 8504.59252556606225, 0.0 ], [ 19031.500768333757151, 8716.885227342201688, 0.0 ], [ 18801.335297670299042, 8853.990967797180929, 0.0 ], [ 18389.693329606288899, 9008.787724191388406, 0.0 ], [ 18217.039250080557395, 9320.958335784329392, 0.0 ], [ 17933.022472939537693, 9633.444270067913749, 0.0 ], [ 17710.645394778894115, 10276.845856760694005, 0.0 ], [ 17539.042472939090658, 10455.929270067317702, 0.0 ], [ 17392.955225168811012, 10386.09876513301424, 0.0 ], [ 17412.104247624138225, 10310.666377984984138, 0.0 ], [ 17487.225838634269167, 10174.255436386047222, 0.0 ], [ 17496.248979669147957, 9929.524153504586138, 0.0 ], [ 17444.952584519134689, 9773.891060427828052, 0.0 ], [ 17423.835419525476027, 9645.781267720340111, 0.0 ], [ 17464.112472939388681, 9561.092270067958452, 0.0 ], [ 17461.346472939560044, 9552.873270067451813, 0.0 ], [ 17473.517972939731408, 9525.031270068204321, 0.0 ], [ 17481.126472939820815, 9503.385270067556121, 0.0 ], [ 17488.344472939232219, 9467.014270067280449, 0.0 ], [ 17489.923972939224768, 9455.072270067474165, 0.0 ], [ 17494.755472938613821, 9420.998270067451813, 0.0 ], [ 17508.408472939478088, 9407.30327006715379, 0.0 ], [ 17521.027472939425934, 9395.863270066744008, 0.0 ], [ 17532.175472939470637, 9384.807270067809441, 0.0 ], [ 17546.986472939224768, 9361.127270067176141, 0.0 ], [ 17564.307972938837338, 9329.075770067116537, 0.0 ], [ 17581.808472938919294, 9304.987270067511417, 0.0 ], [ 17591.923972939224768, 9290.834270067578473, 0.0 ], [ 17596.31047293924712, 9278.142270067772188, 0.0 ], [ 17603.662972939284373, 9252.075270067965903, 0.0 ], [ 17610.710472939619649, 9229.471270067682781, 0.0 ], [ 17632.541972939940024, 9185.662770067407109, 0.0 ], [ 17647.439472938971448, 9169.658270067600824, 0.0 ], [ 17654.089624010110128, 9157.906376050850668, 0.0 ], [ 17630.124472939492989, 9147.490270068003156, 0.0 ], [ 17636.661472939969826, 9136.688270067861595, 0.0 ], [ 17652.223472938956547, 9132.955270067854144, 0.0 ], [ 17668.126472939820815, 9131.188270067861595, 0.0 ], [ 17671.345548329958547, 9113.507401859453239, 0.0 ], [ 17662.406972939232219, 9086.714270067466714, 0.0 ], [ 17669.114472939716507, 9065.649270067988255, 0.0 ], [ 17661.471972939642001, 9043.701770067280449, 0.0 ], [ 17650.308972939001251, 9028.438770067012229, 0.0 ], [ 17647.022472939537693, 8999.969770068368234, 0.0 ], [ 17650.016472939485539, 8994.442270067585923, 0.0 ], [ 17648.68547293924712, 8966.584270067578473, 0.0 ], [ 17660.194472939791012, 8931.44127006742201, 0.0 ], [ 17677.596972939642001, 8917.959770066729106, 0.0 ], [ 17696.524182357909012, 8907.844834755240299, 0.0 ], [ 17704.188472939738858, 8879.363770067757287, 0.0 ], [ 17712.235472939060855, 8854.23827006767533, 0.0 ], [ 17706.270472939209867, 8839.051270067757287, 0.0 ], [ 17680.229472939008701, 8820.748270067451813, 0.0 ], [ 17669.496472939001251, 8785.436270067533769, 0.0 ], [ 17688.27540059675448, 8758.046571597522416, 0.0 ], [ 17706.178685970688093, 8731.454753493024327, 0.0 ], [ 17706.667472939090658, 8687.101770067652978, 0.0 ], [ 17711.054472939194966, 8674.409270067764737, 0.0 ], [ 17719.348472938956547, 8635.479270067131438, 0.0 ], [ 17749.617472939276922, 8624.405270067109086, 0.0 ], [ 17778.285472939805913, 8580.538270067489066, 0.0 ], [ 17785.999472939492989, 8554.533270067600824, 0.0 ], [ 17772.696472939187515, 8527.762270067883946, 0.0 ], [ 17757.127472939053405, 8502.757270067995705, 0.0 ], [ 17741.276472939262021, 8470.455270066922822, 0.0 ], [ 17755.009472939269472, 8432.194270067913749, 0.0 ], [ 17759.029472938822437, 8416.507770067146339, 0.0 ], [ 17783.545472939582396, 8348.523270067824342, 0.0 ], [ 17799.582972939209867, 8254.044770067623176, 0.0 ], [ 17813.500472939656902, 8221.797270067101636, 0.0 ], [ 17841.956472938963998, 8162.696270067311161, 0.0 ], [ 17813.178472939031053, 8107.779270067877405, 0.0 ], [ 17832.084972939537693, 8047.186270067534679, 0.0 ], [ 17831.651472939262021, 7980.800270067594283, 0.0 ], [ 17835.210472938688326, 7916.81527006819033, 0.0 ], [ 17858.445972939105559, 7839.475770067489975, 0.0 ], [ 17859.537472939202416, 7827.813270067862504, 0.0 ], [ 17819.921472939746309, 7793.24727006728881, 0.0 ], [ 17777.586472938852239, 7740.100770067489975, 0.0 ], [ 17741.066472939299274, 7717.134270067393118, 0.0 ], [ 17638.818059017034102, 7653.84070941160553, 0.0 ] ] } },
{ "type": "Feature", "properties": { "fid": 95849, "handle": 476463, "block": -1, "etype": 18, "space": 0, "layer": "ORD. 130-2022", "olinetype": "bylayer", "linetype": "", "color": "255,0,0,255", "ocolor": 1, "color24": -1, "transparency": 0, "lweight": -1, "linewidth": 0.5, "ltscale": 1.0, "visible": 1, "width": 0.0, "thickness": 0.0, "ext": "(3:0,0,0.1)", "ZONA": "PERIURBANA-COL HUGHES" }, "geometry": { "type": "LineString", "coordinates": [ [ 7480.819560849192385, 4223.761927668071621, 0.0 ], [ 6473.082915797914211, 4002.63664010825687, 0.0 ], [ 6583.79226369232947, 3508.399380330062741, 0.0 ], [ 7590.244525498795156, 3723.231716429881089, 0.0 ], [ 7480.819560849192385, 4223.761927668071621, 0.0 ] ] } },
{ "type": "Feature", "properties": { "fid": 95856, "handle": 476470, "block": -1, "etype": 18, "space": 0, "layer": "ORD. 130-2022", "olinetype": "bylayer", "linetype": "", "color": "255,127,223,255", "ocolor": 221, "color24": -1, "transparency": 0, "lweight": -1, "linewidth": 0.5, "ltscale": 1.0, "visible": 1, "width": 0.0, "thickness": 0.0, "ext": "(3:0,0,0.1)", "ZONA": "QUINTAS" }, "geometry": { "type": "LineString", "coordinates": [ [ 10252.093086249280532, 12419.469018948329904, 0.0 ], [ 10596.250472939658721, 11444.366270067235746, 0.0 ], [ 10779.989980469543298, 10924.467046977086284, 0.0 ], [ 11133.724472939122279, 9926.994270067727484, 0.0 ], [ 11311.90147293926384, 9421.368270067563572, 0.0 ], [ 12011.726451397027631, 7635.09022253013336, 0.0 ], [ 11954.39667784338053, 7567.007381719603472, 0.0 ], [ 11735.51747293965127, 7473.033270067601734, 0.0 ], [ 11497.44847293951716, 7338.043270067378216, 0.0 ], [ 11408.492472939278741, 7236.026270067385667, 0.0 ], [ 11082.074458859015067, 6861.620753227799469, 0.0 ], [ 10633.411146509546597, 6610.842830137416058, 0.0 ], [ 10363.755472939546962, 6560.973270068011516, 0.0 ], [ 10178.722698493946154, 6565.865906669824653, 0.0 ], [ 10072.507106083530743, 6518.674208892575734, 0.0 ], [ 10063.23578951143827, 6536.079676483824187, 0.0 ], [ 9542.231674962762554, 6312.855030905521744, 0.0 ], [ 9139.956784324805994, 7508.176347430861824, 0.0 ], [ 8155.981472939337436, 7164.158270067601734, 0.0 ], [ 7974.645472939210777, 7661.020270067333513, 0.0 ], [ 7960.387162908996288, 7659.718148927270704, 0.0 ], [ 7398.594140527854506, 7458.871867403454416, 0.0 ], [ 7088.66847293925548, 8441.700270067965903, 0.0 ], [ 7623.207681264812891, 8632.07671933813981, 0.0 ], [ 7618.329472939568404, 8646.322270067474165, 0.0 ], [ 7245.075644062916581, 9683.367582232756831, 0.0 ], [ 7751.500610406595115, 9856.208019849909761, 0.0 ], [ 7408.227472939613108, 10839.03527006792865, 0.0 ], [ 7916.769472939046864, 11018.533270067600824, 0.0 ], [ 7729.419472939419393, 11537.66127006716124, 0.0 ], [ 10252.093086249280532, 12419.469018948329904, 0.0 ] ] } },
{ "type": "Feature", "properties": { "fid": 95857, "handle": 476471, "block": -1, "etype": 18, "space": 0, "layer": "ORD. 130-2022", "olinetype": "bylayer", "linetype": "", "color": "0,0,255,255", "ocolor": 5, "color24": -1, "transparency": 0, "lweight": -1, "linewidth": 0.5, "ltscale": 1.0, "visible": 1, "width": 0.0, "thickness": 0.0, "ext": "(3:0,0,0.1)", "ZONA": "AMORTIGUACION AMBIENTAL II" }, "geometry": { "type": "LineString", "coordinates": [ [ 7707.398200038905088, 11529.793394447369792, 0.0 ], [ 7899.423711923966948, 11026.366268554767885, 0.0 ], [ 7390.07605205019081, 10845.142316666497209, 0.0 ], [ 7394.214472939344887, 10834.220270067518868, 0.0 ], [ 7737.911488744514827, 9865.188264313219406, 0.0 ], [ 7221.38729180962855, 9680.581908568805375, 0.0 ], [ 7607.058828709731642, 8641.795125237731554, 0.0 ], [ 7346.098366559567694, 8544.530585347740271, 0.0 ], [ 7073.172679946842436, 8448.127944349376776, 0.0 ], [ 7077.162581329318527, 8437.006311527518847, 0.0 ], [ 7381.498973179693166, 7452.368698967687124, 0.0 ], [ 6850.924571147273127, 7258.754202919147247, 0.0 ], [ 6855.564472938972358, 7246.910270067929559, 0.0 ], [ 6953.203472939404492, 6937.382270067996615, 0.0 ], [ 6570.300472939471547, 6795.966270067795449, 0.0 ], [ 6553.403400953943674, 6789.668176802872949, 0.0 ], [ 6911.240297851237301, 8400.562094999542751, 0.0 ], [ 7237.915509030307476, 11358.900311704790511, 0.0 ], [ 7707.398200038905088, 11529.793394447369792, 0.0 ] ] } },
{ "type": "Feature", "properties": { "fid": 95858, "handle": 476472, "block": -1, "etype": 18, "space": 0, "layer": "ORD. 130-2022", "olinetype": "bylayer", "linetype": "", "color": "255,255,0,255", "ocolor": 2, "color24": -1, "transparency": 0, "lweight": -1, "linewidth": 0.5, "ltscale": 1.0, "visible": 1, "width": 0.0, "thickness": 0.0, "ext": "(3:0,0,0.1)", "ZONA": "INDUSTRIAL" }, "geometry": { "type": "LineString", "coordinates": [ [ 7167.716171092438344, 11320.697924845917441, 0.0 ], [ 7127.674288522536699, 11308.789590027248778, 0.0 ], [ 5210.860472939061765, 10624.866270067235746, 0.0 ], [ 6443.899472938935105, 6805.778270067713493, 0.0 ], [ 6676.010755430991594, 7625.902315307474964, 0.0 ], [ 6829.651472938331608, 8337.125931225782551, 0.0 ], [ 6891.255396206016485, 8941.679777777819254, 0.0 ], [ 7058.932780235159044, 10144.870659352345683, 0.0 ], [ 7167.716171092438344, 11320.697924845917441, 0.0 ] ] } },
{ "type": "Feature", "properties": { "fid": 95859, "handle": 476473, "block": -1, "etype": 18, "space": 0, "layer": "ORD. 130-2022", "olinetype": "bylayer", "linetype": "", "color": "0,0,255,255", "ocolor": 5, "color24": -1, "transparency": 0, "lweight": -1, "linewidth": 0.5, "ltscale": 1.0, "visible": 1, "width": 0.0, "thickness": 0.0, "ext": "(3:0,0,0.1)", "ZONA": "AMORTIGUACION AMBIENTAL II" }, "geometry": { "type": "LineString", "coordinates": [ [ 5427.984799147668127, 6248.504270874961549, 0.0 ], [ 4941.708472939292733, 7725.754270067504876, 0.0 ], [ 4110.243690957399849, 10284.447257170519151, 0.0 ], [ 5117.537472939203326, 10610.694270067913749, 0.0 ], [ 6415.113472939553503, 6690.142270067773097, 0.0 ] ] } },
{ "type": "Feature", "properties": { "fid": 95860, "handle": 476474, "block": -1, "etype": 18, "space": 0, "layer": "ORD. 130-2022", "olinetype": "bylayer", "linetype": "", "color": "0,0,255,255", "ocolor": 5, "color24": -1, "transparency": 0, "lweight": -1, "linewidth": 0.5, "ltscale": 1.0, "visible": 1, "width": 0.0, "thickness": 0.0, "ext": "(3:0,0,0.1)", "ZONA": "MIXTA COMPLEMENTO AREA INDUSTR" }, "geometry": { "type": "LineString", "coordinates": [ [ 6415.113472939553503, 6690.142270067773097, 0.0 ], [ 5677.748154078694824, 3328.891695795647138, 0.0 ], [ 5564.909080323847775, 3295.989061081848376, 0.0 ], [ 5368.498234799216334, 3252.228168197973901, 0.0 ], [ 5262.609972938979809, 3340.265770067527228, 0.0 ], [ 5238.584472939456646, 3383.594270067355865, 0.0 ], [ 5199.048972939225678, 3496.30827006704294, 0.0 ], [ 5143.189472938972358, 3537.106770067542129, 0.0 ], [ 5085.355898059057836, 3577.798850283093088, 0.0 ], [ 5019.405472938987259, 3620.043770067460173, 0.0 ], [ 4965.00447293938214, 3691.952270067363315, 0.0 ], [ 4907.37947293938214, 3773.972270067847603, 0.0 ], [ 4903.680472939359788, 3798.172270067102545, 0.0 ], [ 4885.195472939024512, 3855.707270067251557, 0.0 ], [ 4883.299472939307634, 3898.805270067482525, 0.0 ], [ 4869.430472939359788, 3960.310770067452722, 0.0 ], [ 4848.360972939143721, 3998.207270067251557, 0.0 ], [ 4815.866972939195875, 4008.834270067579382, 0.0 ], [ 4752.344472939233128, 4044.405270067109996, 0.0 ], [ 4725.195472939024512, 4094.008270067229205, 0.0 ], [ 4710.186972939493899, 4142.3867700678029, 0.0 ], [ 4683.892602939243261, 4188.172092178902858, 0.0 ], [ 4700.376571979458276, 4188.172092177971535, 0.0 ], [ 4647.184244639324788, 4352.660109287194246, 0.0 ], [ 4745.808823178606872, 4421.401367407358521, 0.0 ], [ 4759.750035039233808, 4444.712047627262109, 0.0 ], [ 4845.028475489551965, 4463.221076367489331, 0.0 ], [ 4802.870755189183001, 4556.280119906246, 0.0 ], [ 4745.783581859516744, 4597.477386067687803, 0.0 ], [ 4900.941016219640915, 4785.811141867256993, 0.0 ], [ 4787.188125949437563, 4835.934216009519332, 0.0 ], [ 4785.930909879590217, 4879.7896642378264, 0.0 ], [ 4900.37147293900216, 5007.181270067646437, 0.0 ], [ 4902.675243949602191, 5122.112760597906345, 0.0 ], [ 4945.306498429822568, 5245.829101137883299, 0.0 ], [ 4965.7081830493089, 5322.285265807128781, 0.0 ], [ 4923.530472938987259, 5379.707270067251557, 0.0 ], [ 4896.48202423946077, 5384.584617237626844, 0.0 ], [ 4883.960407684641723, 5401.379508897728556, 0.0 ], [ 4868.589753769422714, 5426.914912922374242, 0.0 ], [ 4862.511450479822997, 5482.762976434148186, 0.0 ], [ 4861.323625369082038, 5514.763013537108236, 0.0 ], [ 4871.749644138934855, 5564.848716411805981, 0.0 ], [ 4907.012320579114203, 5644.7426782074117, 0.0 ], [ 4927.863202779638414, 5712.990593197821909, 0.0 ], [ 4946.198770569722001, 5921.324430247835153, 0.0 ], [ 4909.010804439048115, 6017.309881547532314, 0.0 ], [ 6415.113472939498934, 6690.142270067951358, 0.0 ] ] } },
{ "type": "Feature", "properties": { "fid": 95861, "handle": 476475, "block": -1, "etype": 18, "space": 0, "layer": "ORD. 130-2022", "olinetype": "bylayer", "linetype": "", "color": "204,0,204,255", "ocolor": 212, "color24": -1, "transparency": 0, "lweight": -1, "linewidth": 0.5, "ltscale": 1.0, "visible": 1, "width": 0.0, "thickness": 0.0, "ext": "(3:0,0,0.1)", "ZONA": "RURAL" }, "geometry": { "type": "LineString", "coordinates": [ [ 4093.594472939233583, 10278.915270067816891, 0.0 ], [ 3072.361484647813541, 9941.647434130376496, 0.0 ], [ 3014.505079694177311, 10119.880756741455116, 0.0 ], [ 2732.923448833721977, 10028.47640752146981, 0.0 ], [ 2714.167246167633039, 10086.257051227679767, 0.0 ], [ 2368.772860120135647, 9973.77024939290277, 0.0 ], [ 2444.313590001399916, 9735.524871194800653, 0.0 ], [ 20.977785365740857, 8948.391202458245971, 0.0 ], [ 1174.021003167229765, 5362.083025341919893, 0.0 ], [ 1701.210226004096739, 5534.017863423629933, 0.0 ], [ 1773.051149719479554, 5296.338441527514988, 0.0 ], [ 2280.342692832547527, 5465.939921615711683, 0.0 ], [ 2321.001472939822179, 5344.326270067199403, 0.0 ], [ 3284.86047293906222, 5294.620270067892307, 0.0 ], [ 5409.862145387652163, 6252.421692390061253, 0.0 ], [ 4093.594472939233583, 10278.915270067816891, 0.0 ] ] } },
{ "type": "Feature", "properties": { "fid": 95862, "handle": 476476, "block": -1, "etype": 18, "space": 0, "layer": "ORD. 130-2022", "olinetype": "DASHED2", "linetype": "", "color": "255,0,0,255", "ocolor": 1, "color24": -1, "transparency": 0, "lweight": -1, "linewidth": 0.5, "ltscale": 1.0, "visible": 1, "width": 0.0, "thickness": 0.0, "ext": "(3:0,0,0.1)", "ZONA": "PERIURBANA-AMP SERVICIOS" }, "geometry": { "type": "LineString", "coordinates": [ [ 14441.99547293977048, 12336.306270067645528, 0.0 ], [ 14432.913824292916615, 12325.506958152232983, 0.0 ], [ 14414.03014596932735, 12303.084313469073095, 0.0 ], [ 14408.242964115079303, 12293.880451413868286, 0.0 ], [ 14389.990435252051611, 12280.132615481568791, 0.0 ], [ 14377.961434903640111, 12268.895256833238818, 0.0 ], [ 14375.251614725302716, 12269.777937581828155, 0.0 ], [ 14334.925693130206128, 12253.427803361853876, 0.0 ], [ 14326.399078750137051, 12247.913102719998278, 0.0 ], [ 14342.717514830726941, 12230.725032448834099, 0.0 ], [ 14327.287158878605624, 12225.734832921130874, 0.0 ], [ 14294.724607904527147, 12215.377823411552527, 0.0 ], [ 14288.465660698797365, 12217.462615413656749, 0.0 ], [ 14262.399826666425724, 12211.46604880324594, 0.0 ], [ 14251.894410665232499, 12207.205309969438531, 0.0 ], [ 14220.043426998976429, 12200.137646354800381, 0.0 ], [ 14189.371421235699017, 12185.907833425393619, 0.0 ], [ 14167.044636749747951, 12181.948515295116522, 0.0 ], [ 13973.473899974573214, 12707.509612667439796, 0.0 ], [ 13660.632588361475428, 12641.806132456353225, 0.0 ], [ 13348.464862110178728, 12527.268209276786365, 0.0 ], [ 13189.858956039037366, 12936.686591467885592, 0.0 ], [ 12865.884378260087033, 12819.307341026207723, 0.0 ], [ 12691.288194236431082, 13299.368316556392529, 0.0 ], [ 12819.281918502498229, 13345.453335748119571, 0.0 ], [ 13005.915922542188127, 13417.962060601515986, 0.0 ], [ 13007.72013348908331, 13413.027124917200126, 0.0 ], [ 13091.703478747132976, 13171.023485868303396, 0.0 ], [ 14257.593822031367381, 13588.709128260677971, 0.0 ], [ 14870.999563958581348, 12846.46394262935064, 0.0 ], [ 14858.007792294110914, 12836.967380123278417, 0.0 ], [ 14803.098660159010251, 12727.528956946982362, 0.0 ], [ 14703.223177273843248, 12683.23603697965882, 0.0 ], [ 14685.974274761128981, 12669.790311024589755, 0.0 ], [ 14578.353420917961557, 12636.233675715579011, 0.0 ], [ 14538.251043519090672, 12591.989386460809328, 0.0 ], [ 14512.32804551915433, 12565.906780998288014, 0.0 ], [ 14507.877774091522951, 12542.410374613544263, 0.0 ], [ 14508.665114173751135, 12517.847645473731973, 0.0 ], [ 14501.910595610823293, 12497.447172422958829, 0.0 ], [ 14497.306456099349816, 12471.055129067106463, 0.0 ], [ 14496.587630862455626, 12462.661667864835181, 0.0 ], [ 14492.866636089134772, 12440.70967521804414, 0.0 ], [ 14491.845881027255018, 12407.07998281071923, 0.0 ], [ 14484.963332606565018, 12391.007976298285939, 0.0 ], [ 14467.701365823011656, 12371.828711493006267, 0.0 ], [ 14453.905495364304443, 12348.202623208118894, 0.0 ], [ 14441.99547293977048, 12336.306270067645528, 0.0 ] ] } },
{ "type": "Feature", "properties": { "fid": 95863, "handle": 476477, "block": -1, "etype": 18, "space": 0, "layer": "ORD. 130-2022", "olinetype": "bylayer", "linetype": "", "color": "127,255,0,255", "ocolor": 70, "color24": -1, "transparency": 0, "lweight": -1, "linewidth": 0.5, "ltscale": 1.0, "visible": 1, "width": 0.0, "thickness": 0.0, "ext": "(3:0,0,0.1)", "ZONA": null }, "geometry": { "type": "LineString", "coordinates": [ [ 14514.68147293952461, 12564.912270067325153, 0.0 ], [ 14511.816472939301093, 12555.86327006767533, 0.0 ], [ 14510.470472939397951, 12548.165270067816891, 0.0 ], [ 14509.696472939189334, 12541.020270067332604, 0.0 ], [ 14511.10347293977793, 12526.534270067764737, 0.0 ], [ 14511.139472939159532, 12518.79527006677381, 0.0 ], [ 14508.523472939703424, 12505.19127006742201, 0.0 ], [ 14501.343472939070125, 12488.456270067086734, 0.0 ], [ 14497.729472939941843, 12470.953770067608275, 0.0 ], [ 14497.47847293977793, 12462.489770067921199, 0.0 ], [ 14496.216429068792422, 12454.06160130637727, 0.0 ], [ 14493.964472939345796, 12440.651270067384758, 0.0 ], [ 14494.174472939308544, 12428.243270067563572, 0.0 ], [ 14492.441472939301093, 12406.978270067898848, 0.0 ], [ 14485.320717280816098, 12390.96916774573765, 0.0 ], [ 14479.928472939032872, 12383.770270067332604, 0.0 ], [ 14473.678872899237831, 12377.011421597628214, 0.0 ], [ 14468.826472939077576, 12371.214270067466714, 0.0 ], [ 14462.488055716354211, 12359.220886878734746, 0.0 ], [ 14454.318472939628919, 12347.390270067444362, 0.0 ], [ 14446.408393110234101, 12340.289704793198325, 0.0 ], [ 14441.99547293977048, 12336.306270067645528, 0.0 ] ] } },
{ "type": "Feature", "properties": { "fid": 95864, "handle": 476478, "block": -1, "etype": 18, "space": 0, "layer": "ORD. 130-2022", "olinetype": "bylayer", "linetype": "", "color": "0,255,191,255", "ocolor": 120, "color24": -1, "transparency": 0, "lweight": -1, "linewidth": 0.5, "ltscale": 1.0, "visible": 1, "width": 0.0, "thickness": 0.0, "ext": "(3:0,0,0.1)", "ZONA": "CHACRAS" }, "geometry": { "type": "LineString", "coordinates": [ [ 17638.654472939753759, 7653.924270067430371, 0.0 ], [ 17772.048374217087257, 7749.337809956698948, 0.0 ], [ 17851.378059480422962, 7832.504428928784364, 0.0 ], [ 17830.730622966857482, 7911.92380521173709, 0.0 ], [ 17827.968659089961875, 8046.643567597559922, 0.0 ], [ 17811.638331919992197, 8107.298708349532717, 0.0 ], [ 17839.213774169878889, 8162.679634857057863, 0.0 ], [ 17794.630966718392301, 8251.190614975123026, 0.0 ], [ 17777.466745009729493, 8346.648435010640242, 0.0 ], [ 17729.847690513441194, 8468.847587636737444, 0.0 ], [ 17776.498754683965672, 8556.661471621198871, 0.0 ], [ 17744.038669488476444, 8616.489919553576328, 0.0 ], [ 17717.978964695790637, 8625.624023024989583, 0.0 ], [ 17699.660213718274463, 8684.88332042570255, 0.0 ], [ 17700.936298425393034, 8729.884372795066156, 0.0 ], [ 17662.785703396508325, 8780.608390425397374, 0.0 ], [ 17672.163779716091085, 8821.339952324582555, 0.0 ], [ 17698.257130790585506, 8854.801523920214095, 0.0 ], [ 17693.339825701052177, 8904.211052055536129, 0.0 ], [ 17654.869755930350948, 8925.304080907320895, 0.0 ], [ 17640.986871336670447, 8966.870958476392843, 0.0 ], [ 17646.019573565656174, 9028.933944152733602, 0.0 ], [ 17663.868321986021328, 9065.982853830857493, 0.0 ], [ 17659.592935170130659, 9084.693159090420522, 0.0 ], [ 17665.49703291905098, 9126.181163461944379, 0.0 ], [ 17635.16260104075991, 9130.858739776602306, 0.0 ], [ 17623.537810764359165, 9150.126326300269284, 0.0 ], [ 17648.986274776132632, 9159.278106046906032, 0.0 ], [ 17629.093240673737455, 9182.038639389975287, 0.0 ], [ 17604.623982414686907, 9231.061714377319731, 0.0 ], [ 17589.07049396921866, 9291.810221999949135, 0.0 ], [ 17559.521471859039593, 9326.684491708940186, 0.0 ], [ 17530.072234065355588, 9380.425153929805674, 0.0 ], [ 17490.559789297254611, 9416.436001746049442, 0.0 ], [ 17456.800034010866511, 9553.099643883360841, 0.0 ], [ 16348.459281616929729, 9219.778313212162175, 0.0 ], [ 16244.420472939584215, 8226.004270067503967, 0.0 ], [ 16818.344472939232219, 7600.210270067743295, 0.0 ], [ 16856.690472939135361, 7573.950270067966812, 0.0 ], [ 16903.939509356478084, 7599.706546120411986, 0.0 ], [ 17334.907637652093399, 7420.04897031380915, 0.0 ], [ 17325.996815821239579, 7357.359390722654098, 0.0 ], [ 17087.641652420246828, 7335.57967062114858, 0.0 ], [ 16569.417113072322536, 7156.8231091518619, 0.0 ], [ 14872.366593672048111, 7226.92980778223955, 0.0 ], [ 14915.78516442057844, 6777.869886701992982, 0.0 ], [ 14004.046772222120126, 6652.911552911690706, 0.0 ], [ 13959.222857919607122, 6383.686237357623213, 0.0 ], [ 12649.012931513685544, 6557.191365987128847, 0.0 ], [ 12410.477469368923266, 6463.750041607833737, 0.0 ], [ 12397.268472939815183, 6478.904270067877405, 0.0 ], [ 12325.256488138895293, 6801.167270067214304, 0.0 ], [ 12013.300822114657421, 7631.071697986751133, 0.0 ], [ 11956.950483036313017, 7562.949083075925046, 0.0 ], [ 11744.373606054197808, 7468.283440942942434, 0.0 ], [ 11501.498252534393032, 7332.099036443113619, 0.0 ], [ 11088.373374090615471, 6846.436806007354789, 0.0 ], [ 10660.152695589784344, 6605.783270067601734, 0.0 ], [ 10379.115036815490384, 6537.951346795141035, 0.0 ], [ 10176.456555850889345, 6559.737451544097894, 0.0 ], [ 10073.498769368130525, 6511.079898951641553, 0.0 ], [ 10059.618523698385616, 6525.953942013970845, 0.0 ], [ 9536.068033594723602, 6301.850680705226296, 0.0 ], [ 9531.691072213548978, 6300.380588142267698, 0.0 ], [ 9132.465472939509709, 7489.572270067475074, 0.0 ], [ 8154.482472939501349, 7149.140270067445272, 0.0 ], [ 7963.430472939359788, 7651.716270067795449, 0.0 ], [ 6867.505472939546053, 7253.538270067489975, 0.0 ], [ 6971.290099312635903, 6924.011162312767738, 0.0 ], [ 6552.499025823633019, 6780.317582359603875, 0.0 ], [ 5795.451472939076666, 3328.243270067564481, 0.0 ], [ 5591.319496818902735, 3035.470012997343474, 0.0 ], [ 5614.497972939248029, 2994.983770067869955, 0.0 ], [ 5620.454472939568404, 2952.758270067229205, 0.0 ], [ 5617.660472939806823, 2932.2692700671696, 0.0 ], [ 5616.269472939046864, 2885.690770067340964, 0.0 ], [ 5640.751472939821724, 2839.83977006754958, 0.0 ], [ 5681.76997293912882, 2820.30177006690883, 0.0 ], [ 5747.989472939717416, 2783.540270067817801, 0.0 ], [ 5773.217472938905303, 2774.88527006755703, 0.0 ], [ 5826.975472939285282, 2744.606270067460173, 0.0 ], [ 5869.510472939434294, 2679.1992700678029, 0.0 ], [ 5875.069472939791922, 2636.386270067720943, 0.0 ], [ 5897.445472939024512, 2533.048270067266458, 0.0 ], [ 5933.540972939777021, 2412.25277006819033, 0.0 ], [ 5944.674472939307634, 2271.677270067922109, 0.0 ], [ 5948.921472939747218, 2211.891270067609184, 0.0 ], [ 5941.885472939434294, 2164.704270067691141, 0.0 ], [ 5932.566288221712057, 2081.044565096563929, 0.0 ], [ 5915.25923474886531, 2036.861917881361478, 0.0 ], [ 5914.864389479244892, 1991.86022811296516, 0.0 ], [ 5976.503472939218227, 1986.339270067467623, 0.0 ], [ 6071.060472939248029, 1964.825270067966812, 0.0 ], [ 6125.574472939680163, 1881.356270067460173, 0.0 ], [ 6124.9433593015101, 1867.727787776916557, 0.0 ], [ 6218.382972939955835, 1845.421270067869955, 0.0 ], [ 6313.242472939277832, 1785.423270067266458, 0.0 ], [ 6364.665472939695064, 1744.5742700678029, 0.0 ], [ 6401.57347293951625, 1677.213270067303711, 0.0 ], [ 6403.209472939456646, 1603.758770067311161, 0.0 ], [ 6431.027472939426843, 1517.175270067594283, 0.0 ], [ 6458.954472939568404, 1464.862770067594283, 0.0 ], [ 6557.206472938964907, 1312.951770067281359, 0.0 ], [ 6628.785472939806823, 1278.052270067922109, 0.0 ], [ 6730.300472939471547, 1152.198770067720943, 0.0 ], [ 6793.327472939240579, 1069.515270067445272, 0.0 ], [ 6817.703472939404492, 971.875270067780434, 0.0 ], [ 6840.318472939628009, 854.424770067512213, 0.0 ], [ 6897.537519823844377, 763.946957529588758, 0.0 ], [ 6970.865472938950006, 786.931270067646324, 0.0 ], [ 7013.179472939195875, 810.051270067758082, 0.0 ], [ 7096.242972939359788, 812.265770067527114, 0.0 ], [ 7134.980472939173524, 815.29227006721419, 0.0 ], [ 7158.769472939046864, 803.654270067877292, 0.0 ], [ 7188.565448474223558, 659.818265743619918, 0.0 ], [ 7473.996229375797157, 748.818518040768026, 0.0 ], [ 7505.22793222879136, 732.924886602974652, 0.0 ], [ 7523.185879405672495, 733.860983938045024, 0.0 ], [ 7546.256191053512339, 710.625492227330028, 0.0 ], [ 7557.435865037227813, 679.728315049848675, 0.0 ], [ 7603.826921234923248, 619.833866320616721, 0.0 ], [ 7649.538472939367239, 581.990270068003952, 0.0 ], [ 7692.981472939337436, 520.388270067117332, 0.0 ], [ 7699.256472938778643, 462.330770067936953, 0.0 ], [ 7686.124472939493899, 422.124270067616578, 0.0 ], [ 7630.344472939233128, 371.789270067653831, 0.0 ], [ 7611.769472939046864, 304.027270067549523, 0.0 ], [ 7642.151472939262931, 270.453270067527171, 0.0 ], [ 7691.321972939270381, 234.424270067430314, 0.0 ], [ 7727.202472939240579, 201.028270067713436, 0.0 ], [ 7761.580472939732317, 135.046770067951854, 0.0 ], [ 7762.20747293912882, 81.319270067914587, 0.0 ], [ 7778.890154860998337, 9.430752864173812, 0.0 ], [ 7808.519169355827216, 2.703941092892748, 0.0 ], [ 7832.072472939352338, 66.11027006718443, 0.0 ], [ 7858.696472939188425, 114.40727006743775, 0.0 ], [ 7941.825472938912753, 120.100770067489904, 0.0 ], [ 8010.535072316500191, 138.585232571765061, 0.0 ], [ 8046.193472939628009, 184.676270067758139, 0.0 ], [ 8116.523472939702515, 257.900770068234976, 0.0 ], [ 8143.865720008584503, 325.590140363267835, 0.0 ], [ 8132.312736073593442, 405.024699657290455, 0.0 ], [ 8130.071472939188425, 450.048270067266401, 0.0 ], [ 8157.890972939404492, 492.952770067445215, 0.0 ], [ 8223.278472939591666, 523.121270067124783, 0.0 ], [ 8298.394472939047773, 588.083270067415356, 0.0 ], [ 8343.794685569677313, 625.071118997476219, 0.0 ], [ 8384.841472939673622, 671.402270067549466, 0.0 ], [ 8436.237557548183759, 756.74409878353697, 0.0 ], [ 8445.656472939152081, 804.670270067705928, 0.0 ], [ 8465.627472939055224, 818.375270067780434, 0.0 ], [ 8491.734972939912041, 814.542770067296146, 0.0 ], [ 8521.001472939822634, 814.977770067817687, 0.0 ], [ 8568.007972939956744, 819.01877006708753, 0.0 ], [ 8584.244972939688523, 834.050770067676126, 0.0 ], [ 8588.991472939114828, 858.610270067184388, 0.0 ], [ 8590.719972939315994, 883.996270068056106, 0.0 ], [ 8594.718472939070125, 933.573270067638873, 0.0 ], [ 8608.40147293926384, 989.018270067936896, 0.0 ], [ 8624.688472939740677, 1020.803270067154585, 0.0 ], [ 8681.413972939450105, 1070.565770067340964, 0.0 ], [ 8711.900717643175085, 1087.668727723947995, 0.0 ], [ 8731.708151646975239, 1142.317452739990586, 0.0 ], [ 8731.708151646975239, 1165.872971768557363, 0.0 ], [ 8700.503972939301093, 1198.400770068235033, 0.0 ], [ 8693.630821579221447, 1236.767657697267168, 0.0 ], [ 8690.450111259791811, 1297.771166407569581, 0.0 ], [ 8705.526972939345796, 1359.525270067221754, 0.0 ], [ 8761.913771044548412, 1400.027333201906913, 0.0 ], [ 8774.519472939047773, 1433.762270067884856, 0.0 ], [ 8795.269472939047773, 1440.956270067087644, 0.0 ], [ 8848.884472939271291, 1484.965270067631536, 0.0 ], [ 8854.664529193278213, 1532.530605557441049, 0.0 ], [ 8881.366472939114828, 1605.039270067653888, 0.0 ], [ 8882.080472939733227, 1639.09627006768369, 0.0 ], [ 8905.396472939375599, 1674.513270067117446, 0.0 ], [ 8934.829274409536083, 1714.094638637333446, 0.0 ], [ 8986.765972939405401, 1786.361270067348414, 0.0 ], [ 9050.134910930033584, 1855.467472562632793, 0.0 ], [ 9061.328472939405401, 1927.934270067206853, 0.0 ], [ 9080.841972938824256, 1965.536770068175429, 0.0 ], [ 9132.194233249958415, 2009.04941578402304, 0.0 ], [ 9203.302472939800282, 2036.092270067959362, 0.0 ], [ 9283.280972940001448, 2053.107270067624086, 0.0 ], [ 9358.137472939763029, 2056.408270067601734, 0.0 ], [ 9443.232972939584215, 2048.629770067586833, 0.0 ], [ 9601.670472939584215, 2076.255270067668789, 0.0 ], [ 9684.15947293964382, 2096.467770067109996, 0.0 ], [ 9751.169472939420302, 2133.067270067586833, 0.0 ], [ 9814.327972940254767, 2171.30977006728881, 0.0 ], [ 9901.222472939725776, 2253.673270067266458, 0.0 ], [ 9932.119472938675244, 2297.730770068309539, 0.0 ], [ 10043.405972940001448, 2322.816270068354243, 0.0 ], [ 10123.388453070159812, 2324.607937557689183, 0.0 ], [ 10185.179472939196785, 2346.58077006793701, 0.0 ], [ 10245.062643397684951, 2374.545584294080072, 0.0 ], [ 10328.591972939755578, 2434.926270067758196, 0.0 ], [ 10364.442472939465006, 2463.73027006729626, 0.0 ], [ 10382.60447293901052, 2506.897270067661339, 0.0 ], [ 10398.435472939248939, 2568.877270067177051, 0.0 ], [ 10431.907472939315994, 2633.083270067415469, 0.0 ], [ 10501.322972939435203, 2647.019270068100923, 0.0 ], [ 10574.505096301521917, 2682.305422842568987, 0.0 ], [ 10645.912653523582776, 2723.985530417478913, 0.0 ], [ 10709.574301119047959, 2716.89641512750768, 0.0 ], [ 11552.227639239366908, 1955.930902267872625, 0.0 ], [ 11744.079136609185298, 2173.667079687184923, 0.0 ], [ 11034.200405218723972, 2799.154764749176138, 0.0 ], [ 10952.843630575660427, 2870.83977006754958, 0.0 ], [ 11110.65908763659354, 2949.386855944126182, 0.0 ], [ 11158.960472939621468, 2970.806270067646437, 0.0 ], [ 11239.529472939755578, 3006.444270067914658, 0.0 ], [ 11332.638472938995619, 3153.337270067139798, 0.0 ], [ 11434.471472938630541, 3321.538770067571932, 0.0 ], [ 11567.274094045247693, 3644.450664261422389, 0.0 ], [ 11503.805533274162372, 3836.155894447184437, 0.0 ], [ 11511.016245547767539, 3980.298431062205964, 0.0 ], [ 11604.732354422185381, 3975.610294496706956, 0.0 ], [ 11894.34796217371877, 3806.480336099929445, 0.0 ], [ 12070.205819689754208, 3643.041094857334429, 0.0 ], [ 12359.889842718925138, 3846.692248447864586, 0.0 ], [ 13085.685472939248939, 4031.732270067624086, 0.0 ], [ 13240.753932665187676, 4751.460131006381744, 0.0 ], [ 14110.162965139459629, 4552.121059857375258, 0.0 ], [ 14362.946131619710286, 5032.466010997138255, 0.0 ], [ 14797.639085339467783, 4943.72594624764406, 0.0 ], [ 15006.961472939785381, 5352.210270067743295, 0.0 ], [ 15213.020472939211686, 5247.086270067907208, 0.0 ], [ 15555.193472939628919, 5920.157270067437821, 0.0 ], [ 16158.138472938995619, 5671.973270068011516, 0.0 ], [ 16220.240784053776224, 5781.418473672188156, 0.0 ], [ 16546.403972939671803, 5680.141770066759818, 0.0 ], [ 16954.906472939150262, 5686.642770066923731, 0.0 ], [ 17072.446472939187515, 5661.492270067400568, 0.0 ], [ 17293.712472939016152, 5661.153270067713493, 0.0 ], [ 17528.086472939783562, 5744.220270067519778, 0.0 ], [ 17656.288472939366329, 5717.608770066938632, 0.0 ], [ 17753.250189189882803, 5726.339827082186275, 0.0 ], [ 17768.118904315018881, 5721.906016439265841, 0.0 ], [ 17696.318408736111451, 5558.540091052717798, 0.0 ], [ 17752.194472939791012, 5507.208270067415469, 0.0 ], [ 17767.583472939291823, 5461.254270067504876, 0.0 ], [ 17842.950117915952433, 5440.395264254949325, 0.0 ], [ 17972.606972939418483, 5481.944770067996615, 0.0 ], [ 17983.322972939433384, 5456.478770067981714, 0.0 ], [ 17959.910472939805913, 5296.625270067780548, 0.0 ], [ 17975.749613311225403, 5178.736180771208637, 0.0 ], [ 17975.308621379630495, 5163.244925696469181, 0.0 ], [ 18045.766472939485539, 5165.808270067974263, 0.0 ], [ 18138.48962888409369, 5129.033439310333961, 0.0 ], [ 18185.201472939075757, 5132.054270067318612, 0.0 ], [ 18170.38747293976121, 5242.513270067117446, 0.0 ], [ 18175.701972940089036, 5317.062770066849225, 0.0 ], [ 18313.20840446193688, 5523.535126516661876, 0.0 ], [ 18438.101446819575358, 5708.451352822660738, 0.0 ], [ 18574.131359513932694, 6006.821716631829077, 0.0 ], [ 18574.131359513932694, 6153.436718757330709, 0.0 ], [ 18574.943218858996261, 6426.16400210752272, 0.0 ], [ 18626.258904418991733, 6614.136356892130607, 0.0 ], [ 18711.785047018984187, 6870.462304977766507, 0.0 ], [ 18745.995504058981169, 7041.346288227542573, 0.0 ], [ 18754.172908402131725, 7131.094767168230646, 0.0 ], [ 18013.968107367949415, 7254.330509387954407, 0.0 ], [ 17982.076380439186323, 7324.418918268821471, 0.0 ], [ 18021.622141623021889, 7365.197638172722691, 0.0 ], [ 17990.153472938658524, 7587.897270067661339, 0.0 ], [ 17948.530160262333084, 7638.385402350752884, 0.0 ], [ 17904.225647170180309, 7692.125769801504248, 0.0 ], [ 17834.063584033483494, 7678.108100787802869, 0.0 ], [ 17600.07856687352978, 7607.849995836681956, 0.0 ], [ 17604.79485274673425, 7621.669668873838418, 0.0 ], [ 17638.654472939753759, 7653.924270067430371, 0.0 ] ] } },
{ "type": "Feature", "properties": { "fid": 101040, "handle": 476455, "block": -1, "etype": 18, "space": 0, "layer": "ORD. 130-2022", "olinetype": "bylayer", "linetype": "", "color": "38,153,0,255", "ocolor": 84, "color24": -1, "transparency": 0, "lweight": -1, "linewidth": 0.5, "ltscale": 1.0, "visible": 1, "width": 0.0, "thickness": 0.0, "ext": "(3:0,0,0.1)", "ZONA": "AREA PROTEGIDA NORTE" }, "geometry": { "type": "LineString", "coordinates": [ [ 14999.709822383794744, 13532.205351073360362, 0.0 ], [ 15037.990459405902584, 13566.449848133204796, 0.0 ], [ 15092.408843285489638, 13587.501481760358729, 0.0 ], [ 15141.184759455818494, 13607.241522130621888, 0.0 ], [ 15148.863440031271239, 13640.503729886440851, 0.0 ], [ 15151.004525686699708, 13664.108460135823407, 0.0 ], [ 15142.457875373858769, 13694.148811024679162, 0.0 ], [ 15119.123519386250337, 13736.200733240759291, 0.0 ], [ 15002.292231047611494, 13786.186516327848949, 0.0 ], [ 14963.015163747679253, 13831.161766989222087, 0.0 ], [ 14939.788343914869984, 13857.21366103838227, 0.0 ], [ 14922.949699459682961, 13983.285768490350165, 0.0 ], [ 14812.349753880027492, 14070.49737351208023, 0.0 ], [ 14766.195316464725693, 14107.681790970331349, 0.0 ], [ 14751.646841102365215, 14130.024153358368494, 0.0 ], [ 14749.428712890568931, 14142.99716681807331, 0.0 ], [ 14755.079336301509102, 14185.302040800517716, 0.0 ], [ 14811.039715913209875, 14238.713000992378511, 0.0 ], [ 14867.000095523979326, 14292.123961185170629, 0.0 ], [ 14901.011656570333798, 14303.691547811096825, 0.0 ], [ 14961.248453645121117, 14313.86085353425733, 0.0 ], [ 15000.696195229042132, 14324.150143403625407, 0.0 ], [ 15164.147027153607269, 14335.994268715447106, 0.0 ], [ 15247.14267271020617, 14335.994268715447106, 0.0 ], [ 15324.920908916827102, 14310.423202264188149, 0.0 ], [ 15424.143719866026004, 14232.781541356882371, 0.0 ], [ 15793.724372401919027, 13461.835781422509172, 0.0 ], [ 15722.918431970376332, 13388.65820966760657, 0.0 ], [ 15529.115335259672065, 13546.562570969639637, 0.0 ], [ 15448.737007555637319, 13584.312840828737535, 0.0 ], [ 15358.84634827085938, 13577.405437510526099, 0.0 ], [ 15408.978483120064993, 13485.349183694524982, 0.0 ], [ 15376.114807480100353, 13384.594926276309707, 0.0 ], [ 15029.806331283498366, 13111.210975818401494, 0.0 ], [ 15013.657930398445387, 13205.702854424780526, 0.0 ], [ 15021.746562456797619, 13320.681025336562016, 0.0 ], [ 14999.709822383794744, 13532.205351073360362, 0.0 ] ] } },
{ "type": "Feature", "properties": { "fid": 101041, "handle": 476464, "block": -1, "etype": 18, "space": 0, "layer": "ORD. 130-2022", "olinetype": "bylayer", "linetype": "", "color": "127,255,0,255", "ocolor": 70, "color24": -1, "transparency": 0, "lweight": -1, "linewidth": 0.5, "ltscale": 1.0, "visible": 1, "width": 0.0, "thickness": 0.0, "ext": "(3:0,0,0.1)", "ZONA": "PERIURBANA" }, "geometry": { "type": "LineString", "coordinates": [ [ 14441.99547293977048, 12336.306270067645528, 0.0 ], [ 14434.095472939397951, 12323.607270067623176, 0.0 ], [ 14425.148472939703424, 12314.115270068003156, 0.0 ], [ 14414.555472939360698, 12302.748270067451813, 0.0 ], [ 14408.499472939494808, 12293.696270067310252, 0.0 ], [ 14400.524972939017971, 12286.268770067086734, 0.0 ], [ 14390.241472940046151, 12279.825270067965903, 0.0 ], [ 14378.027472939427753, 12268.291270067980804, 0.0 ], [ 14374.966472939673622, 12268.819270067913749, 0.0 ], [ 14372.882793638940711, 12268.113833527146198, 0.0 ], [ 14360.682972938839157, 12262.518770067086734, 0.0 ], [ 14335.611972939308544, 12252.835270067742385, 0.0 ], [ 14328.579049655321796, 12247.415461600823619, 0.0 ], [ 14346.49517846767958, 12230.545537434583821, 0.0 ], [ 14337.652068508874436, 12222.802125827474811, 0.0 ], [ 14328.349568761970659, 12224.005412350474217, 0.0 ], [ 14294.590689163740535, 12214.303042671708681, 0.0 ], [ 14288.755018889058192, 12216.413663645340421, 0.0 ], [ 14263.362738658759554, 12209.978156721284904, 0.0 ], [ 14253.698949880052169, 12205.026638251794793, 0.0 ], [ 14220.495146835308333, 12197.846888409061648, 0.0 ], [ 14191.10460498565044, 12183.488892077533819, 0.0 ], [ 14159.994216883640547, 12177.718119286066212, 0.0 ], [ 14134.167615686628778, 12168.785383241316595, 0.0 ], [ 14087.268774485301037, 12205.114840498259582, 0.0 ], [ 14072.168954059567113, 12224.925867047226347, 0.0 ], [ 14019.444972938943465, 12201.708770067496516, 0.0 ], [ 13974.092472938906212, 12190.84127006779454, 0.0 ], [ 13950.814410529184897, 12192.2045085468053, 0.0 ], [ 13954.536951155487259, 12181.526059856703796, 0.0 ], [ 13843.271160159345527, 12135.599590967474796, 0.0 ], [ 14060.141472939487358, 11555.487270067511417, 0.0 ], [ 13546.04347293925639, 11373.3722700672879, 0.0 ], [ 13731.199472939681073, 10881.768270067936101, 0.0 ], [ 13935.111201426099797, 10334.323615361070551, 0.0 ], [ 14127.199637068521042, 10302.891114230333187, 0.0 ], [ 14339.75538466879334, 10235.59318529075972, 0.0 ], [ 14667.642869569446702, 10059.005165701797523, 0.0 ], [ 14773.911351197484692, 9976.850306084445037, 0.0 ], [ 15188.687421860258837, 9484.607114227554121, 0.0 ], [ 15221.76470236023124, 9571.091334524629929, 0.0 ], [ 15288.744783547792395, 9653.354061354948499, 0.0 ], [ 15303.543221377853115, 9668.462516046194651, 0.0 ], [ 15341.405866120096107, 9697.653611367633857, 0.0 ], [ 15433.599973795089682, 9730.7004229352533, 0.0 ], [ 15470.584472939457555, 9743.573270067638077, 0.0 ], [ 15482.930472939360698, 9750.77977006702713, 0.0 ], [ 15496.913472939368148, 9759.700270067965903, 0.0 ], [ 15520.508472939107378, 9771.950270067965903, 0.0 ], [ 15547.667472939092477, 9787.154270067876496, 0.0 ], [ 15551.588472939181884, 9796.984770067101636, 0.0 ], [ 15559.465972938660343, 9821.690770067340054, 0.0 ], [ 15573.051472939636369, 9840.220270067518868, 0.0 ], [ 15604.183472938921113, 9860.686270067533769, 0.0 ], [ 15619.40147293926384, 9859.241270067235746, 0.0 ], [ 15655.917410821739395, 9867.521603122419037, 0.0 ], [ 15685.347972939807732, 9880.900770067302801, 0.0 ], [ 15699.397472939539512, 9884.110270067183592, 0.0 ], [ 15735.843472940001448, 9896.225270067407109, 0.0 ], [ 15783.468972939152081, 9912.84877006716124, 0.0 ], [ 15815.250472939658721, 9929.972270067846694, 0.0 ], [ 15834.317472939465006, 9950.146270067496516, 0.0 ], [ 15850.614472939718326, 9972.799270067429461, 0.0 ], [ 15859.943472939628919, 9995.524270067988255, 0.0 ], [ 15872.161472939040323, 10012.114270067839243, 0.0 ], [ 15895.050972939554413, 10063.551770067839243, 0.0 ], [ 15898.819472939792831, 10066.832270067250647, 0.0 ], [ 15902.35447293901052, 10072.261270067720034, 0.0 ], [ 15903.954472939569314, 10077.020270067332604, 0.0 ], [ 15904.750472939658721, 10080.608270067787089, 0.0 ], [ 15913.433472938921113, 10093.426270067757287, 0.0 ], [ 15918.750472939658721, 10102.720770066669502, 0.0 ], [ 15922.41597293977793, 10109.978270067898848, 0.0 ], [ 15930.912472939204235, 10122.413270067489066, 0.0 ], [ 15943.073972939599116, 10137.327770067444362, 0.0 ], [ 15948.719472939234038, 10144.571270067310252, 0.0 ], [ 15951.985472939062674, 10146.912270067325153, 0.0 ], [ 15955.345472939397951, 10149.350270067407109, 0.0 ], [ 15958.729472939941843, 10153.006770066982426, 0.0 ], [ 15962.577472939241488, 10156.059270067205944, 0.0 ], [ 15968.973472938958366, 10159.29427006754122, 0.0 ], [ 15972.110472939062674, 10161.273270067824342, 0.0 ], [ 15982.22947293901052, 10168.473270068010606, 0.0 ], [ 16005.357472939502259, 10176.73827006767533, 0.0 ], [ 16010.113972939636369, 10176.984270067951002, 0.0 ], [ 16019.468472939070125, 10179.587770067220845, 0.0 ], [ 16028.145472939211686, 10181.573270067638077, 0.0 ], [ 16038.301472939636369, 10179.103270067898848, 0.0 ], [ 16047.787472939204235, 10178.567270067585923, 0.0 ], [ 16053.781472939152081, 10183.700770067116537, 0.0 ], [ 16067.696472939189334, 10182.150270067220845, 0.0 ], [ 16078.176472939636369, 10178.008270067228295, 0.0 ], [ 16094.490472938950916, 10169.899270067988255, 0.0 ], [ 16108.876472939822634, 10167.174270067429461, 0.0 ], [ 16127.763472938995619, 10166.900270067220845, 0.0 ], [ 16162.798972939226587, 10167.823770066788711, 0.0 ], [ 16176.472972939807732, 10155.933270067042031, 0.0 ], [ 16189.773472939703424, 10151.558270067973353, 0.0 ], [ 16211.238472939554413, 10162.051270067757287, 0.0 ], [ 16224.878472939219137, 10177.477270067734935, 0.0 ], [ 16251.840472939509709, 10202.9972700672879, 0.0 ], [ 16277.786472939040323, 10222.6222700672879, 0.0 ], [ 16300.258972940120657, 10236.45827006741456, 0.0 ], [ 16314.175472939472456, 10247.776270067384758, 0.0 ], [ 16317.116972939196785, 10253.445770068159618, 0.0 ], [ 16324.036472939040323, 10257.562270067697682, 0.0 ], [ 16338.568472939628919, 10253.677270067921199, 0.0 ], [ 16345.551972939718326, 10253.930770067563572, 0.0 ], [ 16348.128472939219137, 10258.263270067116537, 0.0 ], [ 16348.670472939584215, 10260.744270067727484, 0.0 ], [ 16359.816972939383049, 10263.139270067280449, 0.0 ], [ 16398.854972939090658, 10247.35777006677381, 0.0 ], [ 16429.248972939411033, 10220.30077006767533, 0.0 ], [ 16450.462040633978177, 10201.795183463087596, 0.0 ], [ 16355.969386898997982, 9289.17199671833805, 0.0 ], [ 16336.011265722188909, 9232.908036489105143, 0.0 ], [ 16325.8582473155966, 9129.504021848617413, 0.0 ], [ 16236.79347293925639, 8314.968270067191042, 0.0 ], [ 16216.914601945403774, 8164.715597153707677, 0.0 ], [ 16756.965294495308626, 7536.740910335510307, 0.0 ], [ 16842.319472939791012, 7569.561948306924933, 0.0 ], [ 16911.424405559049774, 7589.110818977534109, 0.0 ], [ 17319.328472939403582, 7410.244270067728394, 0.0 ], [ 17315.595472939396132, 7363.706270067087644, 0.0 ], [ 17070.767697359518934, 7341.260864987104469, 0.0 ], [ 17010.927472939798463, 7316.656270067273908, 0.0 ], [ 16563.016472939485539, 7177.412270067326062, 0.0 ], [ 16120.069472939792831, 7196.717270067959362, 0.0 ], [ 15720.028472939591666, 7199.851424122295612, 0.0 ], [ 14854.407227334651907, 7235.57651120803439, 0.0 ], [ 14854.265472008932193, 7221.224093862875634, 0.0 ], [ 14899.61084089902397, 6801.212019861742192, 0.0 ], [ 13992.973929420199056, 6664.753928449071282, 0.0 ], [ 13951.240050648424585, 6396.601024801909261, 0.0 ], [ 12950.876472939822634, 6539.322270067475074, 0.0 ], [ 12642.411161229099889, 6579.354136941089564, 0.0 ], [ 12633.176490261304934, 6575.387035188331538, 0.0 ], [ 12408.688472939740677, 6478.949727367676132, 0.0 ], [ 12351.434472939085026, 6801.167270067214304, 0.0 ], [ 12020.721472939561863, 7646.6442700671696, 0.0 ], [ 11150.512566005896588, 9940.832396230725863, 0.0 ], [ 10791.639472939159532, 10928.942270067585923, 0.0 ], [ 10267.199472939681073, 12422.387270067883946, 0.0 ], [ 13005.915922542188127, 13417.990170122189738, 0.0 ], [ 14800.84059714068826, 14070.49737351208023, 0.0 ], [ 14908.241656032476385, 13984.109024580633559, 0.0 ], [ 14922.483978678557833, 13918.967828262662806, 0.0 ], [ 14936.726301325570603, 13853.826631944692053, 0.0 ], [ 14950.047087242912312, 13836.760571375554719, 0.0 ], [ 15002.29223104947414, 13786.186516325986304, 0.0 ], [ 15064.864955986935456, 13756.56934936723701, 0.0 ], [ 15114.525014289740284, 13731.951757166600146, 0.0 ], [ 15138.635915617544015, 13692.419815984620072, 0.0 ], [ 15147.939596729438563, 13645.193264368055679, 0.0 ], [ 15138.619285610589941, 13618.290721999546804, 0.0 ], [ 15107.363003484990259, 13596.184302561981895, 0.0 ], [ 15070.088376544501443, 13580.408572165360965, 0.0 ], [ 15029.725052252497335, 13568.68911938934616, 0.0 ], [ 14999.709822383794744, 13532.205351073360362, 0.0 ], [ 14999.363477215256353, 13475.179270067317702, 0.0 ], [ 15016.496439021166225, 13314.22304039082519, 0.0 ], [ 15007.267391973260601, 13203.700270067965903, 0.0 ], [ 15020.210197624835928, 13127.974769652886607, 0.0 ], [ 15028.640005739491244, 13080.086463835155882, 0.0 ], [ 15032.459972939539512, 13056.485770067265548, 0.0 ], [ 15016.172972939062674, 13007.041770067131438, 0.0 ], [ 14990.636106902818938, 12979.900962534426071, 0.0 ], [ 14961.948901656169255, 12957.288588104835071, 0.0 ], [ 14927.326643575999697, 12917.838992938464798, 0.0 ], [ 14889.889576418410797, 12856.692930971337773, 0.0 ], [ 14860.01441565443929, 12834.350176765648939, 0.0 ], [ 14828.508358777586182, 12763.240047224862792, 0.0 ], [ 14805.694838778201301, 12724.377044501779892, 0.0 ], [ 14773.024392922494371, 12711.05443663715414, 0.0 ], [ 14742.020826897669394, 12695.400372397220053, 0.0 ], [ 14703.683041078124006, 12681.078568942910351, 0.0 ], [ 14686.716135222550292, 12667.633452863497951, 0.0 ], [ 14623.549472939308544, 12648.56627006742201, 0.0 ], [ 14610.070472939025422, 12643.704270067690231, 0.0 ], [ 14586.710972939703424, 12635.588270068234124, 0.0 ], [ 14574.916472938928564, 12628.334270067578473, 0.0 ], [ 14563.618472939442654, 12617.477270067734935, 0.0 ], [ 14548.83200210807081, 12599.783224538965442, 0.0 ], [ 14523.191122545014878, 12574.823654742045619, 0.0 ], [ 14517.773472939703424, 12569.251270067943551, 0.0 ], [ 14514.68147293952461, 12564.912270067325153, 0.0 ] ] } },
{ "type": "Feature", "properties": { "fid": 101042, "handle": 476458, "block": -1, "etype": 18, "space": 0, "layer": "ORD. 130-2022", "olinetype": "bylayer", "linetype": "", "color": "255,63,0,255", "ocolor": 20, "color24": -1, "transparency": 0, "lweight": -1, "linewidth": 0.5, "ltscale": 1.0, "visible": 1, "width": 0.0, "thickness": 0.0, "ext": "(3:0,0,0.1)", "ZONA": "URBANA" }, "geometry": { "type": "LineString", "coordinates": [ [ 14328.349568761970659, 12224.005412350474217, 0.0 ], [ 14303.135053709234853, 12212.356052089548029, 0.0 ], [ 14289.717279478061755, 12209.931977500273206, 0.0 ], [ 14272.445521614599784, 12207.935707055097737, 0.0 ], [ 14259.953020126644333, 12204.748553413963236, 0.0 ], [ 14240.53994033401068, 12197.191148154503026, 0.0 ], [ 14232.974639900114198, 12195.194813896036067, 0.0 ], [ 14221.269692306492288, 12192.913361959224858, 0.0 ], [ 14208.993912454780002, 12189.205938749080815, 0.0 ], [ 14199.287455025214513, 12180.507807521215, 0.0 ], [ 14180.588204187426527, 12176.515266631795384, 0.0 ], [ 14160.176126712087353, 12174.376373534156301, 0.0 ], [ 14134.362006787296195, 12164.229553508637764, 0.0 ], [ 14084.687560327436586, 12202.159138648836233, 0.0 ], [ 14073.035886012103219, 12219.51424154832057, 0.0 ], [ 14048.363430601630171, 12208.974523236109235, 0.0 ], [ 14020.606897648509403, 12198.434868736258068, 0.0 ], [ 13974.845975544389148, 12189.858110342240252, 0.0 ], [ 13954.090472939509709, 12191.877770067258098, 0.0 ], [ 13957.853118965487738, 12180.800518978452601, 0.0 ], [ 13857.677748020823856, 12137.349554688735225, 0.0 ], [ 14076.881623007442613, 11555.130193059398152, 0.0 ], [ 13558.077402727763911, 11372.770572070097842, 0.0 ], [ 13951.101431801069339, 10337.044995963638939, 0.0 ], [ 14136.392328973013718, 10310.567212167261459, 0.0 ], [ 14340.762811911377867, 10238.069788628323295, 0.0 ], [ 14453.17784243458118, 10180.613407471282699, 0.0 ], [ 14662.222684517588277, 10065.709259950621345, 0.0 ], [ 14778.265246003951688, 9981.922567458888807, 0.0 ], [ 15186.882035384971459, 9495.600573729789176, 0.0 ], [ 15221.76470236023124, 9586.805177301233925, 0.0 ], [ 15288.744783547792395, 9669.067904131552496, 0.0 ], [ 15303.543221377853115, 9684.176358822798647, 0.0 ], [ 15341.405866120096107, 9713.367454144237854, 0.0 ], [ 15433.599973795089682, 9746.414265711857297, 0.0 ], [ 15470.584472939457555, 9759.287112844242074, 0.0 ], [ 15482.930472939360698, 9766.493612843631126, 0.0 ], [ 15496.913472939368148, 9775.4141128445699, 0.0 ], [ 15520.508472939107378, 9787.6641128445699, 0.0 ], [ 15547.667472939092477, 9802.868112844480493, 0.0 ], [ 15551.588472939181884, 9812.698612843705632, 0.0 ], [ 15559.465972938660343, 9837.404612843944051, 0.0 ], [ 15573.051472939636369, 9855.934112844122865, 0.0 ], [ 15604.183472938921113, 9876.400112844137766, 0.0 ], [ 15619.40147293926384, 9874.955112843839743, 0.0 ], [ 15655.917410821739395, 9883.235445899023034, 0.0 ], [ 15685.347972939807732, 9896.614612843906798, 0.0 ], [ 15699.397472939539512, 9899.824112843787589, 0.0 ], [ 15735.843472940001448, 9911.939112844011106, 0.0 ], [ 15783.468972939152081, 9928.562612843765237, 0.0 ], [ 15815.250472939658721, 9945.68611284445069, 0.0 ], [ 15834.317472939465006, 9965.860112844100513, 0.0 ], [ 15850.614472939718326, 9988.513112844033458, 0.0 ], [ 15859.943472939628919, 10011.238112844592251, 0.0 ], [ 15872.161472939040323, 10027.82811284444324, 0.0 ], [ 15895.050972939554413, 10079.26561284444324, 0.0 ], [ 15898.819472939792831, 10082.546112843854644, 0.0 ], [ 15902.35447293901052, 10087.97511284432403, 0.0 ], [ 15903.954472939569314, 10092.7341128439366, 0.0 ], [ 15904.750472939658721, 10096.322112844391086, 0.0 ], [ 15913.433472938921113, 10109.140112844361283, 0.0 ], [ 15918.750472939658721, 10118.434612843273499, 0.0 ], [ 15922.41597293977793, 10125.692112844502844, 0.0 ], [ 15930.912472939204235, 10138.127112844093062, 0.0 ], [ 15943.073972939599116, 10153.041612844048359, 0.0 ], [ 15948.719472939234038, 10160.285112843914249, 0.0 ], [ 15951.985472939062674, 10162.62611284392915, 0.0 ], [ 15955.345472939397951, 10165.064112844011106, 0.0 ], [ 15958.729472939941843, 10168.720612843586423, 0.0 ], [ 15962.577472939241488, 10171.77311284380994, 0.0 ], [ 15968.973472938958366, 10175.008112844145217, 0.0 ], [ 15972.110472939062674, 10176.987112844428339, 0.0 ], [ 15982.22947293901052, 10184.187112844614603, 0.0 ], [ 16005.357472939502259, 10192.452112844279327, 0.0 ], [ 16010.113972939636369, 10192.698112844554998, 0.0 ], [ 16019.468472939070125, 10195.301612843824842, 0.0 ], [ 16028.145472939211686, 10197.287112844242074, 0.0 ], [ 16038.301472939636369, 10194.817112844502844, 0.0 ], [ 16047.787472939204235, 10194.28111284418992, 0.0 ], [ 16053.781472939152081, 10199.414612843720533, 0.0 ], [ 16067.696472939189334, 10197.864112843824842, 0.0 ], [ 16078.176472939636369, 10193.722112843832292, 0.0 ], [ 16094.490472938950916, 10185.613112844592251, 0.0 ], [ 16108.876472939822634, 10182.888112844033458, 0.0 ], [ 16127.763472938995619, 10182.614112843824842, 0.0 ], [ 16162.798972939226587, 10183.537612843392708, 0.0 ], [ 16176.472972939807732, 10171.647112843646028, 0.0 ], [ 16189.773472939703424, 10167.27211284457735, 0.0 ], [ 16211.238472939554413, 10177.765112844361283, 0.0 ], [ 16224.878472939219137, 10193.191112844338932, 0.0 ], [ 16251.840472939509709, 10218.711112843891897, 0.0 ], [ 16277.786472939040323, 10238.336112843891897, 0.0 ], [ 16300.258972940120657, 10252.172112844018557, 0.0 ], [ 16314.175472939472456, 10263.490112843988754, 0.0 ], [ 16317.116972939196785, 10269.159612844763615, 0.0 ], [ 16324.036472939040323, 10273.276112844301679, 0.0 ], [ 16338.568472939628919, 10269.391112844525196, 0.0 ], [ 16345.551972939718326, 10269.644612844167568, 0.0 ], [ 16348.128472939219137, 10273.977112843720533, 0.0 ], [ 16348.670472939584215, 10276.458112844331481, 0.0 ], [ 16359.816972939383049, 10278.853112843884446, 0.0 ], [ 16398.854972939090658, 10263.071612843377807, 0.0 ], [ 16429.248972939411033, 10236.014612844279327, 0.0 ], [ 16455.015780730256665, 10213.536492283521511, 0.0 ], [ 16358.854739328931828, 9293.000722316159226, 0.0 ], [ 16355.969386898997982, 9289.17199671833805, 0.0 ], [ 16349.014472939159532, 9225.046270067869045, 0.0 ], [ 17456.647472939537693, 9557.620270067891397, 0.0 ], [ 17420.72447293912046, 9599.617270067399659, 0.0 ], [ 17407.677972939880419, 9622.250270066848316, 0.0 ], [ 17395.609472938896943, 9659.749270067615726, 0.0 ], [ 17409.511972939679254, 9685.706770068100013, 0.0 ], [ 17414.076472939075757, 9738.12877006742201, 0.0 ], [ 17417.699472939679254, 9780.923270067265548, 0.0 ], [ 17441.123472939329076, 9836.294770067623176, 0.0 ], [ 17463.290972939776111, 9881.292770067295351, 0.0 ], [ 17479.515472939321626, 9929.843270067191042, 0.0 ], [ 17478.023972938852239, 10015.088270068234124, 0.0 ], [ 17475.809523357162107, 10108.965466148285486, 0.0 ], [ 17473.907472939314175, 10176.138270067116537, 0.0 ], [ 17407.990972939031053, 10304.550270067593374, 0.0 ], [ 17393.808422299185622, 10360.704339177413203, 0.0 ], [ 17382.922472938978899, 10393.306270067645528, 0.0 ], [ 17519.114596773953963, 10468.861446121773042, 0.0 ], [ 17501.782712467098463, 10481.856081974758126, 0.0 ], [ 17483.948954703369964, 10509.809590251250484, 0.0 ], [ 17446.498712467113364, 10542.265081974743225, 0.0 ], [ 17411.293273278595734, 10589.598892044341483, 0.0 ], [ 17393.950712467627454, 10644.715581975011446, 0.0 ], [ 17382.59321246770196, 10685.13558197493694, 0.0 ], [ 17364.969712467016507, 10739.446081975540437, 0.0 ], [ 17300.851163327777613, 10879.934574934719421, 0.0 ], [ 17303.54593789772116, 10963.752287478251674, 0.0 ], [ 17246.469541121357906, 11137.471336806258478, 0.0 ], [ 17259.091844685459364, 11241.986812018854835, 0.0 ], [ 17236.029132941821445, 11328.381552749378898, 0.0 ], [ 17237.182177816601325, 11417.080143873645284, 0.0 ], [ 17163.207529168659676, 11517.734405901348509, 0.0 ], [ 17099.784783240491379, 11601.825296239061572, 0.0 ], [ 16953.184470929289091, 11857.391242355173745, 0.0 ], [ 16983.834419163027633, 11882.557472066087939, 0.0 ], [ 16944.503070557573665, 11941.795072956076183, 0.0 ], [ 16953.140472939321626, 11975.289270067652978, 0.0 ], [ 16964.596827820027102, 12088.716761644063808, 0.0 ], [ 16900.463221727954078, 12258.378499616934278, 0.0 ], [ 16733.062987199136842, 12529.09565099800966, 0.0 ], [ 16531.728179415771592, 12707.114417102253356, 0.0 ], [ 16378.580861485648711, 12779.310259140162088, 0.0 ], [ 15805.820966698314805, 13467.229419023795344, 0.0 ], [ 15790.88277954896148, 13453.071692317789712, 0.0 ], [ 15722.918431965719719, 13388.658209662018635, 0.0 ], [ 15720.898952455345352, 13386.744239867730357, 0.0 ], [ 15528.58688619741406, 13541.419811640931584, 0.0 ], [ 15450.405806855384071, 13579.16312186705909, 0.0 ], [ 15364.338897853243907, 13573.878034175439097, 0.0 ], [ 15415.092994547534545, 13486.595581821231463, 0.0 ], [ 15381.182160687718351, 13381.081207042625465, 0.0 ], [ 15030.3428135710692, 13103.804941647751548, 0.0 ], [ 15037.551408418539722, 13061.105372562138655, 0.0 ], [ 15024.400495381180008, 13005.791138979671814, 0.0 ], [ 15004.323561259630878, 12981.492769706128456, 0.0 ], [ 14977.297020670112033, 12957.965839021904685, 0.0 ], [ 14931.303048585627039, 12910.72953552200488, 0.0 ], [ 14891.893051895398457, 12854.239713078430213, 0.0 ], [ 14862.867336572233398, 12830.535210919631936, 0.0 ], [ 14836.634287456136008, 12764.249817523239471, 0.0 ], [ 14805.694838778201301, 12724.377044501779892, 0.0 ], [ 14742.354272823866268, 12692.683429555101611, 0.0 ], [ 14704.259260132994314, 12679.979420464551367, 0.0 ], [ 14687.398019891317745, 12666.915249292804219, 0.0 ], [ 14631.360302898187001, 12649.82012164506159, 0.0 ], [ 14586.826150608334501, 12633.931383817522146, 0.0 ], [ 14575.188560200940628, 12627.685184131441929, 0.0 ], [ 14568.524057839151283, 12620.422370358435728, 0.0 ], [ 14563.106016912583073, 12614.517920164456882, 0.0 ], [ 14546.361502108249624, 12597.091224539159157, 0.0 ], [ 14524.582014131445248, 12574.156666656090238, 0.0 ], [ 14514.68147293952461, 12564.912270067325153, 0.0 ], [ 14512.815381688151319, 12554.631721224701323, 0.0 ], [ 14510.655917156573196, 12540.998463333649852, 0.0 ], [ 14511.948825005527397, 12529.989143186314323, 0.0 ], [ 14512.379629355009456, 12518.642123227073171, 0.0 ], [ 14509.911245778288503, 12503.710839663697698, 0.0 ], [ 14502.584438105199297, 12487.473617582647421, 0.0 ], [ 14498.944537185217996, 12471.675622222079255, 0.0 ], [ 14498.882852335545977, 12462.203946565343358, 0.0 ], [ 14495.246415004219671, 12440.456129777310707, 0.0 ], [ 14495.246415004219671, 12430.183661428345658, 0.0 ], [ 14494.072588603097756, 12406.708419490671076, 0.0 ], [ 14486.438016412865181, 12390.717197555182793, 0.0 ], [ 14470.842799981210192, 12370.852765541589179, 0.0 ], [ 14455.741392210211416, 12347.302798267519393, 0.0 ], [ 14443.242788209665378, 12335.862930004550435, 0.0 ], [ 14435.224912302654047, 12323.028933288594999, 0.0 ], [ 14415.337980711918135, 12301.071745169414498, 0.0 ], [ 14405.586661573584934, 12287.656345773553767, 0.0 ], [ 14391.487385208803971, 12278.246122294171073, 0.0 ], [ 14378.188362559389134, 12266.929286010628857, 0.0 ], [ 14374.422947815704902, 12265.984466773523309, 0.0 ], [ 14340.781779178503712, 12250.937106876699545, 0.0 ], [ 14332.611010609280129, 12246.817769024586596, 0.0 ], [ 14349.974306150425036, 12231.52479186194978, 0.0 ], [ 14347.617611850697358, 12229.102435461310961, 0.0 ], [ 14336.536739989269336, 12220.483820334142365, 0.0 ], [ 14328.349568761970659, 12224.005412350474217, 0.0 ] ] } }
]
}
