{
"type": "FeatureCollection",
"name": "zonificacion",
"features": [
{ "type": "Feature", "properties": { "fid": "95838", "handle": "476452", "block": "-1", "etype": "18", "space": "0", "layer": "ORD. 130-2022", "olinetype": "bylayer", "linetype": "", "color": "255,0,0,255", "ocolor": "1", "color24": "-1", "transparency": "0", "lweight": "-1", "linewidth": "0.5", "ltscale": "1", "visible": "1", "width": "0", "thickness": "0", "ext": "(3:0,0,0.1)", "ZONA": "CENTRO" }, "geometry": null },
{ "type": "Feature", "properties": { "fid": "95839", "handle": "476453", "block": "-1", "etype": "18", "space": "0", "layer": "ORD. 130-2022", "olinetype": "ACAD_ISO03W100", "linetype": "", "color": "255,0,0,255", "ocolor": "1", "color24": "-1", "transparency": "0", "lweight": "-1", "linewidth": "0.5", "ltscale": "1", "visible": "1", "width": "0", "thickness": "0", "ext": "(3:0,0,0.1)", "ZONA": "PERIURBANA-AMP SERVICIOS" }, "geometry": null },
{ "type": "Feature", "properties": { "fid": "95840", "handle": "476454", "block": "-1", "etype": "18", "space": "0", "layer": "ORD. 130-2022", "olinetype": "bylayer", "linetype": "", "color": "38,153,0,255", "ocolor": "84", "color24": "-1", "transparency": "0", "lweight": "-1", "linewidth": "0.5", "ltscale": "1", "visible": "1", "width": "0", "thickness": "0", "ext": "(3:0,0,0.1)", "ZONA": "AREA PROTEGIDA SUR" }, "geometry": null },
{ "type": "Feature", "properties": { "fid": "95849", "handle": "476463", "block": "-1", "etype": "18", "space": "0", "layer": "ORD. 130-2022", "olinetype": "bylayer", "linetype": "", "color": "255,0,0,255", "ocolor": "1", "color24": "-1", "transparency": "0", "lweight": "-1", "linewidth": "0.5", "ltscale": "1", "visible": "1", "width": "0", "thickness": "0", "ext": "(3:0,0,0.1)", "ZONA": "PERIURBANA-COL HUGHES" }, "geometry": null },
{ "type": "Feature", "properties": { "fid": "95856", "handle": "476470", "block": "-1", "etype": "18", "space": "0", "layer": "ORD. 130-2022", "olinetype": "bylayer", "linetype": "", "color": "255,127,223,255", "ocolor": "221", "color24": "-1", "transparency": "0", "lweight": "-1", "linewidth": "0.5", "ltscale": "1", "visible": "1", "width": "0", "thickness": "0", "ext": "(3:0,0,0.1)", "ZONA": "QUINTAS" }, "geometry": null },
{ "type": "Feature", "properties": { "fid": "95857", "handle": "476471", "block": "-1", "etype": "18", "space": "0", "layer": "ORD. 130-2022", "olinetype": "bylayer", "linetype": "", "color": "0,0,255,255", "ocolor": "5", "color24": "-1", "transparency": "0", "lweight": "-1", "linewidth": "0.5", "ltscale": "1", "visible": "1", "width": "0", "thickness": "0", "ext": "(3:0,0,0.1)", "ZONA": "AMORTIGUACION AMBIENTAL II" }, "geometry": null },
{ "type": "Feature", "properties": { "fid": "95858", "handle": "476472", "block": "-1", "etype": "18", "space": "0", "layer": "ORD. 130-2022", "olinetype": "bylayer", "linetype": "", "color": "255,255,0,255", "ocolor": "2", "color24": "-1", "transparency": "0", "lweight": "-1", "linewidth": "0.5", "ltscale": "1", "visible": "1", "width": "0", "thickness": "0", "ext": "(3:0,0,0.1)", "ZONA": "INDUSTRIAL" }, "geometry": null },
{ "type": "Feature", "properties": { "fid": "95859", "handle": "476473", "block": "-1", "etype": "18", "space": "0", "layer": "ORD. 130-2022", "olinetype": "bylayer", "linetype": "", "color": "0,0,255,255", "ocolor": "5", "color24": "-1", "transparency": "0", "lweight": "-1", "linewidth": "0.5", "ltscale": "1", "visible": "1", "width": "0", "thickness": "0", "ext": "(3:0,0,0.1)", "ZONA": "AMORTIGUACION AMBIENTAL II" }, "geometry": null },
{ "type": "Feature", "properties": { "fid": "95860", "handle": "476474", "block": "-1", "etype": "18", "space": "0", "layer": "ORD. 130-2022", "olinetype": "bylayer", "linetype": "", "color": "0,0,255,255", "ocolor": "5", "color24": "-1", "transparency": "0", "lweight": "-1", "linewidth": "0.5", "ltscale": "1", "visible": "1", "width": "0", "thickness": "0", "ext": "(3:0,0,0.1)", "ZONA": "MIXTA COMPLEMENTO AREA INDUSTR" }, "geometry": null },
{ "type": "Feature", "properties": { "fid": "95861", "handle": "476475", "block": "-1", "etype": "18", "space": "0", "layer": "ORD. 130-2022", "olinetype": "bylayer", "linetype": "", "color": "204,0,204,255", "ocolor": "212", "color24": "-1", "transparency": "0", "lweight": "-1", "linewidth": "0.5", "ltscale": "1", "visible": "1", "width": "0", "thickness": "0", "ext": "(3:0,0,0.1)", "ZONA": "RURAL" }, "geometry": null },
{ "type": "Feature", "properties": { "fid": "95862", "handle": "476476", "block": "-1", "etype": "18", "space": "0", "layer": "ORD. 130-2022", "olinetype": "DASHED2", "linetype": "", "color": "255,0,0,255", "ocolor": "1", "color24": "-1", "transparency": "0", "lweight": "-1", "linewidth": "0.5", "ltscale": "1", "visible": "1", "width": "0", "thickness": "0", "ext": "(3:0,0,0.1)", "ZONA": "PERIURBANA-AMP SERVICIOS" }, "geometry": null },
{ "type": "Feature", "properties": { "fid": "95863", "handle": "476477", "block": "-1", "etype": "18", "space": "0", "layer": "ORD. 130-2022", "olinetype": "bylayer", "linetype": "", "color": "127,255,0,255", "ocolor": "70", "color24": "-1", "transparency": "0", "lweight": "-1", "linewidth": "0.5", "ltscale": "1", "visible": "1", "width": "0", "thickness": "0", "ext": "(3:0,0,0.1)", "ZONA": "" }, "geometry": null },
{ "type": "Feature", "properties": { "fid": "95864", "handle": "476478", "block": "-1", "etype": "18", "space": "0", "layer": "ORD. 130-2022", "olinetype": "bylayer", "linetype": "", "color": "0,255,191,255", "ocolor": "120", "color24": "-1", "transparency": "0", "lweight": "-1", "linewidth": "0.5", "ltscale": "1", "visible": "1", "width": "0", "thickness": "0", "ext": "(3:0,0,0.1)", "ZONA": "CHACRAS" }, "geometry": null },
{ "type": "Feature", "properties": { "fid": "101040", "handle": "476455", "block": "-1", "etype": "18", "space": "0", "layer": "ORD. 130-2022", "olinetype": "bylayer", "linetype": "", "color": "38,153,0,255", "ocolor": "84", "color24": "-1", "transparency": "0", "lweight": "-1", "linewidth": "0.5", "ltscale": "1", "visible": "1", "width": "0", "thickness": "0", "ext": "(3:0,0,0.1)", "ZONA": "AREA PROTEGIDA NORTE" }, "geometry": null },
{ "type": "Feature", "properties": { "fid": "101041", "handle": "476464", "block": "-1", "etype": "18", "space": "0", "layer": "ORD. 130-2022", "olinetype": "bylayer", "linetype": "", "color": "127,255,0,255", "ocolor": "70", "color24": "-1", "transparency": "0", "lweight": "-1", "linewidth": "0.5", "ltscale": "1", "visible": "1", "width": "0", "thickness": "0", "ext": "(3:0,0,0.1)", "ZONA": "PERIURBANA" }, "geometry": null },
{ "type": "Feature", "properties": { "fid": "101042", "handle": "476458", "block": "-1", "etype": "18", "space": "0", "layer": "ORD. 130-2022", "olinetype": "bylayer", "linetype": "", "color": "255,63,0,255", "ocolor": "20", "color24": "-1", "transparency": "0", "lweight": "-1", "linewidth": "0.5", "ltscale": "1", "visible": "1", "width": "0", "thickness": "0", "ext": "(3:0,0,0.1)", "ZONA": "URBANA" }, "geometry": null }
]
}
